"filename","indicator1","indicator2","indicator3","X","Y","Z","X,Y","Y,Z","X,Z","X,Y,Z","pop"
"Central African Republic_MICS4_Datasets","blank1","blank2","ext",100,100,76,100,76,76,76,4500000
"Central African Republic_MICS4_Datasets","blank1","blank2","female",100,100,51,100,51,51,51,4500000
"Central African Republic_MICS4_Datasets","blank1","blank2","fifteento49",100,100,44,100,44,44,44,4500000
"Central African Republic_MICS4_Datasets","blank1","blank2","fiveto14",100,100,28,100,28,28,28,4500000
"Central African Republic_MICS4_Datasets","blank1","blank2","gt49",100,100,8,100,8,8,8,4500000
"Central African Republic_MICS4_Datasets","blank1","blank2","higher",100,100,3,100,3,3,3,1650000
"Central African Republic_MICS4_Datasets","blank1","blank2","male",100,100,49,100,49,49,49,4500000
"Central African Republic_MICS4_Datasets","blank1","blank2","no.birth.reg",100,100,39,100,39,39,39,725000
"Central African Republic_MICS4_Datasets","blank1","blank2","no.educ",100,100,75,100,75,75,75,1650000
"Central African Republic_MICS4_Datasets","blank1","blank2","no.skilled.attendant",100,100,48,100,48,48,48,1047000
"Central African Republic_MICS4_Datasets","blank1","blank2","non.p20",100,100,16,100,16,16,16,4500000
"Central African Republic_MICS4_Datasets","blank1","blank2","p20",100,100,84,100,84,84,84,4500000
"Central African Republic_MICS4_Datasets","blank1","blank2","primary",100,100,25,100,25,25,25,1650000
"Central African Republic_MICS4_Datasets","blank1","blank2","rural",100,100,61,100,61,61,61,4500000
"Central African Republic_MICS4_Datasets","blank1","blank2","secondary",100,100,25,100,25,25,25,1650000
"Central African Republic_MICS4_Datasets","blank1","blank2","stunted",100,100,41,100,41,41,41,725000
"Central African Republic_MICS4_Datasets","blank1","blank2","under5",100,100,20,100,20,20,20,4500000
"Central African Republic_MICS4_Datasets","blank1","blank2","urban",100,100,39,100,39,39,39,4500000
"Central African Republic_MICS4_Datasets","blank1","ext","female",100,76,51,76,39,51,39,4500000
"Central African Republic_MICS4_Datasets","blank1","ext","fifteento49",100,76,44,76,32,44,32,4500000
"Central African Republic_MICS4_Datasets","blank1","ext","fiveto14",100,76,28,76,21,28,21,4500000
"Central African Republic_MICS4_Datasets","blank1","ext","gt49",100,76,8,76,6,8,6,4500000
"Central African Republic_MICS4_Datasets","blank1","ext","higher",100,76,3,76,1,3,1,1650000
"Central African Republic_MICS4_Datasets","blank1","ext","male",100,76,49,76,37,49,37,4500000
"Central African Republic_MICS4_Datasets","blank1","ext","no.birth.reg",100,80,39,80,35,39,35,725000
"Central African Republic_MICS4_Datasets","blank1","ext","no.educ",100,76,75,76,64,75,64,1650000
"Central African Republic_MICS4_Datasets","blank1","ext","no.skilled.attendant",100,81,48,81,45,48,45,1047000
"Central African Republic_MICS4_Datasets","blank1","ext","non.p20",100,76,16,76,0,16,0,4500000
"Central African Republic_MICS4_Datasets","blank1","ext","p20",100,76,84,76,76,84,76,4500000
"Central African Republic_MICS4_Datasets","blank1","ext","primary",100,76,25,76,12,25,12,1650000
"Central African Republic_MICS4_Datasets","blank1","ext","rural",100,76,61,76,58,61,58,4500000
"Central African Republic_MICS4_Datasets","blank1","ext","secondary",100,76,25,76,12,25,12,1650000
"Central African Republic_MICS4_Datasets","blank1","ext","stunted",100,80,41,80,34,41,34,725000
"Central African Republic_MICS4_Datasets","blank1","ext","under5",100,76,20,76,16,20,16,4500000
"Central African Republic_MICS4_Datasets","blank1","ext","urban",100,76,39,76,18,39,18,4500000
"Central African Republic_MICS4_Datasets","blank1","female","fifteento49",100,51,44,51,23,44,23,4500000
"Central African Republic_MICS4_Datasets","blank1","female","fiveto14",100,51,28,51,14,28,14,4500000
"Central African Republic_MICS4_Datasets","blank1","female","gt49",100,51,8,51,4,8,4,4500000
"Central African Republic_MICS4_Datasets","blank1","female","higher",100,51,3,51,1,3,1,1650000
"Central African Republic_MICS4_Datasets","blank1","female","male",100,51,49,51,0,49,0,4500000
"Central African Republic_MICS4_Datasets","blank1","female","no.birth.reg",100,50,39,50,19,39,19,725000
"Central African Republic_MICS4_Datasets","blank1","female","no.educ",100,51,75,51,43,75,43,1650000
"Central African Republic_MICS4_Datasets","blank1","female","no.skilled.attendant",100,100,48,100,48,48,48,1047000
"Central African Republic_MICS4_Datasets","blank1","female","non.p20",100,51,16,51,8,16,8,4500000
"Central African Republic_MICS4_Datasets","blank1","female","p20",100,51,84,51,43,84,43,4500000
"Central African Republic_MICS4_Datasets","blank1","female","primary",100,51,25,51,8,25,8,1650000
"Central African Republic_MICS4_Datasets","blank1","female","rural",100,51,61,51,31,61,31,4500000
"Central African Republic_MICS4_Datasets","blank1","female","secondary",100,51,25,51,8,25,8,1650000
"Central African Republic_MICS4_Datasets","blank1","female","stunted",100,50,41,50,18,41,18,725000
"Central African Republic_MICS4_Datasets","blank1","female","under5",100,51,20,51,10,20,10,4500000
"Central African Republic_MICS4_Datasets","blank1","female","urban",100,51,39,51,20,39,20,4500000
"Central African Republic_MICS4_Datasets","blank1","fifteento49","fiveto14",100,44,28,44,0,28,0,4500000
"Central African Republic_MICS4_Datasets","blank1","fifteento49","gt49",100,44,8,44,0,8,0,4500000
"Central African Republic_MICS4_Datasets","blank1","fifteento49","higher",100,77,3,77,3,3,3,1650000
"Central African Republic_MICS4_Datasets","blank1","fifteento49","male",100,44,49,44,21,49,21,4500000
"Central African Republic_MICS4_Datasets","blank1","fifteento49","no.birth.reg",100,0,39,0,0,39,0,725000
"Central African Republic_MICS4_Datasets","blank1","fifteento49","no.educ",100,77,75,77,55,75,55,1650000
"Central African Republic_MICS4_Datasets","blank1","fifteento49","no.skilled.attendant",100,100,48,100,48,48,48,1047000
"Central African Republic_MICS4_Datasets","blank1","fifteento49","non.p20",100,44,16,44,8,16,8,4500000
"Central African Republic_MICS4_Datasets","blank1","fifteento49","p20",100,44,84,44,36,84,36,4500000
"Central African Republic_MICS4_Datasets","blank1","fifteento49","primary",100,77,25,77,22,25,22,1650000
"Central African Republic_MICS4_Datasets","blank1","fifteento49","rural",100,44,61,44,26,61,26,4500000
"Central African Republic_MICS4_Datasets","blank1","fifteento49","secondary",100,77,25,77,22,25,22,1650000
"Central African Republic_MICS4_Datasets","blank1","fifteento49","stunted",100,0,41,0,0,41,0,725000
"Central African Republic_MICS4_Datasets","blank1","fifteento49","under5",100,44,20,44,0,20,0,4500000
"Central African Republic_MICS4_Datasets","blank1","fifteento49","urban",100,44,39,44,18,39,18,4500000
"Central African Republic_MICS4_Datasets","blank1","fiveto14","gt49",100,28,8,28,0,8,0,4500000
"Central African Republic_MICS4_Datasets","blank1","fiveto14","higher",100,0,3,0,0,3,0,1650000
"Central African Republic_MICS4_Datasets","blank1","fiveto14","male",100,28,49,28,14,49,14,4500000
"Central African Republic_MICS4_Datasets","blank1","fiveto14","no.birth.reg",100,0,39,0,0,39,0,725000
"Central African Republic_MICS4_Datasets","blank1","fiveto14","no.educ",100,0,75,0,0,75,0,1650000
"Central African Republic_MICS4_Datasets","blank1","fiveto14","no.skilled.attendant",100,0,48,0,0,48,0,1047000
"Central African Republic_MICS4_Datasets","blank1","fiveto14","non.p20",100,28,16,28,5,16,5,4500000
"Central African Republic_MICS4_Datasets","blank1","fiveto14","p20",100,28,84,28,24,84,24,4500000
"Central African Republic_MICS4_Datasets","blank1","fiveto14","primary",100,0,25,0,0,25,0,1650000
"Central African Republic_MICS4_Datasets","blank1","fiveto14","rural",100,28,61,28,18,61,18,4500000
"Central African Republic_MICS4_Datasets","blank1","fiveto14","secondary",100,0,25,0,0,25,0,1650000
"Central African Republic_MICS4_Datasets","blank1","fiveto14","stunted",100,0,41,0,0,41,0,725000
"Central African Republic_MICS4_Datasets","blank1","fiveto14","under5",100,28,20,28,0,20,0,4500000
"Central African Republic_MICS4_Datasets","blank1","fiveto14","urban",100,28,39,28,11,39,11,4500000
"Central African Republic_MICS4_Datasets","blank1","gt49","higher",100,23,3,23,0,3,0,1650000
"Central African Republic_MICS4_Datasets","blank1","gt49","male",100,8,49,8,4,49,4,4500000
"Central African Republic_MICS4_Datasets","blank1","gt49","no.birth.reg",100,0,39,0,0,39,0,725000
"Central African Republic_MICS4_Datasets","blank1","gt49","no.educ",100,23,75,23,20,75,20,1650000
"Central African Republic_MICS4_Datasets","blank1","gt49","no.skilled.attendant",100,0,48,0,0,48,0,1047000
"Central African Republic_MICS4_Datasets","blank1","gt49","non.p20",100,8,16,8,1,16,1,4500000
"Central African Republic_MICS4_Datasets","blank1","gt49","p20",100,8,84,8,7,84,7,4500000
"Central African Republic_MICS4_Datasets","blank1","gt49","primary",100,23,25,23,3,25,3,1650000
"Central African Republic_MICS4_Datasets","blank1","gt49","rural",100,8,61,8,5,61,5,4500000
"Central African Republic_MICS4_Datasets","blank1","gt49","secondary",100,23,25,23,3,25,3,1650000
"Central African Republic_MICS4_Datasets","blank1","gt49","stunted",100,0,41,0,0,41,0,725000
"Central African Republic_MICS4_Datasets","blank1","gt49","under5",100,8,20,8,0,20,0,4500000
"Central African Republic_MICS4_Datasets","blank1","gt49","urban",100,8,39,8,3,39,3,4500000
"Central African Republic_MICS4_Datasets","blank1","higher","male",100,3,49,3,2,49,2,1650000
"Central African Republic_MICS4_Datasets","blank1","higher","no.birth.reg",,,,,,,,1650000
"Central African Republic_MICS4_Datasets","blank1","higher","no.educ",100,3,75,3,0,75,0,1650000
"Central African Republic_MICS4_Datasets","blank1","higher","no.skilled.attendant",100,1,49,1,0,49,0,594000
"Central African Republic_MICS4_Datasets","blank1","higher","non.p20",100,3,16,3,2,16,2,1650000
"Central African Republic_MICS4_Datasets","blank1","higher","p20",100,3,84,3,1,84,1,1650000
"Central African Republic_MICS4_Datasets","blank1","higher","primary",100,3,25,3,3,25,3,1650000
"Central African Republic_MICS4_Datasets","blank1","higher","rural",100,3,61,3,0,61,0,1650000
"Central African Republic_MICS4_Datasets","blank1","higher","secondary",100,3,25,3,3,25,3,1650000
"Central African Republic_MICS4_Datasets","blank1","higher","stunted",,,,,,,,1650000
"Central African Republic_MICS4_Datasets","blank1","higher","under5",100,3,0,3,0,0,0,1650000
"Central African Republic_MICS4_Datasets","blank1","higher","urban",100,3,39,3,3,39,3,1650000
"Central African Republic_MICS4_Datasets","blank1","male","no.birth.reg",100,50,39,50,19,39,19,725000
"Central African Republic_MICS4_Datasets","blank1","male","no.educ",100,49,75,49,32,75,32,1650000
"Central African Republic_MICS4_Datasets","blank1","male","no.skilled.attendant",100,0,48,0,0,48,0,1047000
"Central African Republic_MICS4_Datasets","blank1","male","non.p20",100,49,16,49,8,16,8,4500000
"Central African Republic_MICS4_Datasets","blank1","male","p20",100,49,84,49,41,84,41,4500000
"Central African Republic_MICS4_Datasets","blank1","male","primary",100,49,25,49,17,25,17,1650000
"Central African Republic_MICS4_Datasets","blank1","male","rural",100,49,61,49,30,61,30,4500000
"Central African Republic_MICS4_Datasets","blank1","male","secondary",100,49,25,49,17,25,17,1650000
"Central African Republic_MICS4_Datasets","blank1","male","stunted",100,50,41,50,21,41,21,725000
"Central African Republic_MICS4_Datasets","blank1","male","under5",100,49,20,49,10,20,10,4500000
"Central African Republic_MICS4_Datasets","blank1","male","urban",100,49,39,49,19,39,19,4500000
"Central African Republic_MICS4_Datasets","blank1","no.birth.reg","no.educ",,,,,,,,1650000
"Central African Republic_MICS4_Datasets","blank1","no.birth.reg","no.skilled.attendant",,,,,,,,725000
"Central African Republic_MICS4_Datasets","blank1","no.birth.reg","non.p20",100,39,13,39,2,13,2,725000
"Central African Republic_MICS4_Datasets","blank1","no.birth.reg","p20",100,39,87,39,37,87,37,725000
"Central African Republic_MICS4_Datasets","blank1","no.birth.reg","primary",,,,,,,,1650000
"Central African Republic_MICS4_Datasets","blank1","no.birth.reg","rural",100,39,65,39,31,65,31,725000
"Central African Republic_MICS4_Datasets","blank1","no.birth.reg","secondary",,,,,,,,1650000
"Central African Republic_MICS4_Datasets","blank1","no.birth.reg","stunted",100,39,41,39,17,41,17,725000
"Central African Republic_MICS4_Datasets","blank1","no.birth.reg","under5",100,39,100,39,39,100,39,725000
"Central African Republic_MICS4_Datasets","blank1","no.birth.reg","urban",100,39,35,39,7,35,7,725000
"Central African Republic_MICS4_Datasets","blank1","no.educ","no.skilled.attendant",100,88,49,88,47,49,47,594000
"Central African Republic_MICS4_Datasets","blank1","no.educ","non.p20",100,75,16,75,6,16,6,1650000
"Central African Republic_MICS4_Datasets","blank1","no.educ","p20",100,75,84,75,69,84,69,1650000
"Central African Republic_MICS4_Datasets","blank1","no.educ","primary",100,75,25,75,0,25,0,1650000
"Central African Republic_MICS4_Datasets","blank1","no.educ","rural",100,75,61,75,53,61,53,1650000
"Central African Republic_MICS4_Datasets","blank1","no.educ","secondary",100,75,25,75,0,25,0,1650000
"Central African Republic_MICS4_Datasets","blank1","no.educ","stunted",,,,,,,,1650000
"Central African Republic_MICS4_Datasets","blank1","no.educ","under5",100,75,0,75,0,0,0,1650000
"Central African Republic_MICS4_Datasets","blank1","no.educ","urban",100,75,39,75,22,39,22,1650000
"Central African Republic_MICS4_Datasets","blank1","no.skilled.attendant","non.p20",100,48,12,48,1,12,1,1047000
"Central African Republic_MICS4_Datasets","blank1","no.skilled.attendant","p20",100,48,88,48,47,88,47,1047000
"Central African Republic_MICS4_Datasets","blank1","no.skilled.attendant","primary",100,49,12,49,2,12,2,594000
"Central African Republic_MICS4_Datasets","blank1","no.skilled.attendant","rural",100,48,66,48,42,66,42,1047000
"Central African Republic_MICS4_Datasets","blank1","no.skilled.attendant","secondary",100,49,12,49,2,12,2,594000
"Central African Republic_MICS4_Datasets","blank1","no.skilled.attendant","stunted",,,,,,,,725000
"Central African Republic_MICS4_Datasets","blank1","no.skilled.attendant","under5",100,48,0,48,0,0,0,1047000
"Central African Republic_MICS4_Datasets","blank1","no.skilled.attendant","urban",100,48,34,48,6,34,6,1047000
"Central African Republic_MICS4_Datasets","blank1","non.p20","p20",100,16,84,16,0,84,0,4500000
"Central African Republic_MICS4_Datasets","blank1","non.p20","primary",100,16,25,16,10,25,10,1650000
"Central African Republic_MICS4_Datasets","blank1","non.p20","rural",100,16,61,16,2,61,2,4500000
"Central African Republic_MICS4_Datasets","blank1","non.p20","secondary",100,16,25,16,10,25,10,1650000
"Central African Republic_MICS4_Datasets","blank1","non.p20","stunted",100,13,41,13,3,41,3,725000
"Central African Republic_MICS4_Datasets","blank1","non.p20","under5",100,16,20,16,2,20,2,4500000
"Central African Republic_MICS4_Datasets","blank1","non.p20","urban",100,16,39,16,15,39,15,4500000
"Central African Republic_MICS4_Datasets","blank1","p20","primary",100,84,25,84,15,25,15,1650000
"Central African Republic_MICS4_Datasets","blank1","p20","rural",100,84,61,84,60,61,60,4500000
"Central African Republic_MICS4_Datasets","blank1","p20","secondary",100,84,25,84,15,25,15,1650000
"Central African Republic_MICS4_Datasets","blank1","p20","stunted",100,87,41,87,37,41,37,725000
"Central African Republic_MICS4_Datasets","blank1","p20","under5",100,84,20,84,17,20,17,4500000
"Central African Republic_MICS4_Datasets","blank1","p20","urban",100,84,39,84,24,39,24,4500000
"Central African Republic_MICS4_Datasets","blank1","primary","rural",100,25,61,25,8,61,8,1650000
"Central African Republic_MICS4_Datasets","blank1","primary","secondary",100,25,25,25,25,25,25,1650000
"Central African Republic_MICS4_Datasets","blank1","primary","stunted",,,,,,,,1650000
"Central African Republic_MICS4_Datasets","blank1","primary","under5",100,25,0,25,0,0,0,1650000
"Central African Republic_MICS4_Datasets","blank1","primary","urban",100,25,39,25,17,39,17,1650000
"Central African Republic_MICS4_Datasets","blank1","rural","secondary",100,61,25,61,8,25,8,1650000
"Central African Republic_MICS4_Datasets","blank1","rural","stunted",100,65,41,65,27,41,27,725000
"Central African Republic_MICS4_Datasets","blank1","rural","under5",100,61,20,61,13,20,13,4500000
"Central African Republic_MICS4_Datasets","blank1","rural","urban",100,61,39,61,0,39,0,4500000
"Central African Republic_MICS4_Datasets","blank1","secondary","stunted",,,,,,,,1650000
"Central African Republic_MICS4_Datasets","blank1","secondary","under5",100,25,0,25,0,0,0,1650000
"Central African Republic_MICS4_Datasets","blank1","secondary","urban",100,25,39,25,17,39,17,1650000
"Central African Republic_MICS4_Datasets","blank1","stunted","under5",100,41,100,41,41,100,41,725000
"Central African Republic_MICS4_Datasets","blank1","stunted","urban",100,41,35,41,13,35,13,725000
"Central African Republic_MICS4_Datasets","blank1","under5","urban",100,20,39,20,7,39,7,4500000
"Central African Republic_MICS4_Datasets","blank2","ext","female",100,76,51,76,39,51,39,4500000
"Central African Republic_MICS4_Datasets","blank2","ext","fifteento49",100,76,44,76,32,44,32,4500000
"Central African Republic_MICS4_Datasets","blank2","ext","fiveto14",100,76,28,76,21,28,21,4500000
"Central African Republic_MICS4_Datasets","blank2","ext","gt49",100,76,8,76,6,8,6,4500000
"Central African Republic_MICS4_Datasets","blank2","ext","higher",100,76,3,76,1,3,1,1650000
"Central African Republic_MICS4_Datasets","blank2","ext","male",100,76,49,76,37,49,37,4500000
"Central African Republic_MICS4_Datasets","blank2","ext","no.birth.reg",100,80,39,80,35,39,35,725000
"Central African Republic_MICS4_Datasets","blank2","ext","no.educ",100,76,75,76,64,75,64,1650000
"Central African Republic_MICS4_Datasets","blank2","ext","no.skilled.attendant",100,81,48,81,45,48,45,1047000
"Central African Republic_MICS4_Datasets","blank2","ext","non.p20",100,76,16,76,0,16,0,4500000
"Central African Republic_MICS4_Datasets","blank2","ext","p20",100,76,84,76,76,84,76,4500000
"Central African Republic_MICS4_Datasets","blank2","ext","primary",100,76,25,76,12,25,12,1650000
"Central African Republic_MICS4_Datasets","blank2","ext","rural",100,76,61,76,58,61,58,4500000
"Central African Republic_MICS4_Datasets","blank2","ext","secondary",100,76,25,76,12,25,12,1650000
"Central African Republic_MICS4_Datasets","blank2","ext","stunted",100,80,41,80,34,41,34,725000
"Central African Republic_MICS4_Datasets","blank2","ext","under5",100,76,20,76,16,20,16,4500000
"Central African Republic_MICS4_Datasets","blank2","ext","urban",100,76,39,76,18,39,18,4500000
"Central African Republic_MICS4_Datasets","blank2","female","fifteento49",100,51,44,51,23,44,23,4500000
"Central African Republic_MICS4_Datasets","blank2","female","fiveto14",100,51,28,51,14,28,14,4500000
"Central African Republic_MICS4_Datasets","blank2","female","gt49",100,51,8,51,4,8,4,4500000
"Central African Republic_MICS4_Datasets","blank2","female","higher",100,51,3,51,1,3,1,1650000
"Central African Republic_MICS4_Datasets","blank2","female","male",100,51,49,51,0,49,0,4500000
"Central African Republic_MICS4_Datasets","blank2","female","no.birth.reg",100,50,39,50,19,39,19,725000
"Central African Republic_MICS4_Datasets","blank2","female","no.educ",100,51,75,51,43,75,43,1650000
"Central African Republic_MICS4_Datasets","blank2","female","no.skilled.attendant",100,100,48,100,48,48,48,1047000
"Central African Republic_MICS4_Datasets","blank2","female","non.p20",100,51,16,51,8,16,8,4500000
"Central African Republic_MICS4_Datasets","blank2","female","p20",100,51,84,51,43,84,43,4500000
"Central African Republic_MICS4_Datasets","blank2","female","primary",100,51,25,51,8,25,8,1650000
"Central African Republic_MICS4_Datasets","blank2","female","rural",100,51,61,51,31,61,31,4500000
"Central African Republic_MICS4_Datasets","blank2","female","secondary",100,51,25,51,8,25,8,1650000
"Central African Republic_MICS4_Datasets","blank2","female","stunted",100,50,41,50,18,41,18,725000
"Central African Republic_MICS4_Datasets","blank2","female","under5",100,51,20,51,10,20,10,4500000
"Central African Republic_MICS4_Datasets","blank2","female","urban",100,51,39,51,20,39,20,4500000
"Central African Republic_MICS4_Datasets","blank2","fifteento49","fiveto14",100,44,28,44,0,28,0,4500000
"Central African Republic_MICS4_Datasets","blank2","fifteento49","gt49",100,44,8,44,0,8,0,4500000
"Central African Republic_MICS4_Datasets","blank2","fifteento49","higher",100,77,3,77,3,3,3,1650000
"Central African Republic_MICS4_Datasets","blank2","fifteento49","male",100,44,49,44,21,49,21,4500000
"Central African Republic_MICS4_Datasets","blank2","fifteento49","no.birth.reg",100,0,39,0,0,39,0,725000
"Central African Republic_MICS4_Datasets","blank2","fifteento49","no.educ",100,77,75,77,55,75,55,1650000
"Central African Republic_MICS4_Datasets","blank2","fifteento49","no.skilled.attendant",100,100,48,100,48,48,48,1047000
"Central African Republic_MICS4_Datasets","blank2","fifteento49","non.p20",100,44,16,44,8,16,8,4500000
"Central African Republic_MICS4_Datasets","blank2","fifteento49","p20",100,44,84,44,36,84,36,4500000
"Central African Republic_MICS4_Datasets","blank2","fifteento49","primary",100,77,25,77,22,25,22,1650000
"Central African Republic_MICS4_Datasets","blank2","fifteento49","rural",100,44,61,44,26,61,26,4500000
"Central African Republic_MICS4_Datasets","blank2","fifteento49","secondary",100,77,25,77,22,25,22,1650000
"Central African Republic_MICS4_Datasets","blank2","fifteento49","stunted",100,0,41,0,0,41,0,725000
"Central African Republic_MICS4_Datasets","blank2","fifteento49","under5",100,44,20,44,0,20,0,4500000
"Central African Republic_MICS4_Datasets","blank2","fifteento49","urban",100,44,39,44,18,39,18,4500000
"Central African Republic_MICS4_Datasets","blank2","fiveto14","gt49",100,28,8,28,0,8,0,4500000
"Central African Republic_MICS4_Datasets","blank2","fiveto14","higher",100,0,3,0,0,3,0,1650000
"Central African Republic_MICS4_Datasets","blank2","fiveto14","male",100,28,49,28,14,49,14,4500000
"Central African Republic_MICS4_Datasets","blank2","fiveto14","no.birth.reg",100,0,39,0,0,39,0,725000
"Central African Republic_MICS4_Datasets","blank2","fiveto14","no.educ",100,0,75,0,0,75,0,1650000
"Central African Republic_MICS4_Datasets","blank2","fiveto14","no.skilled.attendant",100,0,48,0,0,48,0,1047000
"Central African Republic_MICS4_Datasets","blank2","fiveto14","non.p20",100,28,16,28,5,16,5,4500000
"Central African Republic_MICS4_Datasets","blank2","fiveto14","p20",100,28,84,28,24,84,24,4500000
"Central African Republic_MICS4_Datasets","blank2","fiveto14","primary",100,0,25,0,0,25,0,1650000
"Central African Republic_MICS4_Datasets","blank2","fiveto14","rural",100,28,61,28,18,61,18,4500000
"Central African Republic_MICS4_Datasets","blank2","fiveto14","secondary",100,0,25,0,0,25,0,1650000
"Central African Republic_MICS4_Datasets","blank2","fiveto14","stunted",100,0,41,0,0,41,0,725000
"Central African Republic_MICS4_Datasets","blank2","fiveto14","under5",100,28,20,28,0,20,0,4500000
"Central African Republic_MICS4_Datasets","blank2","fiveto14","urban",100,28,39,28,11,39,11,4500000
"Central African Republic_MICS4_Datasets","blank2","gt49","higher",100,23,3,23,0,3,0,1650000
"Central African Republic_MICS4_Datasets","blank2","gt49","male",100,8,49,8,4,49,4,4500000
"Central African Republic_MICS4_Datasets","blank2","gt49","no.birth.reg",100,0,39,0,0,39,0,725000
"Central African Republic_MICS4_Datasets","blank2","gt49","no.educ",100,23,75,23,20,75,20,1650000
"Central African Republic_MICS4_Datasets","blank2","gt49","no.skilled.attendant",100,0,48,0,0,48,0,1047000
"Central African Republic_MICS4_Datasets","blank2","gt49","non.p20",100,8,16,8,1,16,1,4500000
"Central African Republic_MICS4_Datasets","blank2","gt49","p20",100,8,84,8,7,84,7,4500000
"Central African Republic_MICS4_Datasets","blank2","gt49","primary",100,23,25,23,3,25,3,1650000
"Central African Republic_MICS4_Datasets","blank2","gt49","rural",100,8,61,8,5,61,5,4500000
"Central African Republic_MICS4_Datasets","blank2","gt49","secondary",100,23,25,23,3,25,3,1650000
"Central African Republic_MICS4_Datasets","blank2","gt49","stunted",100,0,41,0,0,41,0,725000
"Central African Republic_MICS4_Datasets","blank2","gt49","under5",100,8,20,8,0,20,0,4500000
"Central African Republic_MICS4_Datasets","blank2","gt49","urban",100,8,39,8,3,39,3,4500000
"Central African Republic_MICS4_Datasets","blank2","higher","male",100,3,49,3,2,49,2,1650000
"Central African Republic_MICS4_Datasets","blank2","higher","no.birth.reg",,,,,,,,1650000
"Central African Republic_MICS4_Datasets","blank2","higher","no.educ",100,3,75,3,0,75,0,1650000
"Central African Republic_MICS4_Datasets","blank2","higher","no.skilled.attendant",100,1,49,1,0,49,0,594000
"Central African Republic_MICS4_Datasets","blank2","higher","non.p20",100,3,16,3,2,16,2,1650000
"Central African Republic_MICS4_Datasets","blank2","higher","p20",100,3,84,3,1,84,1,1650000
"Central African Republic_MICS4_Datasets","blank2","higher","primary",100,3,25,3,3,25,3,1650000
"Central African Republic_MICS4_Datasets","blank2","higher","rural",100,3,61,3,0,61,0,1650000
"Central African Republic_MICS4_Datasets","blank2","higher","secondary",100,3,25,3,3,25,3,1650000
"Central African Republic_MICS4_Datasets","blank2","higher","stunted",,,,,,,,1650000
"Central African Republic_MICS4_Datasets","blank2","higher","under5",100,3,0,3,0,0,0,1650000
"Central African Republic_MICS4_Datasets","blank2","higher","urban",100,3,39,3,3,39,3,1650000
"Central African Republic_MICS4_Datasets","blank2","male","no.birth.reg",100,50,39,50,19,39,19,725000
"Central African Republic_MICS4_Datasets","blank2","male","no.educ",100,49,75,49,32,75,32,1650000
"Central African Republic_MICS4_Datasets","blank2","male","no.skilled.attendant",100,0,48,0,0,48,0,1047000
"Central African Republic_MICS4_Datasets","blank2","male","non.p20",100,49,16,49,8,16,8,4500000
"Central African Republic_MICS4_Datasets","blank2","male","p20",100,49,84,49,41,84,41,4500000
"Central African Republic_MICS4_Datasets","blank2","male","primary",100,49,25,49,17,25,17,1650000
"Central African Republic_MICS4_Datasets","blank2","male","rural",100,49,61,49,30,61,30,4500000
"Central African Republic_MICS4_Datasets","blank2","male","secondary",100,49,25,49,17,25,17,1650000
"Central African Republic_MICS4_Datasets","blank2","male","stunted",100,50,41,50,21,41,21,725000
"Central African Republic_MICS4_Datasets","blank2","male","under5",100,49,20,49,10,20,10,4500000
"Central African Republic_MICS4_Datasets","blank2","male","urban",100,49,39,49,19,39,19,4500000
"Central African Republic_MICS4_Datasets","blank2","no.birth.reg","no.educ",,,,,,,,1650000
"Central African Republic_MICS4_Datasets","blank2","no.birth.reg","no.skilled.attendant",,,,,,,,725000
"Central African Republic_MICS4_Datasets","blank2","no.birth.reg","non.p20",100,39,13,39,2,13,2,725000
"Central African Republic_MICS4_Datasets","blank2","no.birth.reg","p20",100,39,87,39,37,87,37,725000
"Central African Republic_MICS4_Datasets","blank2","no.birth.reg","primary",,,,,,,,1650000
"Central African Republic_MICS4_Datasets","blank2","no.birth.reg","rural",100,39,65,39,31,65,31,725000
"Central African Republic_MICS4_Datasets","blank2","no.birth.reg","secondary",,,,,,,,1650000
"Central African Republic_MICS4_Datasets","blank2","no.birth.reg","stunted",100,39,41,39,17,41,17,725000
"Central African Republic_MICS4_Datasets","blank2","no.birth.reg","under5",100,39,100,39,39,100,39,725000
"Central African Republic_MICS4_Datasets","blank2","no.birth.reg","urban",100,39,35,39,7,35,7,725000
"Central African Republic_MICS4_Datasets","blank2","no.educ","no.skilled.attendant",100,88,49,88,47,49,47,594000
"Central African Republic_MICS4_Datasets","blank2","no.educ","non.p20",100,75,16,75,6,16,6,1650000
"Central African Republic_MICS4_Datasets","blank2","no.educ","p20",100,75,84,75,69,84,69,1650000
"Central African Republic_MICS4_Datasets","blank2","no.educ","primary",100,75,25,75,0,25,0,1650000
"Central African Republic_MICS4_Datasets","blank2","no.educ","rural",100,75,61,75,53,61,53,1650000
"Central African Republic_MICS4_Datasets","blank2","no.educ","secondary",100,75,25,75,0,25,0,1650000
"Central African Republic_MICS4_Datasets","blank2","no.educ","stunted",,,,,,,,1650000
"Central African Republic_MICS4_Datasets","blank2","no.educ","under5",100,75,0,75,0,0,0,1650000
"Central African Republic_MICS4_Datasets","blank2","no.educ","urban",100,75,39,75,22,39,22,1650000
"Central African Republic_MICS4_Datasets","blank2","no.skilled.attendant","non.p20",100,48,12,48,1,12,1,1047000
"Central African Republic_MICS4_Datasets","blank2","no.skilled.attendant","p20",100,48,88,48,47,88,47,1047000
"Central African Republic_MICS4_Datasets","blank2","no.skilled.attendant","primary",100,49,12,49,2,12,2,594000
"Central African Republic_MICS4_Datasets","blank2","no.skilled.attendant","rural",100,48,66,48,42,66,42,1047000
"Central African Republic_MICS4_Datasets","blank2","no.skilled.attendant","secondary",100,49,12,49,2,12,2,594000
"Central African Republic_MICS4_Datasets","blank2","no.skilled.attendant","stunted",,,,,,,,725000
"Central African Republic_MICS4_Datasets","blank2","no.skilled.attendant","under5",100,48,0,48,0,0,0,1047000
"Central African Republic_MICS4_Datasets","blank2","no.skilled.attendant","urban",100,48,34,48,6,34,6,1047000
"Central African Republic_MICS4_Datasets","blank2","non.p20","p20",100,16,84,16,0,84,0,4500000
"Central African Republic_MICS4_Datasets","blank2","non.p20","primary",100,16,25,16,10,25,10,1650000
"Central African Republic_MICS4_Datasets","blank2","non.p20","rural",100,16,61,16,2,61,2,4500000
"Central African Republic_MICS4_Datasets","blank2","non.p20","secondary",100,16,25,16,10,25,10,1650000
"Central African Republic_MICS4_Datasets","blank2","non.p20","stunted",100,13,41,13,3,41,3,725000
"Central African Republic_MICS4_Datasets","blank2","non.p20","under5",100,16,20,16,2,20,2,4500000
"Central African Republic_MICS4_Datasets","blank2","non.p20","urban",100,16,39,16,15,39,15,4500000
"Central African Republic_MICS4_Datasets","blank2","p20","primary",100,84,25,84,15,25,15,1650000
"Central African Republic_MICS4_Datasets","blank2","p20","rural",100,84,61,84,60,61,60,4500000
"Central African Republic_MICS4_Datasets","blank2","p20","secondary",100,84,25,84,15,25,15,1650000
"Central African Republic_MICS4_Datasets","blank2","p20","stunted",100,87,41,87,37,41,37,725000
"Central African Republic_MICS4_Datasets","blank2","p20","under5",100,84,20,84,17,20,17,4500000
"Central African Republic_MICS4_Datasets","blank2","p20","urban",100,84,39,84,24,39,24,4500000
"Central African Republic_MICS4_Datasets","blank2","primary","rural",100,25,61,25,8,61,8,1650000
"Central African Republic_MICS4_Datasets","blank2","primary","secondary",100,25,25,25,25,25,25,1650000
"Central African Republic_MICS4_Datasets","blank2","primary","stunted",,,,,,,,1650000
"Central African Republic_MICS4_Datasets","blank2","primary","under5",100,25,0,25,0,0,0,1650000
"Central African Republic_MICS4_Datasets","blank2","primary","urban",100,25,39,25,17,39,17,1650000
"Central African Republic_MICS4_Datasets","blank2","rural","secondary",100,61,25,61,8,25,8,1650000
"Central African Republic_MICS4_Datasets","blank2","rural","stunted",100,65,41,65,27,41,27,725000
"Central African Republic_MICS4_Datasets","blank2","rural","under5",100,61,20,61,13,20,13,4500000
"Central African Republic_MICS4_Datasets","blank2","rural","urban",100,61,39,61,0,39,0,4500000
"Central African Republic_MICS4_Datasets","blank2","secondary","stunted",,,,,,,,1650000
"Central African Republic_MICS4_Datasets","blank2","secondary","under5",100,25,0,25,0,0,0,1650000
"Central African Republic_MICS4_Datasets","blank2","secondary","urban",100,25,39,25,17,39,17,1650000
"Central African Republic_MICS4_Datasets","blank2","stunted","under5",100,41,100,41,41,100,41,725000
"Central African Republic_MICS4_Datasets","blank2","stunted","urban",100,41,35,41,13,35,13,725000
"Central African Republic_MICS4_Datasets","blank2","under5","urban",100,20,39,20,7,39,7,4500000
"Central African Republic_MICS4_Datasets","ext","female","fifteento49",76,51,44,39,23,32,17,4500000
"Central African Republic_MICS4_Datasets","ext","female","fiveto14",76,51,28,39,14,21,11,4500000
"Central African Republic_MICS4_Datasets","ext","female","gt49",76,51,8,39,4,6,3,4500000
"Central African Republic_MICS4_Datasets","ext","female","higher",76,51,3,39,1,1,0,1650000
"Central African Republic_MICS4_Datasets","ext","female","male",76,51,49,39,0,37,0,4500000
"Central African Republic_MICS4_Datasets","ext","female","no.birth.reg",80,50,39,40,19,35,17,725000
"Central African Republic_MICS4_Datasets","ext","female","no.educ",76,51,75,39,43,64,36,1650000
"Central African Republic_MICS4_Datasets","ext","female","no.skilled.attendant",81,100,48,81,48,45,45,1047000
"Central African Republic_MICS4_Datasets","ext","female","non.p20",76,51,16,39,8,0,0,4500000
"Central African Republic_MICS4_Datasets","ext","female","p20",76,51,84,39,43,76,39,4500000
"Central African Republic_MICS4_Datasets","ext","female","primary",76,51,25,39,8,12,2,1650000
"Central African Republic_MICS4_Datasets","ext","female","rural",76,51,61,39,31,58,30,4500000
"Central African Republic_MICS4_Datasets","ext","female","secondary",76,51,25,39,8,12,2,1650000
"Central African Republic_MICS4_Datasets","ext","female","stunted",80,50,41,40,18,34,16,725000
"Central African Republic_MICS4_Datasets","ext","female","under5",76,51,20,39,10,16,8,4500000
"Central African Republic_MICS4_Datasets","ext","female","urban",76,51,39,39,20,18,9,4500000
"Central African Republic_MICS4_Datasets","ext","fifteento49","fiveto14",76,44,28,32,0,21,0,4500000
"Central African Republic_MICS4_Datasets","ext","fifteento49","gt49",76,44,8,32,0,6,0,4500000
"Central African Republic_MICS4_Datasets","ext","fifteento49","higher",76,77,3,58,3,1,0,1650000
"Central African Republic_MICS4_Datasets","ext","fifteento49","male",76,44,49,32,21,37,15,4500000
"Central African Republic_MICS4_Datasets","ext","fifteento49","no.birth.reg",80,0,39,0,0,35,0,725000
"Central African Republic_MICS4_Datasets","ext","fifteento49","no.educ",76,77,75,58,55,64,47,1650000
"Central African Republic_MICS4_Datasets","ext","fifteento49","no.skilled.attendant",81,100,48,81,48,45,45,1047000
"Central African Republic_MICS4_Datasets","ext","fifteento49","non.p20",76,44,16,32,8,0,0,4500000
"Central African Republic_MICS4_Datasets","ext","fifteento49","p20",76,44,84,32,36,76,32,4500000
"Central African Republic_MICS4_Datasets","ext","fifteento49","primary",76,77,25,58,22,12,11,1650000
"Central African Republic_MICS4_Datasets","ext","fifteento49","rural",76,44,61,32,26,58,25,4500000
"Central African Republic_MICS4_Datasets","ext","fifteento49","secondary",76,77,25,58,22,12,11,1650000
"Central African Republic_MICS4_Datasets","ext","fifteento49","stunted",80,0,41,0,0,34,0,725000
"Central African Republic_MICS4_Datasets","ext","fifteento49","under5",76,44,20,32,0,16,0,4500000
"Central African Republic_MICS4_Datasets","ext","fifteento49","urban",76,44,39,32,18,18,8,4500000
"Central African Republic_MICS4_Datasets","ext","fiveto14","gt49",76,28,8,21,0,6,0,4500000
"Central African Republic_MICS4_Datasets","ext","fiveto14","higher",76,0,3,0,0,1,0,1650000
"Central African Republic_MICS4_Datasets","ext","fiveto14","male",76,28,49,21,14,37,11,4500000
"Central African Republic_MICS4_Datasets","ext","fiveto14","no.birth.reg",80,0,39,0,0,35,0,725000
"Central African Republic_MICS4_Datasets","ext","fiveto14","no.educ",76,0,75,0,0,64,0,1650000
"Central African Republic_MICS4_Datasets","ext","fiveto14","no.skilled.attendant",81,0,48,0,0,45,0,1047000
"Central African Republic_MICS4_Datasets","ext","fiveto14","non.p20",76,28,16,21,5,0,0,4500000
"Central African Republic_MICS4_Datasets","ext","fiveto14","p20",76,28,84,21,24,76,21,4500000
"Central African Republic_MICS4_Datasets","ext","fiveto14","primary",76,0,25,0,0,12,0,1650000
"Central African Republic_MICS4_Datasets","ext","fiveto14","rural",76,28,61,21,18,58,16,4500000
"Central African Republic_MICS4_Datasets","ext","fiveto14","secondary",76,0,25,0,0,12,0,1650000
"Central African Republic_MICS4_Datasets","ext","fiveto14","stunted",80,0,41,0,0,34,0,725000
"Central African Republic_MICS4_Datasets","ext","fiveto14","under5",76,28,20,21,0,16,0,4500000
"Central African Republic_MICS4_Datasets","ext","fiveto14","urban",76,28,39,21,11,18,5,4500000
"Central African Republic_MICS4_Datasets","ext","gt49","higher",76,23,3,18,0,1,0,1650000
"Central African Republic_MICS4_Datasets","ext","gt49","male",76,8,49,6,4,37,3,4500000
"Central African Republic_MICS4_Datasets","ext","gt49","no.birth.reg",80,0,39,0,0,35,0,725000
"Central African Republic_MICS4_Datasets","ext","gt49","no.educ",76,23,75,18,20,64,16,1650000
"Central African Republic_MICS4_Datasets","ext","gt49","no.skilled.attendant",81,0,48,0,0,45,0,1047000
"Central African Republic_MICS4_Datasets","ext","gt49","non.p20",76,8,16,6,1,0,0,4500000
"Central African Republic_MICS4_Datasets","ext","gt49","p20",76,8,84,6,7,76,6,4500000
"Central African Republic_MICS4_Datasets","ext","gt49","primary",76,23,25,18,3,12,1,1650000
"Central African Republic_MICS4_Datasets","ext","gt49","rural",76,8,61,6,5,58,5,4500000
"Central African Republic_MICS4_Datasets","ext","gt49","secondary",76,23,25,18,3,12,1,1650000
"Central African Republic_MICS4_Datasets","ext","gt49","stunted",80,0,41,0,0,34,0,725000
"Central African Republic_MICS4_Datasets","ext","gt49","under5",76,8,20,6,0,16,0,4500000
"Central African Republic_MICS4_Datasets","ext","gt49","urban",76,8,39,6,3,18,2,4500000
"Central African Republic_MICS4_Datasets","ext","higher","male",76,3,49,1,2,37,0,1650000
"Central African Republic_MICS4_Datasets","ext","higher","no.birth.reg",,,,,,,,1650000
"Central African Republic_MICS4_Datasets","ext","higher","no.educ",76,3,75,1,0,64,0,1650000
"Central African Republic_MICS4_Datasets","ext","higher","no.skilled.attendant",81,1,49,0,0,45,0,594000
"Central African Republic_MICS4_Datasets","ext","higher","non.p20",76,3,16,1,2,0,0,1650000
"Central African Republic_MICS4_Datasets","ext","higher","p20",76,3,84,1,1,76,1,1650000
"Central African Republic_MICS4_Datasets","ext","higher","primary",76,3,25,1,3,12,1,1650000
"Central African Republic_MICS4_Datasets","ext","higher","rural",76,3,61,1,0,58,0,1650000
"Central African Republic_MICS4_Datasets","ext","higher","secondary",76,3,25,1,3,12,1,1650000
"Central African Republic_MICS4_Datasets","ext","higher","stunted",,,,,,,,1650000
"Central African Republic_MICS4_Datasets","ext","higher","under5",76,3,0,1,0,0,0,1650000
"Central African Republic_MICS4_Datasets","ext","higher","urban",76,3,39,1,3,18,0,1650000
"Central African Republic_MICS4_Datasets","ext","male","no.birth.reg",80,50,39,40,19,35,17,725000
"Central African Republic_MICS4_Datasets","ext","male","no.educ",76,49,75,37,32,64,27,1650000
"Central African Republic_MICS4_Datasets","ext","male","no.skilled.attendant",81,0,48,0,0,45,0,1047000
"Central African Republic_MICS4_Datasets","ext","male","non.p20",76,49,16,37,8,0,0,4500000
"Central African Republic_MICS4_Datasets","ext","male","p20",76,49,84,37,41,76,37,4500000
"Central African Republic_MICS4_Datasets","ext","male","primary",76,49,25,37,17,12,10,1650000
"Central African Republic_MICS4_Datasets","ext","male","rural",76,49,61,37,30,58,28,4500000
"Central African Republic_MICS4_Datasets","ext","male","secondary",76,49,25,37,17,12,10,1650000
"Central African Republic_MICS4_Datasets","ext","male","stunted",80,50,41,40,21,34,18,725000
"Central African Republic_MICS4_Datasets","ext","male","under5",76,49,20,37,10,16,8,4500000
"Central African Republic_MICS4_Datasets","ext","male","urban",76,49,39,37,19,18,8,4500000
"Central African Republic_MICS4_Datasets","ext","no.birth.reg","no.educ",,,,,,,,1650000
"Central African Republic_MICS4_Datasets","ext","no.birth.reg","no.skilled.attendant",,,,,,,,725000
"Central African Republic_MICS4_Datasets","ext","no.birth.reg","non.p20",80,39,13,35,2,0,0,725000
"Central African Republic_MICS4_Datasets","ext","no.birth.reg","p20",80,39,87,35,37,80,35,725000
"Central African Republic_MICS4_Datasets","ext","no.birth.reg","primary",,,,,,,,1650000
"Central African Republic_MICS4_Datasets","ext","no.birth.reg","rural",80,39,65,35,31,62,30,725000
"Central African Republic_MICS4_Datasets","ext","no.birth.reg","secondary",,,,,,,,1650000
"Central African Republic_MICS4_Datasets","ext","no.birth.reg","stunted",80,39,41,35,17,34,15,725000
"Central African Republic_MICS4_Datasets","ext","no.birth.reg","under5",80,39,100,35,39,80,35,725000
"Central African Republic_MICS4_Datasets","ext","no.birth.reg","urban",80,39,35,35,7,18,5,725000
"Central African Republic_MICS4_Datasets","ext","no.educ","no.skilled.attendant",81,88,49,76,47,45,44,594000
"Central African Republic_MICS4_Datasets","ext","no.educ","non.p20",76,75,16,64,6,0,0,1650000
"Central African Republic_MICS4_Datasets","ext","no.educ","p20",76,75,84,64,69,76,64,1650000
"Central African Republic_MICS4_Datasets","ext","no.educ","primary",76,75,25,64,0,12,0,1650000
"Central African Republic_MICS4_Datasets","ext","no.educ","rural",76,75,61,64,53,58,51,1650000
"Central African Republic_MICS4_Datasets","ext","no.educ","secondary",76,75,25,64,0,12,0,1650000
"Central African Republic_MICS4_Datasets","ext","no.educ","stunted",,,,,,,,1650000
"Central African Republic_MICS4_Datasets","ext","no.educ","under5",76,75,0,64,0,0,0,1650000
"Central African Republic_MICS4_Datasets","ext","no.educ","urban",76,75,39,64,22,18,13,1650000
"Central African Republic_MICS4_Datasets","ext","no.skilled.attendant","non.p20",81,48,12,45,1,0,0,1047000
"Central African Republic_MICS4_Datasets","ext","no.skilled.attendant","p20",81,48,88,45,47,81,45,1047000
"Central African Republic_MICS4_Datasets","ext","no.skilled.attendant","primary",81,49,12,45,2,4,1,594000
"Central African Republic_MICS4_Datasets","ext","no.skilled.attendant","rural",81,48,66,45,42,63,40,1047000
"Central African Republic_MICS4_Datasets","ext","no.skilled.attendant","secondary",81,49,12,45,2,4,1,594000
"Central African Republic_MICS4_Datasets","ext","no.skilled.attendant","stunted",,,,,,,,725000
"Central African Republic_MICS4_Datasets","ext","no.skilled.attendant","under5",81,48,0,45,0,0,0,1047000
"Central African Republic_MICS4_Datasets","ext","no.skilled.attendant","urban",81,48,34,45,6,18,5,1047000
"Central African Republic_MICS4_Datasets","ext","non.p20","p20",76,16,84,0,0,76,0,4500000
"Central African Republic_MICS4_Datasets","ext","non.p20","primary",76,16,25,0,10,12,0,1650000
"Central African Republic_MICS4_Datasets","ext","non.p20","rural",76,16,61,0,2,58,0,4500000
"Central African Republic_MICS4_Datasets","ext","non.p20","secondary",76,16,25,0,10,12,0,1650000
"Central African Republic_MICS4_Datasets","ext","non.p20","stunted",80,13,41,0,3,34,0,725000
"Central African Republic_MICS4_Datasets","ext","non.p20","under5",76,16,20,0,2,16,0,4500000
"Central African Republic_MICS4_Datasets","ext","non.p20","urban",76,16,39,0,15,18,0,4500000
"Central African Republic_MICS4_Datasets","ext","p20","primary",76,84,25,76,15,12,12,1650000
"Central African Republic_MICS4_Datasets","ext","p20","rural",76,84,61,76,60,58,58,4500000
"Central African Republic_MICS4_Datasets","ext","p20","secondary",76,84,25,76,15,12,12,1650000
"Central African Republic_MICS4_Datasets","ext","p20","stunted",80,87,41,80,37,34,34,725000
"Central African Republic_MICS4_Datasets","ext","p20","under5",76,84,20,76,17,16,16,4500000
"Central African Republic_MICS4_Datasets","ext","p20","urban",76,84,39,76,24,18,18,4500000
"Central African Republic_MICS4_Datasets","ext","primary","rural",76,25,61,12,8,58,7,1650000
"Central African Republic_MICS4_Datasets","ext","primary","secondary",76,25,25,12,25,12,12,1650000
"Central African Republic_MICS4_Datasets","ext","primary","stunted",,,,,,,,1650000
"Central African Republic_MICS4_Datasets","ext","primary","under5",76,25,0,12,0,0,0,1650000
"Central African Republic_MICS4_Datasets","ext","primary","urban",76,25,39,12,17,18,5,1650000
"Central African Republic_MICS4_Datasets","ext","rural","secondary",76,61,25,58,8,12,7,1650000
"Central African Republic_MICS4_Datasets","ext","rural","stunted",80,65,41,62,27,34,26,725000
"Central African Republic_MICS4_Datasets","ext","rural","under5",76,61,20,58,13,16,12,4500000
"Central African Republic_MICS4_Datasets","ext","rural","urban",76,61,39,58,0,18,0,4500000
"Central African Republic_MICS4_Datasets","ext","secondary","stunted",,,,,,,,1650000
"Central African Republic_MICS4_Datasets","ext","secondary","under5",76,25,0,12,0,0,0,1650000
"Central African Republic_MICS4_Datasets","ext","secondary","urban",76,25,39,12,17,18,5,1650000
"Central African Republic_MICS4_Datasets","ext","stunted","under5",80,41,100,34,41,80,34,725000
"Central African Republic_MICS4_Datasets","ext","stunted","urban",80,41,35,34,13,18,7,725000
"Central African Republic_MICS4_Datasets","ext","under5","urban",76,20,39,16,7,18,4,4500000
"Central African Republic_MICS4_Datasets","female","fifteento49","fiveto14",51,44,28,23,0,14,0,4500000
"Central African Republic_MICS4_Datasets","female","fifteento49","gt49",51,44,8,23,0,4,0,4500000
"Central African Republic_MICS4_Datasets","female","fifteento49","higher",51,77,3,39,3,1,1,1650000
"Central African Republic_MICS4_Datasets","female","fifteento49","male",51,44,49,23,21,0,0,4500000
"Central African Republic_MICS4_Datasets","female","fifteento49","no.birth.reg",50,0,39,0,0,19,0,725000
"Central African Republic_MICS4_Datasets","female","fifteento49","no.educ",51,77,75,39,55,43,32,1650000
"Central African Republic_MICS4_Datasets","female","fifteento49","no.skilled.attendant",100,100,48,100,48,48,48,1047000
"Central African Republic_MICS4_Datasets","female","fifteento49","non.p20",51,44,16,23,8,8,4,4500000
"Central African Republic_MICS4_Datasets","female","fifteento49","p20",51,44,84,23,36,43,19,4500000
"Central African Republic_MICS4_Datasets","female","fifteento49","primary",51,77,25,39,22,8,7,1650000
"Central African Republic_MICS4_Datasets","female","fifteento49","rural",51,44,61,23,26,31,14,4500000
"Central African Republic_MICS4_Datasets","female","fifteento49","secondary",51,77,25,39,22,8,7,1650000
"Central African Republic_MICS4_Datasets","female","fifteento49","stunted",50,0,41,0,0,18,0,725000
"Central African Republic_MICS4_Datasets","female","fifteento49","under5",51,44,20,23,0,10,0,4500000
"Central African Republic_MICS4_Datasets","female","fifteento49","urban",51,44,39,23,18,20,10,4500000
"Central African Republic_MICS4_Datasets","female","fiveto14","gt49",51,28,8,14,0,4,0,4500000
"Central African Republic_MICS4_Datasets","female","fiveto14","higher",51,0,3,0,0,1,0,1650000
"Central African Republic_MICS4_Datasets","female","fiveto14","male",51,28,49,14,14,0,0,4500000
"Central African Republic_MICS4_Datasets","female","fiveto14","no.birth.reg",50,0,39,0,0,19,0,725000
"Central African Republic_MICS4_Datasets","female","fiveto14","no.educ",51,0,75,0,0,43,0,1650000
"Central African Republic_MICS4_Datasets","female","fiveto14","no.skilled.attendant",100,0,48,0,0,48,0,1047000
"Central African Republic_MICS4_Datasets","female","fiveto14","non.p20",51,28,16,14,5,8,2,4500000
"Central African Republic_MICS4_Datasets","female","fiveto14","p20",51,28,84,14,24,43,12,4500000
"Central African Republic_MICS4_Datasets","female","fiveto14","primary",51,0,25,0,0,8,0,1650000
"Central African Republic_MICS4_Datasets","female","fiveto14","rural",51,28,61,14,18,31,9,4500000
"Central African Republic_MICS4_Datasets","female","fiveto14","secondary",51,0,25,0,0,8,0,1650000
"Central African Republic_MICS4_Datasets","female","fiveto14","stunted",50,0,41,0,0,18,0,725000
"Central African Republic_MICS4_Datasets","female","fiveto14","under5",51,28,20,14,0,10,0,4500000
"Central African Republic_MICS4_Datasets","female","fiveto14","urban",51,28,39,14,11,20,5,4500000
"Central African Republic_MICS4_Datasets","female","gt49","higher",51,23,3,12,0,1,0,1650000
"Central African Republic_MICS4_Datasets","female","gt49","male",51,8,49,4,4,0,0,4500000
"Central African Republic_MICS4_Datasets","female","gt49","no.birth.reg",50,0,39,0,0,19,0,725000
"Central African Republic_MICS4_Datasets","female","gt49","no.educ",51,23,75,12,20,43,12,1650000
"Central African Republic_MICS4_Datasets","female","gt49","no.skilled.attendant",100,0,48,0,0,48,0,1047000
"Central African Republic_MICS4_Datasets","female","gt49","non.p20",51,8,16,4,1,8,1,4500000
"Central African Republic_MICS4_Datasets","female","gt49","p20",51,8,84,4,7,43,4,4500000
"Central African Republic_MICS4_Datasets","female","gt49","primary",51,23,25,12,3,8,0,1650000
"Central African Republic_MICS4_Datasets","female","gt49","rural",51,8,61,4,5,31,3,4500000
"Central African Republic_MICS4_Datasets","female","gt49","secondary",51,23,25,12,3,8,0,1650000
"Central African Republic_MICS4_Datasets","female","gt49","stunted",50,0,41,0,0,18,0,725000
"Central African Republic_MICS4_Datasets","female","gt49","under5",51,8,20,4,0,10,0,4500000
"Central African Republic_MICS4_Datasets","female","gt49","urban",51,8,39,4,3,20,2,4500000
"Central African Republic_MICS4_Datasets","female","higher","male",51,3,49,1,2,0,0,1650000
"Central African Republic_MICS4_Datasets","female","higher","no.birth.reg",,,,,,,,1650000
"Central African Republic_MICS4_Datasets","female","higher","no.educ",51,3,75,1,0,43,0,1650000
"Central African Republic_MICS4_Datasets","female","higher","no.skilled.attendant",100,1,49,1,0,49,0,594000
"Central African Republic_MICS4_Datasets","female","higher","non.p20",51,3,16,1,2,8,1,1650000
"Central African Republic_MICS4_Datasets","female","higher","p20",51,3,84,1,1,43,0,1650000
"Central African Republic_MICS4_Datasets","female","higher","primary",51,3,25,1,3,8,1,1650000
"Central African Republic_MICS4_Datasets","female","higher","rural",51,3,61,1,0,31,0,1650000
"Central African Republic_MICS4_Datasets","female","higher","secondary",51,3,25,1,3,8,1,1650000
"Central African Republic_MICS4_Datasets","female","higher","stunted",,,,,,,,1650000
"Central African Republic_MICS4_Datasets","female","higher","under5",51,3,0,1,0,0,0,1650000
"Central African Republic_MICS4_Datasets","female","higher","urban",51,3,39,1,3,20,1,1650000
"Central African Republic_MICS4_Datasets","female","male","no.birth.reg",50,50,39,0,19,19,0,725000
"Central African Republic_MICS4_Datasets","female","male","no.educ",51,49,75,0,32,43,0,1650000
"Central African Republic_MICS4_Datasets","female","male","no.skilled.attendant",100,0,48,0,0,48,0,1047000
"Central African Republic_MICS4_Datasets","female","male","non.p20",51,49,16,0,8,8,0,4500000
"Central African Republic_MICS4_Datasets","female","male","p20",51,49,84,0,41,43,0,4500000
"Central African Republic_MICS4_Datasets","female","male","primary",51,49,25,0,17,8,0,1650000
"Central African Republic_MICS4_Datasets","female","male","rural",51,49,61,0,30,31,0,4500000
"Central African Republic_MICS4_Datasets","female","male","secondary",51,49,25,0,17,8,0,1650000
"Central African Republic_MICS4_Datasets","female","male","stunted",50,50,41,0,21,18,0,725000
"Central African Republic_MICS4_Datasets","female","male","under5",51,49,20,0,10,10,0,4500000
"Central African Republic_MICS4_Datasets","female","male","urban",51,49,39,0,19,20,0,4500000
"Central African Republic_MICS4_Datasets","female","no.birth.reg","no.educ",,,,,,,,1650000
"Central African Republic_MICS4_Datasets","female","no.birth.reg","no.skilled.attendant",,,,,,,,725000
"Central African Republic_MICS4_Datasets","female","no.birth.reg","non.p20",50,39,13,19,2,6,1,725000
"Central African Republic_MICS4_Datasets","female","no.birth.reg","p20",50,39,87,19,37,44,18,725000
"Central African Republic_MICS4_Datasets","female","no.birth.reg","primary",,,,,,,,1650000
"Central African Republic_MICS4_Datasets","female","no.birth.reg","rural",50,39,65,19,31,33,15,725000
"Central African Republic_MICS4_Datasets","female","no.birth.reg","secondary",,,,,,,,1650000
"Central African Republic_MICS4_Datasets","female","no.birth.reg","stunted",50,39,41,19,17,18,8,725000
"Central African Republic_MICS4_Datasets","female","no.birth.reg","under5",50,39,100,19,39,50,19,725000
"Central African Republic_MICS4_Datasets","female","no.birth.reg","urban",50,39,35,19,7,18,4,725000
"Central African Republic_MICS4_Datasets","female","no.educ","no.skilled.attendant",100,88,49,88,47,49,47,594000
"Central African Republic_MICS4_Datasets","female","no.educ","non.p20",51,75,16,43,6,8,4,1650000
"Central African Republic_MICS4_Datasets","female","no.educ","p20",51,75,84,43,69,43,39,1650000
"Central African Republic_MICS4_Datasets","female","no.educ","primary",51,75,25,43,0,8,0,1650000
"Central African Republic_MICS4_Datasets","female","no.educ","rural",51,75,61,43,53,31,30,1650000
"Central African Republic_MICS4_Datasets","female","no.educ","secondary",51,75,25,43,0,8,0,1650000
"Central African Republic_MICS4_Datasets","female","no.educ","stunted",,,,,,,,1650000
"Central African Republic_MICS4_Datasets","female","no.educ","under5",51,75,0,43,0,0,0,1650000
"Central African Republic_MICS4_Datasets","female","no.educ","urban",51,75,39,43,22,20,13,1650000
"Central African Republic_MICS4_Datasets","female","no.skilled.attendant","non.p20",100,48,12,48,1,12,1,1047000
"Central African Republic_MICS4_Datasets","female","no.skilled.attendant","p20",100,48,88,48,47,88,47,1047000
"Central African Republic_MICS4_Datasets","female","no.skilled.attendant","primary",100,49,12,49,2,12,2,594000
"Central African Republic_MICS4_Datasets","female","no.skilled.attendant","rural",100,48,66,48,42,66,42,1047000
"Central African Republic_MICS4_Datasets","female","no.skilled.attendant","secondary",100,49,12,49,2,12,2,594000
"Central African Republic_MICS4_Datasets","female","no.skilled.attendant","stunted",,,,,,,,725000
"Central African Republic_MICS4_Datasets","female","no.skilled.attendant","under5",100,48,0,48,0,0,0,1047000
"Central African Republic_MICS4_Datasets","female","no.skilled.attendant","urban",100,48,34,48,6,34,6,1047000
"Central African Republic_MICS4_Datasets","female","non.p20","p20",51,16,84,8,0,43,0,4500000
"Central African Republic_MICS4_Datasets","female","non.p20","primary",51,16,25,8,10,8,4,1650000
"Central African Republic_MICS4_Datasets","female","non.p20","rural",51,16,61,8,2,31,1,4500000
"Central African Republic_MICS4_Datasets","female","non.p20","secondary",51,16,25,8,10,8,4,1650000
"Central African Republic_MICS4_Datasets","female","non.p20","stunted",50,13,41,6,3,18,1,725000
"Central African Republic_MICS4_Datasets","female","non.p20","under5",51,16,20,8,2,10,1,4500000
"Central African Republic_MICS4_Datasets","female","non.p20","urban",51,16,39,8,15,20,7,4500000
"Central African Republic_MICS4_Datasets","female","p20","primary",51,84,25,43,15,8,4,1650000
"Central African Republic_MICS4_Datasets","female","p20","rural",51,84,61,43,60,31,30,4500000
"Central African Republic_MICS4_Datasets","female","p20","secondary",51,84,25,43,15,8,4,1650000
"Central African Republic_MICS4_Datasets","female","p20","stunted",50,87,41,44,37,18,17,725000
"Central African Republic_MICS4_Datasets","female","p20","under5",51,84,20,43,17,10,9,4500000
"Central African Republic_MICS4_Datasets","female","p20","urban",51,84,39,43,24,20,13,4500000
"Central African Republic_MICS4_Datasets","female","primary","rural",51,25,61,8,8,31,1,1650000
"Central African Republic_MICS4_Datasets","female","primary","secondary",51,25,25,8,25,8,8,1650000
"Central African Republic_MICS4_Datasets","female","primary","stunted",,,,,,,,1650000
"Central African Republic_MICS4_Datasets","female","primary","under5",51,25,0,8,0,0,0,1650000
"Central African Republic_MICS4_Datasets","female","primary","urban",51,25,39,8,17,20,6,1650000
"Central African Republic_MICS4_Datasets","female","rural","secondary",51,61,25,31,8,8,1,1650000
"Central African Republic_MICS4_Datasets","female","rural","stunted",50,65,41,33,27,18,13,725000
"Central African Republic_MICS4_Datasets","female","rural","under5",51,61,20,31,13,10,6,4500000
"Central African Republic_MICS4_Datasets","female","rural","urban",51,61,39,31,0,20,0,4500000
"Central African Republic_MICS4_Datasets","female","secondary","stunted",,,,,,,,1650000
"Central African Republic_MICS4_Datasets","female","secondary","under5",51,25,0,8,0,0,0,1650000
"Central African Republic_MICS4_Datasets","female","secondary","urban",51,25,39,8,17,20,6,1650000
"Central African Republic_MICS4_Datasets","female","stunted","under5",50,41,100,18,41,50,18,725000
"Central African Republic_MICS4_Datasets","female","stunted","urban",50,41,35,18,13,18,6,725000
"Central African Republic_MICS4_Datasets","female","under5","urban",51,20,39,10,7,20,3,4500000
"Central African Republic_MICS4_Datasets","fifteento49","fiveto14","gt49",44,28,8,0,0,0,0,4500000
"Central African Republic_MICS4_Datasets","fifteento49","fiveto14","higher",77,0,3,0,0,3,0,1650000
"Central African Republic_MICS4_Datasets","fifteento49","fiveto14","male",44,28,49,0,14,21,0,4500000
"Central African Republic_MICS4_Datasets","fifteento49","fiveto14","no.birth.reg",0,0,39,0,0,0,0,725000
"Central African Republic_MICS4_Datasets","fifteento49","fiveto14","no.educ",77,0,75,0,0,55,0,1650000
"Central African Republic_MICS4_Datasets","fifteento49","fiveto14","no.skilled.attendant",100,0,48,0,0,48,0,1047000
"Central African Republic_MICS4_Datasets","fifteento49","fiveto14","non.p20",44,28,16,0,5,8,0,4500000
"Central African Republic_MICS4_Datasets","fifteento49","fiveto14","p20",44,28,84,0,24,36,0,4500000
"Central African Republic_MICS4_Datasets","fifteento49","fiveto14","primary",77,0,25,0,0,22,0,1650000
"Central African Republic_MICS4_Datasets","fifteento49","fiveto14","rural",44,28,61,0,18,26,0,4500000
"Central African Republic_MICS4_Datasets","fifteento49","fiveto14","secondary",77,0,25,0,0,22,0,1650000
"Central African Republic_MICS4_Datasets","fifteento49","fiveto14","stunted",0,0,41,0,0,0,0,725000
"Central African Republic_MICS4_Datasets","fifteento49","fiveto14","under5",44,28,20,0,0,0,0,4500000
"Central African Republic_MICS4_Datasets","fifteento49","fiveto14","urban",44,28,39,0,11,18,0,4500000
"Central African Republic_MICS4_Datasets","fifteento49","gt49","higher",77,23,3,0,0,3,0,1650000
"Central African Republic_MICS4_Datasets","fifteento49","gt49","male",44,8,49,0,4,21,0,4500000
"Central African Republic_MICS4_Datasets","fifteento49","gt49","no.birth.reg",0,0,39,0,0,0,0,725000
"Central African Republic_MICS4_Datasets","fifteento49","gt49","no.educ",77,23,75,0,20,55,0,1650000
"Central African Republic_MICS4_Datasets","fifteento49","gt49","no.skilled.attendant",100,0,48,0,0,48,0,1047000
"Central African Republic_MICS4_Datasets","fifteento49","gt49","non.p20",44,8,16,0,1,8,0,4500000
"Central African Republic_MICS4_Datasets","fifteento49","gt49","p20",44,8,84,0,7,36,0,4500000
"Central African Republic_MICS4_Datasets","fifteento49","gt49","primary",77,23,25,0,3,22,0,1650000
"Central African Republic_MICS4_Datasets","fifteento49","gt49","rural",44,8,61,0,5,26,0,4500000
"Central African Republic_MICS4_Datasets","fifteento49","gt49","secondary",77,23,25,0,3,22,0,1650000
"Central African Republic_MICS4_Datasets","fifteento49","gt49","stunted",0,0,41,0,0,0,0,725000
"Central African Republic_MICS4_Datasets","fifteento49","gt49","under5",44,8,20,0,0,0,0,4500000
"Central African Republic_MICS4_Datasets","fifteento49","gt49","urban",44,8,39,0,3,18,0,4500000
"Central African Republic_MICS4_Datasets","fifteento49","higher","male",77,3,49,3,2,39,2,1650000
"Central African Republic_MICS4_Datasets","fifteento49","higher","no.birth.reg",,,,,,,,1650000
"Central African Republic_MICS4_Datasets","fifteento49","higher","no.educ",77,3,75,3,0,55,0,1650000
"Central African Republic_MICS4_Datasets","fifteento49","higher","no.skilled.attendant",100,1,49,1,0,49,0,594000
"Central African Republic_MICS4_Datasets","fifteento49","higher","non.p20",77,3,16,3,2,13,2,1650000
"Central African Republic_MICS4_Datasets","fifteento49","higher","p20",77,3,84,3,1,65,1,1650000
"Central African Republic_MICS4_Datasets","fifteento49","higher","primary",77,3,25,3,3,22,3,1650000
"Central African Republic_MICS4_Datasets","fifteento49","higher","rural",77,3,61,3,0,47,0,1650000
"Central African Republic_MICS4_Datasets","fifteento49","higher","secondary",77,3,25,3,3,22,3,1650000
"Central African Republic_MICS4_Datasets","fifteento49","higher","stunted",,,,,,,,1650000
"Central African Republic_MICS4_Datasets","fifteento49","higher","under5",77,3,0,3,0,0,0,1650000
"Central African Republic_MICS4_Datasets","fifteento49","higher","urban",77,3,39,3,3,30,2,1650000
"Central African Republic_MICS4_Datasets","fifteento49","male","no.birth.reg",0,50,39,0,19,0,0,725000
"Central African Republic_MICS4_Datasets","fifteento49","male","no.educ",77,49,75,39,32,55,23,1650000
"Central African Republic_MICS4_Datasets","fifteento49","male","no.skilled.attendant",100,0,48,0,0,48,0,1047000
"Central African Republic_MICS4_Datasets","fifteento49","male","non.p20",44,49,16,21,8,8,4,4500000
"Central African Republic_MICS4_Datasets","fifteento49","male","p20",44,49,84,21,41,36,17,4500000
"Central African Republic_MICS4_Datasets","fifteento49","male","primary",77,49,25,39,17,22,15,1650000
"Central African Republic_MICS4_Datasets","fifteento49","male","rural",44,49,61,21,30,26,12,4500000
"Central African Republic_MICS4_Datasets","fifteento49","male","secondary",77,49,25,39,17,22,15,1650000
"Central African Republic_MICS4_Datasets","fifteento49","male","stunted",0,50,41,0,21,0,0,725000
"Central African Republic_MICS4_Datasets","fifteento49","male","under5",44,49,20,21,10,0,0,4500000
"Central African Republic_MICS4_Datasets","fifteento49","male","urban",44,49,39,21,19,18,9,4500000
"Central African Republic_MICS4_Datasets","fifteento49","no.birth.reg","no.educ",,,,,,,,1650000
"Central African Republic_MICS4_Datasets","fifteento49","no.birth.reg","no.skilled.attendant",,,,,,,,725000
"Central African Republic_MICS4_Datasets","fifteento49","no.birth.reg","non.p20",0,39,13,0,2,0,0,725000
"Central African Republic_MICS4_Datasets","fifteento49","no.birth.reg","p20",0,39,87,0,37,0,0,725000
"Central African Republic_MICS4_Datasets","fifteento49","no.birth.reg","primary",,,,,,,,1650000
"Central African Republic_MICS4_Datasets","fifteento49","no.birth.reg","rural",0,39,65,0,31,0,0,725000
"Central African Republic_MICS4_Datasets","fifteento49","no.birth.reg","secondary",,,,,,,,1650000
"Central African Republic_MICS4_Datasets","fifteento49","no.birth.reg","stunted",0,39,41,0,17,0,0,725000
"Central African Republic_MICS4_Datasets","fifteento49","no.birth.reg","under5",0,39,100,0,39,0,0,725000
"Central African Republic_MICS4_Datasets","fifteento49","no.birth.reg","urban",0,39,35,0,7,0,0,725000
"Central African Republic_MICS4_Datasets","fifteento49","no.educ","no.skilled.attendant",100,88,49,88,47,49,47,594000
"Central African Republic_MICS4_Datasets","fifteento49","no.educ","non.p20",77,75,16,55,6,13,4,1650000
"Central African Republic_MICS4_Datasets","fifteento49","no.educ","p20",77,75,84,55,69,65,51,1650000
"Central African Republic_MICS4_Datasets","fifteento49","no.educ","primary",77,75,25,55,0,22,0,1650000
"Central African Republic_MICS4_Datasets","fifteento49","no.educ","rural",77,75,61,55,53,47,40,1650000
"Central African Republic_MICS4_Datasets","fifteento49","no.educ","secondary",77,75,25,55,0,22,0,1650000
"Central African Republic_MICS4_Datasets","fifteento49","no.educ","stunted",,,,,,,,1650000
"Central African Republic_MICS4_Datasets","fifteento49","no.educ","under5",77,75,0,55,0,0,0,1650000
"Central African Republic_MICS4_Datasets","fifteento49","no.educ","urban",77,75,39,55,22,30,15,1650000
"Central African Republic_MICS4_Datasets","fifteento49","no.skilled.attendant","non.p20",100,48,12,48,1,12,1,1047000
"Central African Republic_MICS4_Datasets","fifteento49","no.skilled.attendant","p20",100,48,88,48,47,88,47,1047000
"Central African Republic_MICS4_Datasets","fifteento49","no.skilled.attendant","primary",100,49,12,49,2,12,2,594000
"Central African Republic_MICS4_Datasets","fifteento49","no.skilled.attendant","rural",100,48,66,48,42,66,42,1047000
"Central African Republic_MICS4_Datasets","fifteento49","no.skilled.attendant","secondary",100,49,12,49,2,12,2,594000
"Central African Republic_MICS4_Datasets","fifteento49","no.skilled.attendant","stunted",,,,,,,,725000
"Central African Republic_MICS4_Datasets","fifteento49","no.skilled.attendant","under5",100,48,0,48,0,0,0,1047000
"Central African Republic_MICS4_Datasets","fifteento49","no.skilled.attendant","urban",100,48,34,48,6,34,6,1047000
"Central African Republic_MICS4_Datasets","fifteento49","non.p20","p20",44,16,84,8,0,36,0,4500000
"Central African Republic_MICS4_Datasets","fifteento49","non.p20","primary",77,16,25,13,10,22,8,1650000
"Central African Republic_MICS4_Datasets","fifteento49","non.p20","rural",44,16,61,8,2,26,1,4500000
"Central African Republic_MICS4_Datasets","fifteento49","non.p20","secondary",77,16,25,13,10,22,8,1650000
"Central African Republic_MICS4_Datasets","fifteento49","non.p20","stunted",0,13,41,0,3,0,0,725000
"Central African Republic_MICS4_Datasets","fifteento49","non.p20","under5",44,16,20,8,2,0,0,4500000
"Central African Republic_MICS4_Datasets","fifteento49","non.p20","urban",44,16,39,8,15,18,7,4500000
"Central African Republic_MICS4_Datasets","fifteento49","p20","primary",77,84,25,65,15,22,14,1650000
"Central African Republic_MICS4_Datasets","fifteento49","p20","rural",44,84,61,36,60,26,25,4500000
"Central African Republic_MICS4_Datasets","fifteento49","p20","secondary",77,84,25,65,15,22,14,1650000
"Central African Republic_MICS4_Datasets","fifteento49","p20","stunted",0,87,41,0,37,0,0,725000
"Central African Republic_MICS4_Datasets","fifteento49","p20","under5",44,84,20,36,17,0,0,4500000
"Central African Republic_MICS4_Datasets","fifteento49","p20","urban",44,84,39,36,24,18,11,4500000
"Central African Republic_MICS4_Datasets","fifteento49","primary","rural",77,25,61,22,8,47,7,1650000
"Central African Republic_MICS4_Datasets","fifteento49","primary","secondary",77,25,25,22,25,22,22,1650000
"Central African Republic_MICS4_Datasets","fifteento49","primary","stunted",,,,,,,,1650000
"Central African Republic_MICS4_Datasets","fifteento49","primary","under5",77,25,0,22,0,0,0,1650000
"Central African Republic_MICS4_Datasets","fifteento49","primary","urban",77,25,39,22,17,30,15,1650000
"Central African Republic_MICS4_Datasets","fifteento49","rural","secondary",77,61,25,47,8,22,7,1650000
"Central African Republic_MICS4_Datasets","fifteento49","rural","stunted",0,65,41,0,27,0,0,725000
"Central African Republic_MICS4_Datasets","fifteento49","rural","under5",44,61,20,26,13,0,0,4500000
"Central African Republic_MICS4_Datasets","fifteento49","rural","urban",44,61,39,26,0,18,0,4500000
"Central African Republic_MICS4_Datasets","fifteento49","secondary","stunted",,,,,,,,1650000
"Central African Republic_MICS4_Datasets","fifteento49","secondary","under5",77,25,0,22,0,0,0,1650000
"Central African Republic_MICS4_Datasets","fifteento49","secondary","urban",77,25,39,22,17,30,15,1650000
"Central African Republic_MICS4_Datasets","fifteento49","stunted","under5",0,41,100,0,41,0,0,725000
"Central African Republic_MICS4_Datasets","fifteento49","stunted","urban",0,41,35,0,13,0,0,725000
"Central African Republic_MICS4_Datasets","fifteento49","under5","urban",44,20,39,0,7,18,0,4500000
"Central African Republic_MICS4_Datasets","fiveto14","gt49","higher",0,23,3,0,0,0,0,1650000
"Central African Republic_MICS4_Datasets","fiveto14","gt49","male",28,8,49,0,4,14,0,4500000
"Central African Republic_MICS4_Datasets","fiveto14","gt49","no.birth.reg",0,0,39,0,0,0,0,725000
"Central African Republic_MICS4_Datasets","fiveto14","gt49","no.educ",0,23,75,0,20,0,0,1650000
"Central African Republic_MICS4_Datasets","fiveto14","gt49","no.skilled.attendant",0,0,48,0,0,0,0,1047000
"Central African Republic_MICS4_Datasets","fiveto14","gt49","non.p20",28,8,16,0,1,5,0,4500000
"Central African Republic_MICS4_Datasets","fiveto14","gt49","p20",28,8,84,0,7,24,0,4500000
"Central African Republic_MICS4_Datasets","fiveto14","gt49","primary",0,23,25,0,3,0,0,1650000
"Central African Republic_MICS4_Datasets","fiveto14","gt49","rural",28,8,61,0,5,18,0,4500000
"Central African Republic_MICS4_Datasets","fiveto14","gt49","secondary",0,23,25,0,3,0,0,1650000
"Central African Republic_MICS4_Datasets","fiveto14","gt49","stunted",0,0,41,0,0,0,0,725000
"Central African Republic_MICS4_Datasets","fiveto14","gt49","under5",28,8,20,0,0,0,0,4500000
"Central African Republic_MICS4_Datasets","fiveto14","gt49","urban",28,8,39,0,3,11,0,4500000
"Central African Republic_MICS4_Datasets","fiveto14","higher","male",0,3,49,0,2,0,0,1650000
"Central African Republic_MICS4_Datasets","fiveto14","higher","no.birth.reg",,,,,,,,1650000
"Central African Republic_MICS4_Datasets","fiveto14","higher","no.educ",0,3,75,0,0,0,0,1650000
"Central African Republic_MICS4_Datasets","fiveto14","higher","no.skilled.attendant",0,1,49,0,0,0,0,594000
"Central African Republic_MICS4_Datasets","fiveto14","higher","non.p20",0,3,16,0,2,0,0,1650000
"Central African Republic_MICS4_Datasets","fiveto14","higher","p20",0,3,84,0,1,0,0,1650000
"Central African Republic_MICS4_Datasets","fiveto14","higher","primary",0,3,25,0,3,0,0,1650000
"Central African Republic_MICS4_Datasets","fiveto14","higher","rural",0,3,61,0,0,0,0,1650000
"Central African Republic_MICS4_Datasets","fiveto14","higher","secondary",0,3,25,0,3,0,0,1650000
"Central African Republic_MICS4_Datasets","fiveto14","higher","stunted",,,,,,,,1650000
"Central African Republic_MICS4_Datasets","fiveto14","higher","under5",0,3,0,0,0,0,0,1650000
"Central African Republic_MICS4_Datasets","fiveto14","higher","urban",0,3,39,0,3,0,0,1650000
"Central African Republic_MICS4_Datasets","fiveto14","male","no.birth.reg",0,50,39,0,19,0,0,725000
"Central African Republic_MICS4_Datasets","fiveto14","male","no.educ",0,49,75,0,32,0,0,1650000
"Central African Republic_MICS4_Datasets","fiveto14","male","no.skilled.attendant",0,0,48,0,0,0,0,1047000
"Central African Republic_MICS4_Datasets","fiveto14","male","non.p20",28,49,16,14,8,5,2,4500000
"Central African Republic_MICS4_Datasets","fiveto14","male","p20",28,49,84,14,41,24,12,4500000
"Central African Republic_MICS4_Datasets","fiveto14","male","primary",0,49,25,0,17,0,0,1650000
"Central African Republic_MICS4_Datasets","fiveto14","male","rural",28,49,61,14,30,18,9,4500000
"Central African Republic_MICS4_Datasets","fiveto14","male","secondary",0,49,25,0,17,0,0,1650000
"Central African Republic_MICS4_Datasets","fiveto14","male","stunted",0,50,41,0,21,0,0,725000
"Central African Republic_MICS4_Datasets","fiveto14","male","under5",28,49,20,14,10,0,0,4500000
"Central African Republic_MICS4_Datasets","fiveto14","male","urban",28,49,39,14,19,11,5,4500000
"Central African Republic_MICS4_Datasets","fiveto14","no.birth.reg","no.educ",,,,,,,,1650000
"Central African Republic_MICS4_Datasets","fiveto14","no.birth.reg","no.skilled.attendant",,,,,,,,725000
"Central African Republic_MICS4_Datasets","fiveto14","no.birth.reg","non.p20",0,39,13,0,2,0,0,725000
"Central African Republic_MICS4_Datasets","fiveto14","no.birth.reg","p20",0,39,87,0,37,0,0,725000
"Central African Republic_MICS4_Datasets","fiveto14","no.birth.reg","primary",,,,,,,,1650000
"Central African Republic_MICS4_Datasets","fiveto14","no.birth.reg","rural",0,39,65,0,31,0,0,725000
"Central African Republic_MICS4_Datasets","fiveto14","no.birth.reg","secondary",,,,,,,,1650000
"Central African Republic_MICS4_Datasets","fiveto14","no.birth.reg","stunted",0,39,41,0,17,0,0,725000
"Central African Republic_MICS4_Datasets","fiveto14","no.birth.reg","under5",0,39,100,0,39,0,0,725000
"Central African Republic_MICS4_Datasets","fiveto14","no.birth.reg","urban",0,39,35,0,7,0,0,725000
"Central African Republic_MICS4_Datasets","fiveto14","no.educ","no.skilled.attendant",0,88,49,0,47,0,0,594000
"Central African Republic_MICS4_Datasets","fiveto14","no.educ","non.p20",0,75,16,0,6,0,0,1650000
"Central African Republic_MICS4_Datasets","fiveto14","no.educ","p20",0,75,84,0,69,0,0,1650000
"Central African Republic_MICS4_Datasets","fiveto14","no.educ","primary",0,75,25,0,0,0,0,1650000
"Central African Republic_MICS4_Datasets","fiveto14","no.educ","rural",0,75,61,0,53,0,0,1650000
"Central African Republic_MICS4_Datasets","fiveto14","no.educ","secondary",0,75,25,0,0,0,0,1650000
"Central African Republic_MICS4_Datasets","fiveto14","no.educ","stunted",,,,,,,,1650000
"Central African Republic_MICS4_Datasets","fiveto14","no.educ","under5",0,75,0,0,0,0,0,1650000
"Central African Republic_MICS4_Datasets","fiveto14","no.educ","urban",0,75,39,0,22,0,0,1650000
"Central African Republic_MICS4_Datasets","fiveto14","no.skilled.attendant","non.p20",0,48,12,0,1,0,0,1047000
"Central African Republic_MICS4_Datasets","fiveto14","no.skilled.attendant","p20",0,48,88,0,47,0,0,1047000
"Central African Republic_MICS4_Datasets","fiveto14","no.skilled.attendant","primary",0,49,12,0,2,0,0,594000
"Central African Republic_MICS4_Datasets","fiveto14","no.skilled.attendant","rural",0,48,66,0,42,0,0,1047000
"Central African Republic_MICS4_Datasets","fiveto14","no.skilled.attendant","secondary",0,49,12,0,2,0,0,594000
"Central African Republic_MICS4_Datasets","fiveto14","no.skilled.attendant","stunted",,,,,,,,725000
"Central African Republic_MICS4_Datasets","fiveto14","no.skilled.attendant","under5",0,48,0,0,0,0,0,1047000
"Central African Republic_MICS4_Datasets","fiveto14","no.skilled.attendant","urban",0,48,34,0,6,0,0,1047000
"Central African Republic_MICS4_Datasets","fiveto14","non.p20","p20",28,16,84,5,0,24,0,4500000
"Central African Republic_MICS4_Datasets","fiveto14","non.p20","primary",0,16,25,0,10,0,0,1650000
"Central African Republic_MICS4_Datasets","fiveto14","non.p20","rural",28,16,61,5,2,18,0,4500000
"Central African Republic_MICS4_Datasets","fiveto14","non.p20","secondary",0,16,25,0,10,0,0,1650000
"Central African Republic_MICS4_Datasets","fiveto14","non.p20","stunted",0,13,41,0,3,0,0,725000
"Central African Republic_MICS4_Datasets","fiveto14","non.p20","under5",28,16,20,5,2,0,0,4500000
"Central African Republic_MICS4_Datasets","fiveto14","non.p20","urban",28,16,39,5,15,11,4,4500000
"Central African Republic_MICS4_Datasets","fiveto14","p20","primary",0,84,25,0,15,0,0,1650000
"Central African Republic_MICS4_Datasets","fiveto14","p20","rural",28,84,61,24,60,18,17,4500000
"Central African Republic_MICS4_Datasets","fiveto14","p20","secondary",0,84,25,0,15,0,0,1650000
"Central African Republic_MICS4_Datasets","fiveto14","p20","stunted",0,87,41,0,37,0,0,725000
"Central African Republic_MICS4_Datasets","fiveto14","p20","under5",28,84,20,24,17,0,0,4500000
"Central African Republic_MICS4_Datasets","fiveto14","p20","urban",28,84,39,24,24,11,7,4500000
"Central African Republic_MICS4_Datasets","fiveto14","primary","rural",0,25,61,0,8,0,0,1650000
"Central African Republic_MICS4_Datasets","fiveto14","primary","secondary",0,25,25,0,25,0,0,1650000
"Central African Republic_MICS4_Datasets","fiveto14","primary","stunted",,,,,,,,1650000
"Central African Republic_MICS4_Datasets","fiveto14","primary","under5",0,25,0,0,0,0,0,1650000
"Central African Republic_MICS4_Datasets","fiveto14","primary","urban",0,25,39,0,17,0,0,1650000
"Central African Republic_MICS4_Datasets","fiveto14","rural","secondary",0,61,25,0,8,0,0,1650000
"Central African Republic_MICS4_Datasets","fiveto14","rural","stunted",0,65,41,0,27,0,0,725000
"Central African Republic_MICS4_Datasets","fiveto14","rural","under5",28,61,20,18,13,0,0,4500000
"Central African Republic_MICS4_Datasets","fiveto14","rural","urban",28,61,39,18,0,11,0,4500000
"Central African Republic_MICS4_Datasets","fiveto14","secondary","stunted",,,,,,,,1650000
"Central African Republic_MICS4_Datasets","fiveto14","secondary","under5",0,25,0,0,0,0,0,1650000
"Central African Republic_MICS4_Datasets","fiveto14","secondary","urban",0,25,39,0,17,0,0,1650000
"Central African Republic_MICS4_Datasets","fiveto14","stunted","under5",0,41,100,0,41,0,0,725000
"Central African Republic_MICS4_Datasets","fiveto14","stunted","urban",0,41,35,0,13,0,0,725000
"Central African Republic_MICS4_Datasets","fiveto14","under5","urban",28,20,39,0,7,11,0,4500000
"Central African Republic_MICS4_Datasets","gt49","higher","male",23,3,49,0,2,10,0,1650000
"Central African Republic_MICS4_Datasets","gt49","higher","no.birth.reg",,,,,,,,1650000
"Central African Republic_MICS4_Datasets","gt49","higher","no.educ",23,3,75,0,0,20,0,1650000
"Central African Republic_MICS4_Datasets","gt49","higher","no.skilled.attendant",0,1,49,0,0,0,0,594000
"Central African Republic_MICS4_Datasets","gt49","higher","non.p20",23,3,16,0,2,3,0,1650000
"Central African Republic_MICS4_Datasets","gt49","higher","p20",23,3,84,0,1,19,0,1650000
"Central African Republic_MICS4_Datasets","gt49","higher","primary",23,3,25,0,3,3,0,1650000
"Central African Republic_MICS4_Datasets","gt49","higher","rural",23,3,61,0,0,14,0,1650000
"Central African Republic_MICS4_Datasets","gt49","higher","secondary",23,3,25,0,3,3,0,1650000
"Central African Republic_MICS4_Datasets","gt49","higher","stunted",,,,,,,,1650000
"Central African Republic_MICS4_Datasets","gt49","higher","under5",23,3,0,0,0,0,0,1650000
"Central African Republic_MICS4_Datasets","gt49","higher","urban",23,3,39,0,3,9,0,1650000
"Central African Republic_MICS4_Datasets","gt49","male","no.birth.reg",0,50,39,0,19,0,0,725000
"Central African Republic_MICS4_Datasets","gt49","male","no.educ",23,49,75,10,32,20,8,1650000
"Central African Republic_MICS4_Datasets","gt49","male","no.skilled.attendant",0,0,48,0,0,0,0,1047000
"Central African Republic_MICS4_Datasets","gt49","male","non.p20",8,49,16,4,8,1,1,4500000
"Central African Republic_MICS4_Datasets","gt49","male","p20",8,49,84,4,41,7,3,4500000
"Central African Republic_MICS4_Datasets","gt49","male","primary",23,49,25,10,17,3,2,1650000
"Central African Republic_MICS4_Datasets","gt49","male","rural",8,49,61,4,30,5,2,4500000
"Central African Republic_MICS4_Datasets","gt49","male","secondary",23,49,25,10,17,3,2,1650000
"Central African Republic_MICS4_Datasets","gt49","male","stunted",0,50,41,0,21,0,0,725000
"Central African Republic_MICS4_Datasets","gt49","male","under5",8,49,20,4,10,0,0,4500000
"Central African Republic_MICS4_Datasets","gt49","male","urban",8,49,39,4,19,3,1,4500000
"Central African Republic_MICS4_Datasets","gt49","no.birth.reg","no.educ",,,,,,,,1650000
"Central African Republic_MICS4_Datasets","gt49","no.birth.reg","no.skilled.attendant",,,,,,,,725000
"Central African Republic_MICS4_Datasets","gt49","no.birth.reg","non.p20",0,39,13,0,2,0,0,725000
"Central African Republic_MICS4_Datasets","gt49","no.birth.reg","p20",0,39,87,0,37,0,0,725000
"Central African Republic_MICS4_Datasets","gt49","no.birth.reg","primary",,,,,,,,1650000
"Central African Republic_MICS4_Datasets","gt49","no.birth.reg","rural",0,39,65,0,31,0,0,725000
"Central African Republic_MICS4_Datasets","gt49","no.birth.reg","secondary",,,,,,,,1650000
"Central African Republic_MICS4_Datasets","gt49","no.birth.reg","stunted",0,39,41,0,17,0,0,725000
"Central African Republic_MICS4_Datasets","gt49","no.birth.reg","under5",0,39,100,0,39,0,0,725000
"Central African Republic_MICS4_Datasets","gt49","no.birth.reg","urban",0,39,35,0,7,0,0,725000
"Central African Republic_MICS4_Datasets","gt49","no.educ","no.skilled.attendant",0,88,49,0,47,0,0,594000
"Central African Republic_MICS4_Datasets","gt49","no.educ","non.p20",23,75,16,20,6,3,2,1650000
"Central African Republic_MICS4_Datasets","gt49","no.educ","p20",23,75,84,20,69,19,18,1650000
"Central African Republic_MICS4_Datasets","gt49","no.educ","primary",23,75,25,20,0,3,0,1650000
"Central African Republic_MICS4_Datasets","gt49","no.educ","rural",23,75,61,20,53,14,13,1650000
"Central African Republic_MICS4_Datasets","gt49","no.educ","secondary",23,75,25,20,0,3,0,1650000
"Central African Republic_MICS4_Datasets","gt49","no.educ","stunted",,,,,,,,1650000
"Central African Republic_MICS4_Datasets","gt49","no.educ","under5",23,75,0,20,0,0,0,1650000
"Central African Republic_MICS4_Datasets","gt49","no.educ","urban",23,75,39,20,22,9,6,1650000
"Central African Republic_MICS4_Datasets","gt49","no.skilled.attendant","non.p20",0,48,12,0,1,0,0,1047000
"Central African Republic_MICS4_Datasets","gt49","no.skilled.attendant","p20",0,48,88,0,47,0,0,1047000
"Central African Republic_MICS4_Datasets","gt49","no.skilled.attendant","primary",0,49,12,0,2,0,0,594000
"Central African Republic_MICS4_Datasets","gt49","no.skilled.attendant","rural",0,48,66,0,42,0,0,1047000
"Central African Republic_MICS4_Datasets","gt49","no.skilled.attendant","secondary",0,49,12,0,2,0,0,594000
"Central African Republic_MICS4_Datasets","gt49","no.skilled.attendant","stunted",,,,,,,,725000
"Central African Republic_MICS4_Datasets","gt49","no.skilled.attendant","under5",0,48,0,0,0,0,0,1047000
"Central African Republic_MICS4_Datasets","gt49","no.skilled.attendant","urban",0,48,34,0,6,0,0,1047000
"Central African Republic_MICS4_Datasets","gt49","non.p20","p20",8,16,84,1,0,7,0,4500000
"Central African Republic_MICS4_Datasets","gt49","non.p20","primary",23,16,25,3,10,3,1,1650000
"Central African Republic_MICS4_Datasets","gt49","non.p20","rural",8,16,61,1,2,5,0,4500000
"Central African Republic_MICS4_Datasets","gt49","non.p20","secondary",23,16,25,3,10,3,1,1650000
"Central African Republic_MICS4_Datasets","gt49","non.p20","stunted",0,13,41,0,3,0,0,725000
"Central African Republic_MICS4_Datasets","gt49","non.p20","under5",8,16,20,1,2,0,0,4500000
"Central African Republic_MICS4_Datasets","gt49","non.p20","urban",8,16,39,1,15,3,1,4500000
"Central African Republic_MICS4_Datasets","gt49","p20","primary",23,84,25,19,15,3,2,1650000
"Central African Republic_MICS4_Datasets","gt49","p20","rural",8,84,61,7,60,5,5,4500000
"Central African Republic_MICS4_Datasets","gt49","p20","secondary",23,84,25,19,15,3,2,1650000
"Central African Republic_MICS4_Datasets","gt49","p20","stunted",0,87,41,0,37,0,0,725000
"Central African Republic_MICS4_Datasets","gt49","p20","under5",8,84,20,7,17,0,0,4500000
"Central African Republic_MICS4_Datasets","gt49","p20","urban",8,84,39,7,24,3,2,4500000
"Central African Republic_MICS4_Datasets","gt49","primary","rural",23,25,61,3,8,14,1,1650000
"Central African Republic_MICS4_Datasets","gt49","primary","secondary",23,25,25,3,25,3,3,1650000
"Central African Republic_MICS4_Datasets","gt49","primary","stunted",,,,,,,,1650000
"Central African Republic_MICS4_Datasets","gt49","primary","under5",23,25,0,3,0,0,0,1650000
"Central African Republic_MICS4_Datasets","gt49","primary","urban",23,25,39,3,17,9,2,1650000
"Central African Republic_MICS4_Datasets","gt49","rural","secondary",23,61,25,14,8,3,1,1650000
"Central African Republic_MICS4_Datasets","gt49","rural","stunted",0,65,41,0,27,0,0,725000
"Central African Republic_MICS4_Datasets","gt49","rural","under5",8,61,20,5,13,0,0,4500000
"Central African Republic_MICS4_Datasets","gt49","rural","urban",8,61,39,5,0,3,0,4500000
"Central African Republic_MICS4_Datasets","gt49","secondary","stunted",,,,,,,,1650000
"Central African Republic_MICS4_Datasets","gt49","secondary","under5",23,25,0,3,0,0,0,1650000
"Central African Republic_MICS4_Datasets","gt49","secondary","urban",23,25,39,3,17,9,2,1650000
"Central African Republic_MICS4_Datasets","gt49","stunted","under5",0,41,100,0,41,0,0,725000
"Central African Republic_MICS4_Datasets","gt49","stunted","urban",0,41,35,0,13,0,0,725000
"Central African Republic_MICS4_Datasets","gt49","under5","urban",8,20,39,0,7,3,0,4500000
"Central African Republic_MICS4_Datasets","higher","male","no.birth.reg",,,,,,,,1650000
"Central African Republic_MICS4_Datasets","higher","male","no.educ",3,49,75,2,32,0,0,1650000
"Central African Republic_MICS4_Datasets","higher","male","no.skilled.attendant",1,0,49,0,0,0,0,594000
"Central African Republic_MICS4_Datasets","higher","male","non.p20",3,49,16,2,8,2,2,1650000
"Central African Republic_MICS4_Datasets","higher","male","p20",3,49,84,2,41,1,1,1650000
"Central African Republic_MICS4_Datasets","higher","male","primary",3,49,25,2,17,3,2,1650000
"Central African Republic_MICS4_Datasets","higher","male","rural",3,49,61,2,30,0,0,1650000
"Central African Republic_MICS4_Datasets","higher","male","secondary",3,49,25,2,17,3,2,1650000
"Central African Republic_MICS4_Datasets","higher","male","stunted",,,,,,,,1650000
"Central African Republic_MICS4_Datasets","higher","male","under5",3,49,0,2,0,0,0,1650000
"Central African Republic_MICS4_Datasets","higher","male","urban",3,49,39,2,19,3,2,1650000
"Central African Republic_MICS4_Datasets","higher","no.birth.reg","no.educ",,,,,,,,1650000
"Central African Republic_MICS4_Datasets","higher","no.birth.reg","no.skilled.attendant",,,,,,,,594000
"Central African Republic_MICS4_Datasets","higher","no.birth.reg","non.p20",,,,,,,,1650000
"Central African Republic_MICS4_Datasets","higher","no.birth.reg","p20",,,,,,,,1650000
"Central African Republic_MICS4_Datasets","higher","no.birth.reg","primary",,,,,,,,1650000
"Central African Republic_MICS4_Datasets","higher","no.birth.reg","rural",,,,,,,,1650000
"Central African Republic_MICS4_Datasets","higher","no.birth.reg","secondary",,,,,,,,1650000
"Central African Republic_MICS4_Datasets","higher","no.birth.reg","stunted",,,,,,,,1650000
"Central African Republic_MICS4_Datasets","higher","no.birth.reg","under5",,,,,,,,1650000
"Central African Republic_MICS4_Datasets","higher","no.birth.reg","urban",,,,,,,,1650000
"Central African Republic_MICS4_Datasets","higher","no.educ","no.skilled.attendant",1,88,49,0,47,0,0,594000
"Central African Republic_MICS4_Datasets","higher","no.educ","non.p20",3,75,16,0,6,2,0,1650000
"Central African Republic_MICS4_Datasets","higher","no.educ","p20",3,75,84,0,69,1,0,1650000
"Central African Republic_MICS4_Datasets","higher","no.educ","primary",3,75,25,0,0,3,0,1650000
"Central African Republic_MICS4_Datasets","higher","no.educ","rural",3,75,61,0,53,0,0,1650000
"Central African Republic_MICS4_Datasets","higher","no.educ","secondary",3,75,25,0,0,3,0,1650000
"Central African Republic_MICS4_Datasets","higher","no.educ","stunted",,,,,,,,1650000
"Central African Republic_MICS4_Datasets","higher","no.educ","under5",3,75,0,0,0,0,0,1650000
"Central African Republic_MICS4_Datasets","higher","no.educ","urban",3,75,39,0,22,3,0,1650000
"Central African Republic_MICS4_Datasets","higher","no.skilled.attendant","non.p20",1,49,12,0,1,1,0,594000
"Central African Republic_MICS4_Datasets","higher","no.skilled.attendant","p20",1,49,88,0,47,0,0,594000
"Central African Republic_MICS4_Datasets","higher","no.skilled.attendant","primary",1,49,12,0,2,1,0,594000
"Central African Republic_MICS4_Datasets","higher","no.skilled.attendant","rural",1,49,67,0,43,0,0,594000
"Central African Republic_MICS4_Datasets","higher","no.skilled.attendant","secondary",1,49,12,0,2,1,0,594000
"Central African Republic_MICS4_Datasets","higher","no.skilled.attendant","stunted",,,,,,,,594000
"Central African Republic_MICS4_Datasets","higher","no.skilled.attendant","under5",1,49,0,0,0,0,0,594000
"Central African Republic_MICS4_Datasets","higher","no.skilled.attendant","urban",1,49,33,0,6,1,0,594000
"Central African Republic_MICS4_Datasets","higher","non.p20","p20",3,16,84,2,0,1,0,1650000
"Central African Republic_MICS4_Datasets","higher","non.p20","primary",3,16,25,2,10,3,2,1650000
"Central African Republic_MICS4_Datasets","higher","non.p20","rural",3,16,61,2,1,0,0,1650000
"Central African Republic_MICS4_Datasets","higher","non.p20","secondary",3,16,25,2,10,3,2,1650000
"Central African Republic_MICS4_Datasets","higher","non.p20","stunted",,,,,,,,1650000
"Central African Republic_MICS4_Datasets","higher","non.p20","under5",3,16,0,2,0,0,0,1650000
"Central African Republic_MICS4_Datasets","higher","non.p20","urban",3,16,39,2,15,3,2,1650000
"Central African Republic_MICS4_Datasets","higher","p20","primary",3,84,25,1,15,3,1,1650000
"Central African Republic_MICS4_Datasets","higher","p20","rural",3,84,61,1,60,0,0,1650000
"Central African Republic_MICS4_Datasets","higher","p20","secondary",3,84,25,1,15,3,1,1650000
"Central African Republic_MICS4_Datasets","higher","p20","stunted",,,,,,,,1650000
"Central African Republic_MICS4_Datasets","higher","p20","under5",3,84,0,1,0,0,0,1650000
"Central African Republic_MICS4_Datasets","higher","p20","urban",3,84,39,1,24,3,1,1650000
"Central African Republic_MICS4_Datasets","higher","primary","rural",3,25,61,3,8,0,0,1650000
"Central African Republic_MICS4_Datasets","higher","primary","secondary",3,25,25,3,25,3,3,1650000
"Central African Republic_MICS4_Datasets","higher","primary","stunted",,,,,,,,1650000
"Central African Republic_MICS4_Datasets","higher","primary","under5",3,25,0,3,0,0,0,1650000
"Central African Republic_MICS4_Datasets","higher","primary","urban",3,25,39,3,17,3,3,1650000
"Central African Republic_MICS4_Datasets","higher","rural","secondary",3,61,25,0,8,3,0,1650000
"Central African Republic_MICS4_Datasets","higher","rural","stunted",,,,,,,,1650000
"Central African Republic_MICS4_Datasets","higher","rural","under5",3,61,0,0,0,0,0,1650000
"Central African Republic_MICS4_Datasets","higher","rural","urban",3,61,39,0,0,3,0,1650000
"Central African Republic_MICS4_Datasets","higher","secondary","stunted",,,,,,,,1650000
"Central African Republic_MICS4_Datasets","higher","secondary","under5",3,25,0,3,0,0,0,1650000
"Central African Republic_MICS4_Datasets","higher","secondary","urban",3,25,39,3,17,3,3,1650000
"Central African Republic_MICS4_Datasets","higher","stunted","under5",,,,,,,,1650000
"Central African Republic_MICS4_Datasets","higher","stunted","urban",,,,,,,,1650000
"Central African Republic_MICS4_Datasets","higher","under5","urban",3,0,39,0,0,3,0,1650000
"Central African Republic_MICS4_Datasets","male","no.birth.reg","no.educ",,,,,,,,1650000
"Central African Republic_MICS4_Datasets","male","no.birth.reg","no.skilled.attendant",,,,,,,,725000
"Central African Republic_MICS4_Datasets","male","no.birth.reg","non.p20",50,39,13,19,2,6,1,725000
"Central African Republic_MICS4_Datasets","male","no.birth.reg","p20",50,39,87,19,37,44,19,725000
"Central African Republic_MICS4_Datasets","male","no.birth.reg","primary",,,,,,,,1650000
"Central African Republic_MICS4_Datasets","male","no.birth.reg","rural",50,39,65,19,31,32,15,725000
"Central African Republic_MICS4_Datasets","male","no.birth.reg","secondary",,,,,,,,1650000
"Central African Republic_MICS4_Datasets","male","no.birth.reg","stunted",50,39,41,19,17,21,9,725000
"Central African Republic_MICS4_Datasets","male","no.birth.reg","under5",50,39,100,19,39,50,19,725000
"Central African Republic_MICS4_Datasets","male","no.birth.reg","urban",50,39,35,19,7,18,4,725000
"Central African Republic_MICS4_Datasets","male","no.educ","no.skilled.attendant",0,88,49,0,47,0,0,594000
"Central African Republic_MICS4_Datasets","male","no.educ","non.p20",49,75,16,32,6,8,2,1650000
"Central African Republic_MICS4_Datasets","male","no.educ","p20",49,75,84,32,69,41,29,1650000
"Central African Republic_MICS4_Datasets","male","no.educ","primary",49,75,25,32,0,17,0,1650000
"Central African Republic_MICS4_Datasets","male","no.educ","rural",49,75,61,32,53,30,23,1650000
"Central African Republic_MICS4_Datasets","male","no.educ","secondary",49,75,25,32,0,17,0,1650000
"Central African Republic_MICS4_Datasets","male","no.educ","stunted",,,,,,,,1650000
"Central African Republic_MICS4_Datasets","male","no.educ","under5",49,75,0,32,0,0,0,1650000
"Central African Republic_MICS4_Datasets","male","no.educ","urban",49,75,39,32,22,19,8,1650000
"Central African Republic_MICS4_Datasets","male","no.skilled.attendant","non.p20",0,48,12,0,1,0,0,1047000
"Central African Republic_MICS4_Datasets","male","no.skilled.attendant","p20",0,48,88,0,47,0,0,1047000
"Central African Republic_MICS4_Datasets","male","no.skilled.attendant","primary",0,49,12,0,2,0,0,594000
"Central African Republic_MICS4_Datasets","male","no.skilled.attendant","rural",0,48,66,0,42,0,0,1047000
"Central African Republic_MICS4_Datasets","male","no.skilled.attendant","secondary",0,49,12,0,2,0,0,594000
"Central African Republic_MICS4_Datasets","male","no.skilled.attendant","stunted",,,,,,,,725000
"Central African Republic_MICS4_Datasets","male","no.skilled.attendant","under5",0,48,0,0,0,0,0,1047000
"Central African Republic_MICS4_Datasets","male","no.skilled.attendant","urban",0,48,34,0,6,0,0,1047000
"Central African Republic_MICS4_Datasets","male","non.p20","p20",49,16,84,8,0,41,0,4500000
"Central African Republic_MICS4_Datasets","male","non.p20","primary",49,16,25,8,10,17,6,1650000
"Central African Republic_MICS4_Datasets","male","non.p20","rural",49,16,61,8,2,30,1,4500000
"Central African Republic_MICS4_Datasets","male","non.p20","secondary",49,16,25,8,10,17,6,1650000
"Central African Republic_MICS4_Datasets","male","non.p20","stunted",50,13,41,6,3,21,2,725000
"Central African Republic_MICS4_Datasets","male","non.p20","under5",49,16,20,8,2,10,1,4500000
"Central African Republic_MICS4_Datasets","male","non.p20","urban",49,16,39,8,15,19,7,4500000
"Central African Republic_MICS4_Datasets","male","p20","primary",49,84,25,41,15,17,12,1650000
"Central African Republic_MICS4_Datasets","male","p20","rural",49,84,61,41,60,30,29,4500000
"Central African Republic_MICS4_Datasets","male","p20","secondary",49,84,25,41,15,17,12,1650000
"Central African Republic_MICS4_Datasets","male","p20","stunted",50,87,41,44,37,21,19,725000
"Central African Republic_MICS4_Datasets","male","p20","under5",49,84,20,41,17,10,9,4500000
"Central African Republic_MICS4_Datasets","male","p20","urban",49,84,39,41,24,19,11,4500000
"Central African Republic_MICS4_Datasets","male","primary","rural",49,25,61,17,8,30,7,1650000
"Central African Republic_MICS4_Datasets","male","primary","secondary",49,25,25,17,25,17,17,1650000
"Central African Republic_MICS4_Datasets","male","primary","stunted",,,,,,,,1650000
"Central African Republic_MICS4_Datasets","male","primary","under5",49,25,0,17,0,0,0,1650000
"Central African Republic_MICS4_Datasets","male","primary","urban",49,25,39,17,17,19,11,1650000
"Central African Republic_MICS4_Datasets","male","rural","secondary",49,61,25,30,8,17,7,1650000
"Central African Republic_MICS4_Datasets","male","rural","stunted",50,65,41,32,27,21,14,725000
"Central African Republic_MICS4_Datasets","male","rural","under5",49,61,20,30,13,10,6,4500000
"Central African Republic_MICS4_Datasets","male","rural","urban",49,61,39,30,0,19,0,4500000
"Central African Republic_MICS4_Datasets","male","secondary","stunted",,,,,,,,1650000
"Central African Republic_MICS4_Datasets","male","secondary","under5",49,25,0,17,0,0,0,1650000
"Central African Republic_MICS4_Datasets","male","secondary","urban",49,25,39,17,17,19,11,1650000
"Central African Republic_MICS4_Datasets","male","stunted","under5",50,41,100,21,41,50,21,725000
"Central African Republic_MICS4_Datasets","male","stunted","urban",50,41,35,21,13,18,7,725000
"Central African Republic_MICS4_Datasets","male","under5","urban",49,20,39,10,7,19,3,4500000
"Central African Republic_MICS4_Datasets","no.birth.reg","no.educ","no.skilled.attendant",,,,,,,,594000
"Central African Republic_MICS4_Datasets","no.birth.reg","no.educ","non.p20",,,,,,,,1650000
"Central African Republic_MICS4_Datasets","no.birth.reg","no.educ","p20",,,,,,,,1650000
"Central African Republic_MICS4_Datasets","no.birth.reg","no.educ","primary",,,,,,,,1650000
"Central African Republic_MICS4_Datasets","no.birth.reg","no.educ","rural",,,,,,,,1650000
"Central African Republic_MICS4_Datasets","no.birth.reg","no.educ","secondary",,,,,,,,1650000
"Central African Republic_MICS4_Datasets","no.birth.reg","no.educ","stunted",,,,,,,,1650000
"Central African Republic_MICS4_Datasets","no.birth.reg","no.educ","under5",,,,,,,,1650000
"Central African Republic_MICS4_Datasets","no.birth.reg","no.educ","urban",,,,,,,,1650000
"Central African Republic_MICS4_Datasets","no.birth.reg","no.skilled.attendant","non.p20",,,,,,,,725000
"Central African Republic_MICS4_Datasets","no.birth.reg","no.skilled.attendant","p20",,,,,,,,725000
"Central African Republic_MICS4_Datasets","no.birth.reg","no.skilled.attendant","primary",,,,,,,,594000
"Central African Republic_MICS4_Datasets","no.birth.reg","no.skilled.attendant","rural",,,,,,,,725000
"Central African Republic_MICS4_Datasets","no.birth.reg","no.skilled.attendant","secondary",,,,,,,,594000
"Central African Republic_MICS4_Datasets","no.birth.reg","no.skilled.attendant","stunted",,,,,,,,725000
"Central African Republic_MICS4_Datasets","no.birth.reg","no.skilled.attendant","under5",,,,,,,,725000
"Central African Republic_MICS4_Datasets","no.birth.reg","no.skilled.attendant","urban",,,,,,,,725000
"Central African Republic_MICS4_Datasets","no.birth.reg","non.p20","p20",39,13,87,2,0,37,0,725000
"Central African Republic_MICS4_Datasets","no.birth.reg","non.p20","primary",,,,,,,,1650000
"Central African Republic_MICS4_Datasets","no.birth.reg","non.p20","rural",39,13,65,2,1,31,0,725000
"Central African Republic_MICS4_Datasets","no.birth.reg","non.p20","secondary",,,,,,,,1650000
"Central African Republic_MICS4_Datasets","no.birth.reg","non.p20","stunted",39,13,41,2,3,17,0,725000
"Central African Republic_MICS4_Datasets","no.birth.reg","non.p20","under5",39,13,100,2,13,39,2,725000
"Central African Republic_MICS4_Datasets","no.birth.reg","non.p20","urban",39,13,35,2,11,7,1,725000
"Central African Republic_MICS4_Datasets","no.birth.reg","p20","primary",,,,,,,,1650000
"Central African Republic_MICS4_Datasets","no.birth.reg","p20","rural",39,87,65,37,63,31,31,725000
"Central African Republic_MICS4_Datasets","no.birth.reg","p20","secondary",,,,,,,,1650000
"Central African Republic_MICS4_Datasets","no.birth.reg","p20","stunted",39,87,41,37,37,17,16,725000
"Central African Republic_MICS4_Datasets","no.birth.reg","p20","under5",39,87,100,37,87,39,37,725000
"Central African Republic_MICS4_Datasets","no.birth.reg","p20","urban",39,87,35,37,24,7,6,725000
"Central African Republic_MICS4_Datasets","no.birth.reg","primary","rural",,,,,,,,1650000
"Central African Republic_MICS4_Datasets","no.birth.reg","primary","secondary",,,,,,,,1650000
"Central African Republic_MICS4_Datasets","no.birth.reg","primary","stunted",,,,,,,,1650000
"Central African Republic_MICS4_Datasets","no.birth.reg","primary","under5",,,,,,,,1650000
"Central African Republic_MICS4_Datasets","no.birth.reg","primary","urban",,,,,,,,1650000
"Central African Republic_MICS4_Datasets","no.birth.reg","rural","secondary",,,,,,,,1650000
"Central African Republic_MICS4_Datasets","no.birth.reg","rural","stunted",39,65,41,31,27,17,13,725000
"Central African Republic_MICS4_Datasets","no.birth.reg","rural","under5",39,65,100,31,65,39,31,725000
"Central African Republic_MICS4_Datasets","no.birth.reg","rural","urban",39,65,35,31,0,7,0,725000
"Central African Republic_MICS4_Datasets","no.birth.reg","secondary","stunted",,,,,,,,1650000
"Central African Republic_MICS4_Datasets","no.birth.reg","secondary","under5",,,,,,,,1650000
"Central African Republic_MICS4_Datasets","no.birth.reg","secondary","urban",,,,,,,,1650000
"Central African Republic_MICS4_Datasets","no.birth.reg","stunted","under5",39,41,100,17,41,39,17,725000
"Central African Republic_MICS4_Datasets","no.birth.reg","stunted","urban",39,41,35,17,13,7,3,725000
"Central African Republic_MICS4_Datasets","no.birth.reg","under5","urban",39,100,35,39,35,7,7,725000
"Central African Republic_MICS4_Datasets","no.educ","no.skilled.attendant","non.p20",88,49,12,47,1,6,1,594000
"Central African Republic_MICS4_Datasets","no.educ","no.skilled.attendant","p20",88,49,88,47,47,82,46,594000
"Central African Republic_MICS4_Datasets","no.educ","no.skilled.attendant","primary",88,49,12,47,2,0,0,594000
"Central African Republic_MICS4_Datasets","no.educ","no.skilled.attendant","rural",88,49,67,47,43,65,42,594000
"Central African Republic_MICS4_Datasets","no.educ","no.skilled.attendant","secondary",88,49,12,47,2,0,0,594000
"Central African Republic_MICS4_Datasets","no.educ","no.skilled.attendant","stunted",,,,,,,,594000
"Central African Republic_MICS4_Datasets","no.educ","no.skilled.attendant","under5",88,49,0,47,0,0,0,594000
"Central African Republic_MICS4_Datasets","no.educ","no.skilled.attendant","urban",88,49,33,47,6,23,5,594000
"Central African Republic_MICS4_Datasets","no.educ","non.p20","p20",75,16,84,6,0,69,0,1650000
"Central African Republic_MICS4_Datasets","no.educ","non.p20","primary",75,16,25,6,10,0,0,1650000
"Central African Republic_MICS4_Datasets","no.educ","non.p20","rural",75,16,61,6,1,53,1,1650000
"Central African Republic_MICS4_Datasets","no.educ","non.p20","secondary",75,16,25,6,10,0,0,1650000
"Central African Republic_MICS4_Datasets","no.educ","non.p20","stunted",,,,,,,,1650000
"Central African Republic_MICS4_Datasets","no.educ","non.p20","under5",75,16,0,6,0,0,0,1650000
"Central African Republic_MICS4_Datasets","no.educ","non.p20","urban",75,16,39,6,15,22,5,1650000
"Central African Republic_MICS4_Datasets","no.educ","p20","primary",75,84,25,69,15,0,0,1650000
"Central African Republic_MICS4_Datasets","no.educ","p20","rural",75,84,61,69,60,53,52,1650000
"Central African Republic_MICS4_Datasets","no.educ","p20","secondary",75,84,25,69,15,0,0,1650000
"Central African Republic_MICS4_Datasets","no.educ","p20","stunted",,,,,,,,1650000
"Central African Republic_MICS4_Datasets","no.educ","p20","under5",75,84,0,69,0,0,0,1650000
"Central African Republic_MICS4_Datasets","no.educ","p20","urban",75,84,39,69,24,22,16,1650000
"Central African Republic_MICS4_Datasets","no.educ","primary","rural",75,25,61,0,8,53,0,1650000
"Central African Republic_MICS4_Datasets","no.educ","primary","secondary",75,25,25,0,25,0,0,1650000
"Central African Republic_MICS4_Datasets","no.educ","primary","stunted",,,,,,,,1650000
"Central African Republic_MICS4_Datasets","no.educ","primary","under5",75,25,0,0,0,0,0,1650000
"Central African Republic_MICS4_Datasets","no.educ","primary","urban",75,25,39,0,17,22,0,1650000
"Central African Republic_MICS4_Datasets","no.educ","rural","secondary",75,61,25,53,8,0,0,1650000
"Central African Republic_MICS4_Datasets","no.educ","rural","stunted",,,,,,,,1650000
"Central African Republic_MICS4_Datasets","no.educ","rural","under5",75,61,0,53,0,0,0,1650000
"Central African Republic_MICS4_Datasets","no.educ","rural","urban",75,61,39,53,0,22,0,1650000
"Central African Republic_MICS4_Datasets","no.educ","secondary","stunted",,,,,,,,1650000
"Central African Republic_MICS4_Datasets","no.educ","secondary","under5",75,25,0,0,0,0,0,1650000
"Central African Republic_MICS4_Datasets","no.educ","secondary","urban",75,25,39,0,17,22,0,1650000
"Central African Republic_MICS4_Datasets","no.educ","stunted","under5",,,,,,,,1650000
"Central African Republic_MICS4_Datasets","no.educ","stunted","urban",,,,,,,,1650000
"Central African Republic_MICS4_Datasets","no.educ","under5","urban",75,0,39,0,0,22,0,1650000
"Central African Republic_MICS4_Datasets","no.skilled.attendant","non.p20","p20",48,12,88,1,0,47,0,1047000
"Central African Republic_MICS4_Datasets","no.skilled.attendant","non.p20","primary",49,12,12,1,6,2,0,594000
"Central African Republic_MICS4_Datasets","no.skilled.attendant","non.p20","rural",48,12,66,1,1,42,1,1047000
"Central African Republic_MICS4_Datasets","no.skilled.attendant","non.p20","secondary",49,12,12,1,6,2,0,594000
"Central African Republic_MICS4_Datasets","no.skilled.attendant","non.p20","stunted",,,,,,,,725000
"Central African Republic_MICS4_Datasets","no.skilled.attendant","non.p20","under5",48,12,0,1,0,0,0,1047000
"Central African Republic_MICS4_Datasets","no.skilled.attendant","non.p20","urban",48,12,34,1,10,6,1,1047000
"Central African Republic_MICS4_Datasets","no.skilled.attendant","p20","primary",49,88,12,47,7,2,1,594000
"Central African Republic_MICS4_Datasets","no.skilled.attendant","p20","rural",48,88,66,47,65,42,41,1047000
"Central African Republic_MICS4_Datasets","no.skilled.attendant","p20","secondary",49,88,12,47,7,2,1,594000
"Central African Republic_MICS4_Datasets","no.skilled.attendant","p20","stunted",,,,,,,,725000
"Central African Republic_MICS4_Datasets","no.skilled.attendant","p20","under5",48,88,0,47,0,0,0,1047000
"Central African Republic_MICS4_Datasets","no.skilled.attendant","p20","urban",48,88,34,47,24,6,6,1047000
"Central African Republic_MICS4_Datasets","no.skilled.attendant","primary","rural",49,12,67,2,2,43,1,594000
"Central African Republic_MICS4_Datasets","no.skilled.attendant","primary","secondary",49,12,12,2,12,2,2,594000
"Central African Republic_MICS4_Datasets","no.skilled.attendant","primary","stunted",,,,,,,,594000
"Central African Republic_MICS4_Datasets","no.skilled.attendant","primary","under5",49,12,0,2,0,0,0,594000
"Central African Republic_MICS4_Datasets","no.skilled.attendant","primary","urban",49,12,33,2,10,6,1,594000
"Central African Republic_MICS4_Datasets","no.skilled.attendant","rural","secondary",49,67,12,43,2,2,1,594000
"Central African Republic_MICS4_Datasets","no.skilled.attendant","rural","stunted",,,,,,,,725000
"Central African Republic_MICS4_Datasets","no.skilled.attendant","rural","under5",48,66,0,42,0,0,0,1047000
"Central African Republic_MICS4_Datasets","no.skilled.attendant","rural","urban",48,66,34,42,0,6,0,1047000
"Central African Republic_MICS4_Datasets","no.skilled.attendant","secondary","stunted",,,,,,,,594000
"Central African Republic_MICS4_Datasets","no.skilled.attendant","secondary","under5",49,12,0,2,0,0,0,594000
"Central African Republic_MICS4_Datasets","no.skilled.attendant","secondary","urban",49,12,33,2,10,6,1,594000
"Central African Republic_MICS4_Datasets","no.skilled.attendant","stunted","under5",,,,,,,,725000
"Central African Republic_MICS4_Datasets","no.skilled.attendant","stunted","urban",,,,,,,,725000
"Central African Republic_MICS4_Datasets","no.skilled.attendant","under5","urban",48,0,34,0,0,6,0,1047000
"Central African Republic_MICS4_Datasets","non.p20","p20","primary",16,84,25,0,15,10,0,1650000
"Central African Republic_MICS4_Datasets","non.p20","p20","rural",16,84,61,0,60,2,0,4500000
"Central African Republic_MICS4_Datasets","non.p20","p20","secondary",16,84,25,0,15,10,0,1650000
"Central African Republic_MICS4_Datasets","non.p20","p20","stunted",13,87,41,0,37,3,0,725000
"Central African Republic_MICS4_Datasets","non.p20","p20","under5",16,84,20,0,17,2,0,4500000
"Central African Republic_MICS4_Datasets","non.p20","p20","urban",16,84,39,0,24,15,0,4500000
"Central African Republic_MICS4_Datasets","non.p20","primary","rural",16,25,61,10,8,1,0,1650000
"Central African Republic_MICS4_Datasets","non.p20","primary","secondary",16,25,25,10,25,10,10,1650000
"Central African Republic_MICS4_Datasets","non.p20","primary","stunted",,,,,,,,1650000
"Central African Republic_MICS4_Datasets","non.p20","primary","under5",16,25,0,10,0,0,0,1650000
"Central African Republic_MICS4_Datasets","non.p20","primary","urban",16,25,39,10,17,15,9,1650000
"Central African Republic_MICS4_Datasets","non.p20","rural","secondary",16,61,25,1,8,10,0,1650000
"Central African Republic_MICS4_Datasets","non.p20","rural","stunted",13,65,41,1,27,3,0,725000
"Central African Republic_MICS4_Datasets","non.p20","rural","under5",16,61,20,2,13,2,0,4500000
"Central African Republic_MICS4_Datasets","non.p20","rural","urban",16,61,39,2,0,15,0,4500000
"Central African Republic_MICS4_Datasets","non.p20","secondary","stunted",,,,,,,,1650000
"Central African Republic_MICS4_Datasets","non.p20","secondary","under5",16,25,0,10,0,0,0,1650000
"Central African Republic_MICS4_Datasets","non.p20","secondary","urban",16,25,39,10,17,15,9,1650000
"Central African Republic_MICS4_Datasets","non.p20","stunted","under5",13,41,100,3,41,13,3,725000
"Central African Republic_MICS4_Datasets","non.p20","stunted","urban",13,41,35,3,13,11,3,725000
"Central African Republic_MICS4_Datasets","non.p20","under5","urban",16,20,39,2,7,15,2,4500000
"Central African Republic_MICS4_Datasets","p20","primary","rural",84,25,61,15,8,60,7,1650000
"Central African Republic_MICS4_Datasets","p20","primary","secondary",84,25,25,15,25,15,15,1650000
"Central African Republic_MICS4_Datasets","p20","primary","stunted",,,,,,,,1650000
"Central African Republic_MICS4_Datasets","p20","primary","under5",84,25,0,15,0,0,0,1650000
"Central African Republic_MICS4_Datasets","p20","primary","urban",84,25,39,15,17,24,8,1650000
"Central African Republic_MICS4_Datasets","p20","rural","secondary",84,61,25,60,8,15,7,1650000
"Central African Republic_MICS4_Datasets","p20","rural","stunted",87,65,41,63,27,37,26,725000
"Central African Republic_MICS4_Datasets","p20","rural","under5",84,61,20,60,13,17,12,4500000
"Central African Republic_MICS4_Datasets","p20","rural","urban",84,61,39,60,0,24,0,4500000
"Central African Republic_MICS4_Datasets","p20","secondary","stunted",,,,,,,,1650000
"Central African Republic_MICS4_Datasets","p20","secondary","under5",84,25,0,15,0,0,0,1650000
"Central African Republic_MICS4_Datasets","p20","secondary","urban",84,25,39,15,17,24,8,1650000
"Central African Republic_MICS4_Datasets","p20","stunted","under5",87,41,100,37,41,87,37,725000
"Central African Republic_MICS4_Datasets","p20","stunted","urban",87,41,35,37,13,24,10,725000
"Central African Republic_MICS4_Datasets","p20","under5","urban",84,20,39,17,7,24,5,4500000
"Central African Republic_MICS4_Datasets","primary","rural","secondary",25,61,25,8,8,25,8,1650000
"Central African Republic_MICS4_Datasets","primary","rural","stunted",,,,,,,,1650000
"Central African Republic_MICS4_Datasets","primary","rural","under5",25,61,0,8,0,0,0,1650000
"Central African Republic_MICS4_Datasets","primary","rural","urban",25,61,39,8,0,17,0,1650000
"Central African Republic_MICS4_Datasets","primary","secondary","stunted",,,,,,,,1650000
"Central African Republic_MICS4_Datasets","primary","secondary","under5",25,25,0,25,0,0,0,1650000
"Central African Republic_MICS4_Datasets","primary","secondary","urban",25,25,39,25,17,17,17,1650000
"Central African Republic_MICS4_Datasets","primary","stunted","under5",,,,,,,,1650000
"Central African Republic_MICS4_Datasets","primary","stunted","urban",,,,,,,,1650000
"Central African Republic_MICS4_Datasets","primary","under5","urban",25,0,39,0,0,17,0,1650000
"Central African Republic_MICS4_Datasets","rural","secondary","stunted",,,,,,,,1650000
"Central African Republic_MICS4_Datasets","rural","secondary","under5",61,25,0,8,0,0,0,1650000
"Central African Republic_MICS4_Datasets","rural","secondary","urban",61,25,39,8,17,0,0,1650000
"Central African Republic_MICS4_Datasets","rural","stunted","under5",65,41,100,27,41,65,27,725000
"Central African Republic_MICS4_Datasets","rural","stunted","urban",65,41,35,27,13,0,0,725000
"Central African Republic_MICS4_Datasets","rural","under5","urban",61,20,39,13,7,0,0,4500000
"Central African Republic_MICS4_Datasets","secondary","stunted","under5",,,,,,,,1650000
"Central African Republic_MICS4_Datasets","secondary","stunted","urban",,,,,,,,1650000
"Central African Republic_MICS4_Datasets","secondary","under5","urban",25,0,39,0,0,17,0,1650000
"Central African Republic_MICS4_Datasets","stunted","under5","urban",41,100,35,41,35,13,13,725000
