"filename","indicator1","indicator2","indicator3","X","Y","Z","X,Y","Y,Z","X,Z","X,Y,Z","pop"
"cohr71dt","blank1","blank2","ext",100,100,6,100,6,6,6,47343000
"cohr71dt","blank1","blank2","female",100,100,52,100,52,52,52,47343000
"cohr71dt","blank1","blank2","fifteento49",100,100,51,100,51,51,51,47343000
"cohr71dt","blank1","blank2","fiveto14",100,100,17,100,17,17,17,47343000
"cohr71dt","blank1","blank2","gt49",100,100,24,100,24,24,24,47343000
"cohr71dt","blank1","blank2","higher",100,100,25,100,25,25,25,27112000
"cohr71dt","blank1","blank2","male",100,100,48,100,48,48,48,47343000
"cohr71dt","blank1","blank2","no.birth.reg",100,100,3,100,3,3,3,3796000
"cohr71dt","blank1","blank2","no.educ",100,100,24,100,24,24,24,27112000
"cohr71dt","blank1","blank2","no.skilled.attendant",100,100,3,100,3,3,3,13085000
"cohr71dt","blank1","blank2","non.p20",100,100,90,100,90,90,90,47343000
"cohr71dt","blank1","blank2","p20",100,100,10,100,10,10,10,47343000
"cohr71dt","blank1","blank2","primary",100,100,76,100,76,76,76,27112000
"cohr71dt","blank1","blank2","rural",100,100,23,100,23,23,23,47343000
"cohr71dt","blank1","blank2","secondary",100,100,46,100,46,46,46,27112000
"cohr71dt","blank1","blank2","stunted",100,100,,100,,,,3796000
"cohr71dt","blank1","blank2","under5",100,100,7,100,7,7,7,47343000
"cohr71dt","blank1","blank2","urban",100,100,77,100,77,77,77,47343000
"cohr71dt","blank1","ext","female",100,6,52,6,3,52,3,47343000
"cohr71dt","blank1","ext","fifteento49",100,6,51,6,3,51,3,47343000
"cohr71dt","blank1","ext","fiveto14",100,6,17,6,2,17,2,47343000
"cohr71dt","blank1","ext","gt49",100,6,24,6,1,24,1,47343000
"cohr71dt","blank1","ext","higher",100,5,25,5,0,25,0,27112000
"cohr71dt","blank1","ext","male",100,6,48,6,3,48,3,47343000
"cohr71dt","blank1","ext","no.birth.reg",100,10,3,10,1,3,1,3796000
"cohr71dt","blank1","ext","no.educ",100,5,24,5,3,24,3,27112000
"cohr71dt","blank1","ext","no.skilled.attendant",100,9,3,9,2,3,2,13085000
"cohr71dt","blank1","ext","non.p20",100,6,90,6,0,90,0,47343000
"cohr71dt","blank1","ext","p20",100,6,10,6,6,10,6,47343000
"cohr71dt","blank1","ext","primary",100,5,76,5,2,76,2,27112000
"cohr71dt","blank1","ext","rural",100,6,23,6,6,23,6,47343000
"cohr71dt","blank1","ext","secondary",100,5,46,5,0,46,0,27112000
"cohr71dt","blank1","ext","stunted",100,10,,10,0,,0,3796000
"cohr71dt","blank1","ext","under5",100,6,7,6,1,7,1,47343000
"cohr71dt","blank1","ext","urban",100,6,77,6,0,77,0,47343000
"cohr71dt","blank1","female","fifteento49",100,52,51,52,27,51,27,47343000
"cohr71dt","blank1","female","fiveto14",100,52,17,52,8,17,8,47343000
"cohr71dt","blank1","female","gt49",100,52,24,52,13,24,13,47343000
"cohr71dt","blank1","female","higher",100,54,25,54,14,25,14,27112000
"cohr71dt","blank1","female","male",100,52,48,52,0,48,0,47343000
"cohr71dt","blank1","female","no.birth.reg",100,50,3,50,1,3,1,3796000
"cohr71dt","blank1","female","no.educ",100,54,24,54,13,24,13,27112000
"cohr71dt","blank1","female","no.skilled.attendant",100,100,3,100,3,3,3,13085000
"cohr71dt","blank1","female","non.p20",100,52,90,52,48,90,48,47343000
"cohr71dt","blank1","female","p20",100,52,10,52,5,10,5,47343000
"cohr71dt","blank1","female","primary",100,54,76,54,41,76,41,27112000
"cohr71dt","blank1","female","rural",100,52,23,52,11,23,11,47343000
"cohr71dt","blank1","female","secondary",100,54,46,54,25,46,25,27112000
"cohr71dt","blank1","female","stunted",100,50,,50,0,,0,3796000
"cohr71dt","blank1","female","under5",100,52,7,52,4,7,4,47343000
"cohr71dt","blank1","female","urban",100,52,77,52,41,77,41,47343000
"cohr71dt","blank1","fifteento49","fiveto14",100,51,17,51,0,17,0,47343000
"cohr71dt","blank1","fifteento49","gt49",100,51,24,51,0,24,0,47343000
"cohr71dt","blank1","fifteento49","higher",100,58,25,58,19,25,19,27112000
"cohr71dt","blank1","fifteento49","male",100,51,48,51,24,48,24,47343000
"cohr71dt","blank1","fifteento49","no.birth.reg",100,0,3,0,0,3,0,3796000
"cohr71dt","blank1","fifteento49","no.educ",100,58,24,58,8,24,8,27112000
"cohr71dt","blank1","fifteento49","no.skilled.attendant",100,100,3,100,3,3,3,13085000
"cohr71dt","blank1","fifteento49","non.p20",100,51,90,51,47,90,47,47343000
"cohr71dt","blank1","fifteento49","p20",100,51,10,51,4,10,4,47343000
"cohr71dt","blank1","fifteento49","primary",100,58,76,58,50,76,50,27112000
"cohr71dt","blank1","fifteento49","rural",100,51,23,51,11,23,11,47343000
"cohr71dt","blank1","fifteento49","secondary",100,58,46,58,34,46,34,27112000
"cohr71dt","blank1","fifteento49","stunted",100,0,,0,0,,0,3796000
"cohr71dt","blank1","fifteento49","under5",100,51,7,51,0,7,0,47343000
"cohr71dt","blank1","fifteento49","urban",100,51,77,51,40,77,40,47343000
"cohr71dt","blank1","fiveto14","gt49",100,17,24,17,0,24,0,47343000
"cohr71dt","blank1","fiveto14","higher",100,0,25,0,0,25,0,27112000
"cohr71dt","blank1","fiveto14","male",100,17,48,17,9,48,9,47343000
"cohr71dt","blank1","fiveto14","no.birth.reg",100,0,3,0,0,3,0,3796000
"cohr71dt","blank1","fiveto14","no.educ",100,0,24,0,0,24,0,27112000
"cohr71dt","blank1","fiveto14","no.skilled.attendant",100,0,3,0,0,3,0,13085000
"cohr71dt","blank1","fiveto14","non.p20",100,17,90,17,15,90,15,47343000
"cohr71dt","blank1","fiveto14","p20",100,17,10,17,2,10,2,47343000
"cohr71dt","blank1","fiveto14","primary",100,0,76,0,0,76,0,27112000
"cohr71dt","blank1","fiveto14","rural",100,17,23,17,5,23,5,47343000
"cohr71dt","blank1","fiveto14","secondary",100,0,46,0,0,46,0,27112000
"cohr71dt","blank1","fiveto14","stunted",100,0,,0,0,,0,3796000
"cohr71dt","blank1","fiveto14","under5",100,17,7,17,0,7,0,47343000
"cohr71dt","blank1","fiveto14","urban",100,17,77,17,12,77,12,47343000
"cohr71dt","blank1","gt49","higher",100,42,25,42,6,25,6,27112000
"cohr71dt","blank1","gt49","male",100,24,48,24,11,48,11,47343000
"cohr71dt","blank1","gt49","no.birth.reg",100,0,3,0,0,3,0,3796000
"cohr71dt","blank1","gt49","no.educ",100,42,24,42,16,24,16,27112000
"cohr71dt","blank1","gt49","no.skilled.attendant",100,0,3,0,0,3,0,13085000
"cohr71dt","blank1","gt49","non.p20",100,24,90,24,22,90,22,47343000
"cohr71dt","blank1","gt49","p20",100,24,10,24,2,10,2,47343000
"cohr71dt","blank1","gt49","primary",100,42,76,42,26,76,26,27112000
"cohr71dt","blank1","gt49","rural",100,24,23,24,5,23,5,47343000
"cohr71dt","blank1","gt49","secondary",100,42,46,42,12,46,12,27112000
"cohr71dt","blank1","gt49","stunted",100,0,,0,0,,0,3796000
"cohr71dt","blank1","gt49","under5",100,24,7,24,0,7,0,47343000
"cohr71dt","blank1","gt49","urban",100,24,77,24,19,77,19,47343000
"cohr71dt","blank1","higher","male",100,25,46,25,11,46,11,27112000
"cohr71dt","blank1","higher","no.birth.reg",,,,,,,,27112000
"cohr71dt","blank1","higher","no.educ",100,25,24,25,0,24,0,27112000
"cohr71dt","blank1","higher","no.skilled.attendant",100,37,3,37,0,3,0,8971000
"cohr71dt","blank1","higher","non.p20",100,25,91,25,25,91,25,27112000
"cohr71dt","blank1","higher","p20",100,25,9,25,0,9,0,27112000
"cohr71dt","blank1","higher","primary",100,25,76,25,25,76,25,27112000
"cohr71dt","blank1","higher","rural",100,25,22,25,1,22,1,27112000
"cohr71dt","blank1","higher","secondary",100,25,46,25,25,46,25,27112000
"cohr71dt","blank1","higher","stunted",,,,,,,,27112000
"cohr71dt","blank1","higher","under5",100,25,0,25,0,0,0,27112000
"cohr71dt","blank1","higher","urban",100,25,78,25,24,78,24,27112000
"cohr71dt","blank1","male","no.birth.reg",100,50,3,50,2,3,2,3796000
"cohr71dt","blank1","male","no.educ",100,46,24,46,11,24,11,27112000
"cohr71dt","blank1","male","no.skilled.attendant",100,0,3,0,0,3,0,13085000
"cohr71dt","blank1","male","non.p20",100,48,90,48,42,90,42,47343000
"cohr71dt","blank1","male","p20",100,48,10,48,5,10,5,47343000
"cohr71dt","blank1","male","primary",100,46,76,46,34,76,34,27112000
"cohr71dt","blank1","male","rural",100,48,23,48,12,23,12,47343000
"cohr71dt","blank1","male","secondary",100,46,46,46,21,46,21,27112000
"cohr71dt","blank1","male","stunted",100,50,,50,0,,0,3796000
"cohr71dt","blank1","male","under5",100,48,7,48,4,7,4,47343000
"cohr71dt","blank1","male","urban",100,48,77,48,35,77,35,47343000
"cohr71dt","blank1","no.birth.reg","no.educ",,,,,,,,27112000
"cohr71dt","blank1","no.birth.reg","no.skilled.attendant",,,,,,,,3796000
"cohr71dt","blank1","no.birth.reg","non.p20",100,3,86,3,2,86,2,3796000
"cohr71dt","blank1","no.birth.reg","p20",100,3,14,3,1,14,1,3796000
"cohr71dt","blank1","no.birth.reg","primary",,,,,,,,27112000
"cohr71dt","blank1","no.birth.reg","rural",100,3,28,3,1,28,1,3796000
"cohr71dt","blank1","no.birth.reg","secondary",,,,,,,,27112000
"cohr71dt","blank1","no.birth.reg","stunted",100,3,,3,0,,0,3796000
"cohr71dt","blank1","no.birth.reg","under5",100,3,100,3,3,100,3,3796000
"cohr71dt","blank1","no.birth.reg","urban",100,3,72,3,2,72,2,3796000
"cohr71dt","blank1","no.educ","no.skilled.attendant",100,12,3,12,2,3,2,8971000
"cohr71dt","blank1","no.educ","non.p20",100,24,91,24,18,91,18,27112000
"cohr71dt","blank1","no.educ","p20",100,24,9,24,5,9,5,27112000
"cohr71dt","blank1","no.educ","primary",100,24,76,24,0,76,0,27112000
"cohr71dt","blank1","no.educ","rural",100,24,22,24,11,22,11,27112000
"cohr71dt","blank1","no.educ","secondary",100,24,46,24,0,46,0,27112000
"cohr71dt","blank1","no.educ","stunted",,,,,,,,27112000
"cohr71dt","blank1","no.educ","under5",100,24,0,24,0,0,0,27112000
"cohr71dt","blank1","no.educ","urban",100,24,78,24,13,78,13,27112000
"cohr71dt","blank1","no.skilled.attendant","non.p20",100,3,87,3,1,87,1,13085000
"cohr71dt","blank1","no.skilled.attendant","p20",100,3,13,3,2,13,2,13085000
"cohr71dt","blank1","no.skilled.attendant","primary",100,3,88,3,1,88,1,8971000
"cohr71dt","blank1","no.skilled.attendant","rural",100,3,27,3,2,27,2,13085000
"cohr71dt","blank1","no.skilled.attendant","secondary",100,3,64,3,1,64,1,8971000
"cohr71dt","blank1","no.skilled.attendant","stunted",,,,,,,,3796000
"cohr71dt","blank1","no.skilled.attendant","under5",100,3,0,3,0,0,0,13085000
"cohr71dt","blank1","no.skilled.attendant","urban",100,3,73,3,1,73,1,13085000
"cohr71dt","blank1","non.p20","p20",100,90,10,90,0,10,0,47343000
"cohr71dt","blank1","non.p20","primary",100,91,76,91,73,76,73,27112000
"cohr71dt","blank1","non.p20","rural",100,90,23,90,14,23,14,47343000
"cohr71dt","blank1","non.p20","secondary",100,91,46,91,46,46,46,27112000
"cohr71dt","blank1","non.p20","stunted",100,86,,86,0,,0,3796000
"cohr71dt","blank1","non.p20","under5",100,90,7,90,6,7,6,47343000
"cohr71dt","blank1","non.p20","urban",100,90,77,90,76,77,76,47343000
"cohr71dt","blank1","p20","primary",100,9,76,9,3,76,3,27112000
"cohr71dt","blank1","p20","rural",100,10,23,10,10,23,10,47343000
"cohr71dt","blank1","p20","secondary",100,9,46,9,1,46,1,27112000
"cohr71dt","blank1","p20","stunted",100,14,,14,0,,0,3796000
"cohr71dt","blank1","p20","under5",100,10,7,10,1,7,1,47343000
"cohr71dt","blank1","p20","urban",100,10,77,10,0,77,0,47343000
"cohr71dt","blank1","primary","rural",100,76,22,76,11,22,11,27112000
"cohr71dt","blank1","primary","secondary",100,76,46,76,46,46,46,27112000
"cohr71dt","blank1","primary","stunted",,,,,,,,27112000
"cohr71dt","blank1","primary","under5",100,76,0,76,0,0,0,27112000
"cohr71dt","blank1","primary","urban",100,76,78,76,65,78,65,27112000
"cohr71dt","blank1","rural","secondary",100,22,46,22,4,46,4,27112000
"cohr71dt","blank1","rural","stunted",100,28,,28,0,,0,3796000
"cohr71dt","blank1","rural","under5",100,23,7,23,2,7,2,47343000
"cohr71dt","blank1","rural","urban",100,23,77,23,0,77,0,47343000
"cohr71dt","blank1","secondary","stunted",,,,,,,,27112000
"cohr71dt","blank1","secondary","under5",100,46,0,46,0,0,0,27112000
"cohr71dt","blank1","secondary","urban",100,46,78,46,42,78,42,27112000
"cohr71dt","blank1","stunted","under5",100,,100,,,100,,3796000
"cohr71dt","blank1","stunted","urban",100,,72,,0,72,0,3796000
"cohr71dt","blank1","under5","urban",100,7,77,7,5,77,5,47343000
"cohr71dt","blank2","ext","female",100,6,52,6,3,52,3,47343000
"cohr71dt","blank2","ext","fifteento49",100,6,51,6,3,51,3,47343000
"cohr71dt","blank2","ext","fiveto14",100,6,17,6,2,17,2,47343000
"cohr71dt","blank2","ext","gt49",100,6,24,6,1,24,1,47343000
"cohr71dt","blank2","ext","higher",100,5,25,5,0,25,0,27112000
"cohr71dt","blank2","ext","male",100,6,48,6,3,48,3,47343000
"cohr71dt","blank2","ext","no.birth.reg",100,10,3,10,1,3,1,3796000
"cohr71dt","blank2","ext","no.educ",100,5,24,5,3,24,3,27112000
"cohr71dt","blank2","ext","no.skilled.attendant",100,9,3,9,2,3,2,13085000
"cohr71dt","blank2","ext","non.p20",100,6,90,6,0,90,0,47343000
"cohr71dt","blank2","ext","p20",100,6,10,6,6,10,6,47343000
"cohr71dt","blank2","ext","primary",100,5,76,5,2,76,2,27112000
"cohr71dt","blank2","ext","rural",100,6,23,6,6,23,6,47343000
"cohr71dt","blank2","ext","secondary",100,5,46,5,0,46,0,27112000
"cohr71dt","blank2","ext","stunted",100,10,,10,0,,0,3796000
"cohr71dt","blank2","ext","under5",100,6,7,6,1,7,1,47343000
"cohr71dt","blank2","ext","urban",100,6,77,6,0,77,0,47343000
"cohr71dt","blank2","female","fifteento49",100,52,51,52,27,51,27,47343000
"cohr71dt","blank2","female","fiveto14",100,52,17,52,8,17,8,47343000
"cohr71dt","blank2","female","gt49",100,52,24,52,13,24,13,47343000
"cohr71dt","blank2","female","higher",100,54,25,54,14,25,14,27112000
"cohr71dt","blank2","female","male",100,52,48,52,0,48,0,47343000
"cohr71dt","blank2","female","no.birth.reg",100,50,3,50,1,3,1,3796000
"cohr71dt","blank2","female","no.educ",100,54,24,54,13,24,13,27112000
"cohr71dt","blank2","female","no.skilled.attendant",100,100,3,100,3,3,3,13085000
"cohr71dt","blank2","female","non.p20",100,52,90,52,48,90,48,47343000
"cohr71dt","blank2","female","p20",100,52,10,52,5,10,5,47343000
"cohr71dt","blank2","female","primary",100,54,76,54,41,76,41,27112000
"cohr71dt","blank2","female","rural",100,52,23,52,11,23,11,47343000
"cohr71dt","blank2","female","secondary",100,54,46,54,25,46,25,27112000
"cohr71dt","blank2","female","stunted",100,50,,50,0,,0,3796000
"cohr71dt","blank2","female","under5",100,52,7,52,4,7,4,47343000
"cohr71dt","blank2","female","urban",100,52,77,52,41,77,41,47343000
"cohr71dt","blank2","fifteento49","fiveto14",100,51,17,51,0,17,0,47343000
"cohr71dt","blank2","fifteento49","gt49",100,51,24,51,0,24,0,47343000
"cohr71dt","blank2","fifteento49","higher",100,58,25,58,19,25,19,27112000
"cohr71dt","blank2","fifteento49","male",100,51,48,51,24,48,24,47343000
"cohr71dt","blank2","fifteento49","no.birth.reg",100,0,3,0,0,3,0,3796000
"cohr71dt","blank2","fifteento49","no.educ",100,58,24,58,8,24,8,27112000
"cohr71dt","blank2","fifteento49","no.skilled.attendant",100,100,3,100,3,3,3,13085000
"cohr71dt","blank2","fifteento49","non.p20",100,51,90,51,47,90,47,47343000
"cohr71dt","blank2","fifteento49","p20",100,51,10,51,4,10,4,47343000
"cohr71dt","blank2","fifteento49","primary",100,58,76,58,50,76,50,27112000
"cohr71dt","blank2","fifteento49","rural",100,51,23,51,11,23,11,47343000
"cohr71dt","blank2","fifteento49","secondary",100,58,46,58,34,46,34,27112000
"cohr71dt","blank2","fifteento49","stunted",100,0,,0,0,,0,3796000
"cohr71dt","blank2","fifteento49","under5",100,51,7,51,0,7,0,47343000
"cohr71dt","blank2","fifteento49","urban",100,51,77,51,40,77,40,47343000
"cohr71dt","blank2","fiveto14","gt49",100,17,24,17,0,24,0,47343000
"cohr71dt","blank2","fiveto14","higher",100,0,25,0,0,25,0,27112000
"cohr71dt","blank2","fiveto14","male",100,17,48,17,9,48,9,47343000
"cohr71dt","blank2","fiveto14","no.birth.reg",100,0,3,0,0,3,0,3796000
"cohr71dt","blank2","fiveto14","no.educ",100,0,24,0,0,24,0,27112000
"cohr71dt","blank2","fiveto14","no.skilled.attendant",100,0,3,0,0,3,0,13085000
"cohr71dt","blank2","fiveto14","non.p20",100,17,90,17,15,90,15,47343000
"cohr71dt","blank2","fiveto14","p20",100,17,10,17,2,10,2,47343000
"cohr71dt","blank2","fiveto14","primary",100,0,76,0,0,76,0,27112000
"cohr71dt","blank2","fiveto14","rural",100,17,23,17,5,23,5,47343000
"cohr71dt","blank2","fiveto14","secondary",100,0,46,0,0,46,0,27112000
"cohr71dt","blank2","fiveto14","stunted",100,0,,0,0,,0,3796000
"cohr71dt","blank2","fiveto14","under5",100,17,7,17,0,7,0,47343000
"cohr71dt","blank2","fiveto14","urban",100,17,77,17,12,77,12,47343000
"cohr71dt","blank2","gt49","higher",100,42,25,42,6,25,6,27112000
"cohr71dt","blank2","gt49","male",100,24,48,24,11,48,11,47343000
"cohr71dt","blank2","gt49","no.birth.reg",100,0,3,0,0,3,0,3796000
"cohr71dt","blank2","gt49","no.educ",100,42,24,42,16,24,16,27112000
"cohr71dt","blank2","gt49","no.skilled.attendant",100,0,3,0,0,3,0,13085000
"cohr71dt","blank2","gt49","non.p20",100,24,90,24,22,90,22,47343000
"cohr71dt","blank2","gt49","p20",100,24,10,24,2,10,2,47343000
"cohr71dt","blank2","gt49","primary",100,42,76,42,26,76,26,27112000
"cohr71dt","blank2","gt49","rural",100,24,23,24,5,23,5,47343000
"cohr71dt","blank2","gt49","secondary",100,42,46,42,12,46,12,27112000
"cohr71dt","blank2","gt49","stunted",100,0,,0,0,,0,3796000
"cohr71dt","blank2","gt49","under5",100,24,7,24,0,7,0,47343000
"cohr71dt","blank2","gt49","urban",100,24,77,24,19,77,19,47343000
"cohr71dt","blank2","higher","male",100,25,46,25,11,46,11,27112000
"cohr71dt","blank2","higher","no.birth.reg",,,,,,,,27112000
"cohr71dt","blank2","higher","no.educ",100,25,24,25,0,24,0,27112000
"cohr71dt","blank2","higher","no.skilled.attendant",100,37,3,37,0,3,0,8971000
"cohr71dt","blank2","higher","non.p20",100,25,91,25,25,91,25,27112000
"cohr71dt","blank2","higher","p20",100,25,9,25,0,9,0,27112000
"cohr71dt","blank2","higher","primary",100,25,76,25,25,76,25,27112000
"cohr71dt","blank2","higher","rural",100,25,22,25,1,22,1,27112000
"cohr71dt","blank2","higher","secondary",100,25,46,25,25,46,25,27112000
"cohr71dt","blank2","higher","stunted",,,,,,,,27112000
"cohr71dt","blank2","higher","under5",100,25,0,25,0,0,0,27112000
"cohr71dt","blank2","higher","urban",100,25,78,25,24,78,24,27112000
"cohr71dt","blank2","male","no.birth.reg",100,50,3,50,2,3,2,3796000
"cohr71dt","blank2","male","no.educ",100,46,24,46,11,24,11,27112000
"cohr71dt","blank2","male","no.skilled.attendant",100,0,3,0,0,3,0,13085000
"cohr71dt","blank2","male","non.p20",100,48,90,48,42,90,42,47343000
"cohr71dt","blank2","male","p20",100,48,10,48,5,10,5,47343000
"cohr71dt","blank2","male","primary",100,46,76,46,34,76,34,27112000
"cohr71dt","blank2","male","rural",100,48,23,48,12,23,12,47343000
"cohr71dt","blank2","male","secondary",100,46,46,46,21,46,21,27112000
"cohr71dt","blank2","male","stunted",100,50,,50,0,,0,3796000
"cohr71dt","blank2","male","under5",100,48,7,48,4,7,4,47343000
"cohr71dt","blank2","male","urban",100,48,77,48,35,77,35,47343000
"cohr71dt","blank2","no.birth.reg","no.educ",,,,,,,,27112000
"cohr71dt","blank2","no.birth.reg","no.skilled.attendant",,,,,,,,3796000
"cohr71dt","blank2","no.birth.reg","non.p20",100,3,86,3,2,86,2,3796000
"cohr71dt","blank2","no.birth.reg","p20",100,3,14,3,1,14,1,3796000
"cohr71dt","blank2","no.birth.reg","primary",,,,,,,,27112000
"cohr71dt","blank2","no.birth.reg","rural",100,3,28,3,1,28,1,3796000
"cohr71dt","blank2","no.birth.reg","secondary",,,,,,,,27112000
"cohr71dt","blank2","no.birth.reg","stunted",100,3,,3,0,,0,3796000
"cohr71dt","blank2","no.birth.reg","under5",100,3,100,3,3,100,3,3796000
"cohr71dt","blank2","no.birth.reg","urban",100,3,72,3,2,72,2,3796000
"cohr71dt","blank2","no.educ","no.skilled.attendant",100,12,3,12,2,3,2,8971000
"cohr71dt","blank2","no.educ","non.p20",100,24,91,24,18,91,18,27112000
"cohr71dt","blank2","no.educ","p20",100,24,9,24,5,9,5,27112000
"cohr71dt","blank2","no.educ","primary",100,24,76,24,0,76,0,27112000
"cohr71dt","blank2","no.educ","rural",100,24,22,24,11,22,11,27112000
"cohr71dt","blank2","no.educ","secondary",100,24,46,24,0,46,0,27112000
"cohr71dt","blank2","no.educ","stunted",,,,,,,,27112000
"cohr71dt","blank2","no.educ","under5",100,24,0,24,0,0,0,27112000
"cohr71dt","blank2","no.educ","urban",100,24,78,24,13,78,13,27112000
"cohr71dt","blank2","no.skilled.attendant","non.p20",100,3,87,3,1,87,1,13085000
"cohr71dt","blank2","no.skilled.attendant","p20",100,3,13,3,2,13,2,13085000
"cohr71dt","blank2","no.skilled.attendant","primary",100,3,88,3,1,88,1,8971000
"cohr71dt","blank2","no.skilled.attendant","rural",100,3,27,3,2,27,2,13085000
"cohr71dt","blank2","no.skilled.attendant","secondary",100,3,64,3,1,64,1,8971000
"cohr71dt","blank2","no.skilled.attendant","stunted",,,,,,,,3796000
"cohr71dt","blank2","no.skilled.attendant","under5",100,3,0,3,0,0,0,13085000
"cohr71dt","blank2","no.skilled.attendant","urban",100,3,73,3,1,73,1,13085000
"cohr71dt","blank2","non.p20","p20",100,90,10,90,0,10,0,47343000
"cohr71dt","blank2","non.p20","primary",100,91,76,91,73,76,73,27112000
"cohr71dt","blank2","non.p20","rural",100,90,23,90,14,23,14,47343000
"cohr71dt","blank2","non.p20","secondary",100,91,46,91,46,46,46,27112000
"cohr71dt","blank2","non.p20","stunted",100,86,,86,0,,0,3796000
"cohr71dt","blank2","non.p20","under5",100,90,7,90,6,7,6,47343000
"cohr71dt","blank2","non.p20","urban",100,90,77,90,76,77,76,47343000
"cohr71dt","blank2","p20","primary",100,9,76,9,3,76,3,27112000
"cohr71dt","blank2","p20","rural",100,10,23,10,10,23,10,47343000
"cohr71dt","blank2","p20","secondary",100,9,46,9,1,46,1,27112000
"cohr71dt","blank2","p20","stunted",100,14,,14,0,,0,3796000
"cohr71dt","blank2","p20","under5",100,10,7,10,1,7,1,47343000
"cohr71dt","blank2","p20","urban",100,10,77,10,0,77,0,47343000
"cohr71dt","blank2","primary","rural",100,76,22,76,11,22,11,27112000
"cohr71dt","blank2","primary","secondary",100,76,46,76,46,46,46,27112000
"cohr71dt","blank2","primary","stunted",,,,,,,,27112000
"cohr71dt","blank2","primary","under5",100,76,0,76,0,0,0,27112000
"cohr71dt","blank2","primary","urban",100,76,78,76,65,78,65,27112000
"cohr71dt","blank2","rural","secondary",100,22,46,22,4,46,4,27112000
"cohr71dt","blank2","rural","stunted",100,28,,28,0,,0,3796000
"cohr71dt","blank2","rural","under5",100,23,7,23,2,7,2,47343000
"cohr71dt","blank2","rural","urban",100,23,77,23,0,77,0,47343000
"cohr71dt","blank2","secondary","stunted",,,,,,,,27112000
"cohr71dt","blank2","secondary","under5",100,46,0,46,0,0,0,27112000
"cohr71dt","blank2","secondary","urban",100,46,78,46,42,78,42,27112000
"cohr71dt","blank2","stunted","under5",100,,100,,,100,,3796000
"cohr71dt","blank2","stunted","urban",100,,72,,0,72,0,3796000
"cohr71dt","blank2","under5","urban",100,7,77,7,5,77,5,47343000
"cohr71dt","ext","female","fifteento49",6,52,51,3,27,3,1,47343000
"cohr71dt","ext","female","fiveto14",6,52,17,3,8,2,1,47343000
"cohr71dt","ext","female","gt49",6,52,24,3,13,1,0,47343000
"cohr71dt","ext","female","higher",5,54,25,2,14,0,0,27112000
"cohr71dt","ext","female","male",6,52,48,3,0,3,0,47343000
"cohr71dt","ext","female","no.birth.reg",10,50,3,5,1,1,0,3796000
"cohr71dt","ext","female","no.educ",5,54,24,2,13,3,2,27112000
"cohr71dt","ext","female","no.skilled.attendant",9,100,3,9,3,2,2,13085000
"cohr71dt","ext","female","non.p20",6,52,90,3,48,0,0,47343000
"cohr71dt","ext","female","p20",6,52,10,3,5,6,3,47343000
"cohr71dt","ext","female","primary",5,54,76,2,41,2,1,27112000
"cohr71dt","ext","female","rural",6,52,23,3,11,6,3,47343000
"cohr71dt","ext","female","secondary",5,54,46,2,25,0,0,27112000
"cohr71dt","ext","female","stunted",10,50,,5,0,0,0,3796000
"cohr71dt","ext","female","under5",6,52,7,3,4,1,0,47343000
"cohr71dt","ext","female","urban",6,52,77,3,41,0,0,47343000
"cohr71dt","ext","fifteento49","fiveto14",6,51,17,3,0,2,0,47343000
"cohr71dt","ext","fifteento49","gt49",6,51,24,3,0,1,0,47343000
"cohr71dt","ext","fifteento49","higher",5,58,25,3,19,0,0,27112000
"cohr71dt","ext","fifteento49","male",6,51,48,3,24,3,1,47343000
"cohr71dt","ext","fifteento49","no.birth.reg",10,0,3,0,0,1,0,3796000
"cohr71dt","ext","fifteento49","no.educ",5,58,24,3,8,3,2,27112000
"cohr71dt","ext","fifteento49","no.skilled.attendant",9,100,3,9,3,2,2,13085000
"cohr71dt","ext","fifteento49","non.p20",6,51,90,3,47,0,0,47343000
"cohr71dt","ext","fifteento49","p20",6,51,10,3,4,6,3,47343000
"cohr71dt","ext","fifteento49","primary",5,58,76,3,50,2,1,27112000
"cohr71dt","ext","fifteento49","rural",6,51,23,3,11,6,3,47343000
"cohr71dt","ext","fifteento49","secondary",5,58,46,3,34,0,0,27112000
"cohr71dt","ext","fifteento49","stunted",10,0,,0,0,0,0,3796000
"cohr71dt","ext","fifteento49","under5",6,51,7,3,0,1,0,47343000
"cohr71dt","ext","fifteento49","urban",6,51,77,3,40,0,0,47343000
"cohr71dt","ext","fiveto14","gt49",6,17,24,2,0,1,0,47343000
"cohr71dt","ext","fiveto14","higher",5,0,25,0,0,0,0,27112000
"cohr71dt","ext","fiveto14","male",6,17,48,2,9,3,1,47343000
"cohr71dt","ext","fiveto14","no.birth.reg",10,0,3,0,0,1,0,3796000
"cohr71dt","ext","fiveto14","no.educ",5,0,24,0,0,3,0,27112000
"cohr71dt","ext","fiveto14","no.skilled.attendant",9,0,3,0,0,2,0,13085000
"cohr71dt","ext","fiveto14","non.p20",6,17,90,2,15,0,0,47343000
"cohr71dt","ext","fiveto14","p20",6,17,10,2,2,6,2,47343000
"cohr71dt","ext","fiveto14","primary",5,0,76,0,0,2,0,27112000
"cohr71dt","ext","fiveto14","rural",6,17,23,2,5,6,2,47343000
"cohr71dt","ext","fiveto14","secondary",5,0,46,0,0,0,0,27112000
"cohr71dt","ext","fiveto14","stunted",10,0,,0,0,0,0,3796000
"cohr71dt","ext","fiveto14","under5",6,17,7,2,0,1,0,47343000
"cohr71dt","ext","fiveto14","urban",6,17,77,2,12,0,0,47343000
"cohr71dt","ext","gt49","higher",5,42,25,2,6,0,0,27112000
"cohr71dt","ext","gt49","male",6,24,48,1,11,3,1,47343000
"cohr71dt","ext","gt49","no.birth.reg",10,0,3,0,0,1,0,3796000
"cohr71dt","ext","gt49","no.educ",5,42,24,2,16,3,2,27112000
"cohr71dt","ext","gt49","no.skilled.attendant",9,0,3,0,0,2,0,13085000
"cohr71dt","ext","gt49","non.p20",6,24,90,1,22,0,0,47343000
"cohr71dt","ext","gt49","p20",6,24,10,1,2,6,1,47343000
"cohr71dt","ext","gt49","primary",5,42,76,2,26,2,0,27112000
"cohr71dt","ext","gt49","rural",6,24,23,1,5,6,1,47343000
"cohr71dt","ext","gt49","secondary",5,42,46,2,12,0,0,27112000
"cohr71dt","ext","gt49","stunted",10,0,,0,0,0,0,3796000
"cohr71dt","ext","gt49","under5",6,24,7,1,0,1,0,47343000
"cohr71dt","ext","gt49","urban",6,24,77,1,19,0,0,47343000
"cohr71dt","ext","higher","male",5,25,46,0,11,3,0,27112000
"cohr71dt","ext","higher","no.birth.reg",,,,,,,,27112000
"cohr71dt","ext","higher","no.educ",5,25,24,0,0,3,0,27112000
"cohr71dt","ext","higher","no.skilled.attendant",8,37,3,0,0,2,0,8971000
"cohr71dt","ext","higher","non.p20",5,25,91,0,25,0,0,27112000
"cohr71dt","ext","higher","p20",5,25,9,0,0,5,0,27112000
"cohr71dt","ext","higher","primary",5,25,76,0,25,2,0,27112000
"cohr71dt","ext","higher","rural",5,25,22,0,1,5,0,27112000
"cohr71dt","ext","higher","secondary",5,25,46,0,25,0,0,27112000
"cohr71dt","ext","higher","stunted",,,,,,,,27112000
"cohr71dt","ext","higher","under5",5,25,0,0,0,0,0,27112000
"cohr71dt","ext","higher","urban",5,25,78,0,24,0,0,27112000
"cohr71dt","ext","male","no.birth.reg",10,50,3,5,2,1,0,3796000
"cohr71dt","ext","male","no.educ",5,46,24,3,11,3,2,27112000
"cohr71dt","ext","male","no.skilled.attendant",9,0,3,0,0,2,0,13085000
"cohr71dt","ext","male","non.p20",6,48,90,3,42,0,0,47343000
"cohr71dt","ext","male","p20",6,48,10,3,5,6,3,47343000
"cohr71dt","ext","male","primary",5,46,76,3,34,2,1,27112000
"cohr71dt","ext","male","rural",6,48,23,3,12,6,3,47343000
"cohr71dt","ext","male","secondary",5,46,46,3,21,0,0,27112000
"cohr71dt","ext","male","stunted",10,50,,5,0,0,0,3796000
"cohr71dt","ext","male","under5",6,48,7,3,4,1,0,47343000
"cohr71dt","ext","male","urban",6,48,77,3,35,0,0,47343000
"cohr71dt","ext","no.birth.reg","no.educ",,,,,,,,27112000
"cohr71dt","ext","no.birth.reg","no.skilled.attendant",,,,,,,,3796000
"cohr71dt","ext","no.birth.reg","non.p20",10,3,86,1,2,0,0,3796000
"cohr71dt","ext","no.birth.reg","p20",10,3,14,1,1,10,1,3796000
"cohr71dt","ext","no.birth.reg","primary",,,,,,,,27112000
"cohr71dt","ext","no.birth.reg","rural",10,3,28,1,1,10,1,3796000
"cohr71dt","ext","no.birth.reg","secondary",,,,,,,,27112000
"cohr71dt","ext","no.birth.reg","stunted",10,3,,1,0,0,0,3796000
"cohr71dt","ext","no.birth.reg","under5",10,3,100,1,3,10,1,3796000
"cohr71dt","ext","no.birth.reg","urban",10,3,72,1,2,0,0,3796000
"cohr71dt","ext","no.educ","no.skilled.attendant",8,12,3,4,2,2,1,8971000
"cohr71dt","ext","no.educ","non.p20",5,24,91,3,18,0,0,27112000
"cohr71dt","ext","no.educ","p20",5,24,9,3,5,5,3,27112000
"cohr71dt","ext","no.educ","primary",5,24,76,3,0,2,0,27112000
"cohr71dt","ext","no.educ","rural",5,24,22,3,11,5,3,27112000
"cohr71dt","ext","no.educ","secondary",5,24,46,3,0,0,0,27112000
"cohr71dt","ext","no.educ","stunted",,,,,,,,27112000
"cohr71dt","ext","no.educ","under5",5,24,0,3,0,0,0,27112000
"cohr71dt","ext","no.educ","urban",5,24,78,3,13,0,0,27112000
"cohr71dt","ext","no.skilled.attendant","non.p20",9,3,87,2,1,0,0,13085000
"cohr71dt","ext","no.skilled.attendant","p20",9,3,13,2,2,9,2,13085000
"cohr71dt","ext","no.skilled.attendant","primary",8,3,88,2,1,4,0,8971000
"cohr71dt","ext","no.skilled.attendant","rural",9,3,27,2,2,9,2,13085000
"cohr71dt","ext","no.skilled.attendant","secondary",8,3,64,2,1,1,0,8971000
"cohr71dt","ext","no.skilled.attendant","stunted",,,,,,,,3796000
"cohr71dt","ext","no.skilled.attendant","under5",9,3,0,2,0,0,0,13085000
"cohr71dt","ext","no.skilled.attendant","urban",9,3,73,2,1,0,0,13085000
"cohr71dt","ext","non.p20","p20",6,90,10,0,0,6,0,47343000
"cohr71dt","ext","non.p20","primary",5,91,76,0,73,2,0,27112000
"cohr71dt","ext","non.p20","rural",6,90,23,0,14,6,0,47343000
"cohr71dt","ext","non.p20","secondary",5,91,46,0,46,0,0,27112000
"cohr71dt","ext","non.p20","stunted",10,86,,0,0,0,0,3796000
"cohr71dt","ext","non.p20","under5",6,90,7,0,6,1,0,47343000
"cohr71dt","ext","non.p20","urban",6,90,77,0,76,0,0,47343000
"cohr71dt","ext","p20","primary",5,9,76,5,3,2,2,27112000
"cohr71dt","ext","p20","rural",6,10,23,6,10,6,6,47343000
"cohr71dt","ext","p20","secondary",5,9,46,5,1,0,0,27112000
"cohr71dt","ext","p20","stunted",10,14,,10,0,0,0,3796000
"cohr71dt","ext","p20","under5",6,10,7,6,1,1,1,47343000
"cohr71dt","ext","p20","urban",6,10,77,6,0,0,0,47343000
"cohr71dt","ext","primary","rural",5,76,22,2,11,5,1,27112000
"cohr71dt","ext","primary","secondary",5,76,46,2,46,0,0,27112000
"cohr71dt","ext","primary","stunted",,,,,,,,27112000
"cohr71dt","ext","primary","under5",5,76,0,2,0,0,0,27112000
"cohr71dt","ext","primary","urban",5,76,78,2,65,0,0,27112000
"cohr71dt","ext","rural","secondary",5,22,46,5,4,0,0,27112000
"cohr71dt","ext","rural","stunted",10,28,,10,0,0,0,3796000
"cohr71dt","ext","rural","under5",6,23,7,6,2,1,1,47343000
"cohr71dt","ext","rural","urban",6,23,77,6,0,0,0,47343000
"cohr71dt","ext","secondary","stunted",,,,,,,,27112000
"cohr71dt","ext","secondary","under5",5,46,0,0,0,0,0,27112000
"cohr71dt","ext","secondary","urban",5,46,78,0,42,0,0,27112000
"cohr71dt","ext","stunted","under5",10,,100,0,,10,0,3796000
"cohr71dt","ext","stunted","urban",10,,72,0,0,0,0,3796000
"cohr71dt","ext","under5","urban",6,7,77,1,5,0,0,47343000
"cohr71dt","female","fifteento49","fiveto14",52,51,17,27,0,8,0,47343000
"cohr71dt","female","fifteento49","gt49",52,51,24,27,0,13,0,47343000
"cohr71dt","female","fifteento49","higher",54,58,25,31,19,14,11,27112000
"cohr71dt","female","fifteento49","male",52,51,48,27,24,0,0,47343000
"cohr71dt","female","fifteento49","no.birth.reg",50,0,3,0,0,1,0,3796000
"cohr71dt","female","fifteento49","no.educ",54,58,24,31,8,13,4,27112000
"cohr71dt","female","fifteento49","no.skilled.attendant",100,100,3,100,3,3,3,13085000
"cohr71dt","female","fifteento49","non.p20",52,51,90,27,47,48,25,47343000
"cohr71dt","female","fifteento49","p20",52,51,10,27,4,5,2,47343000
"cohr71dt","female","fifteento49","primary",54,58,76,31,50,41,27,27112000
"cohr71dt","female","fifteento49","rural",52,51,23,27,11,11,5,47343000
"cohr71dt","female","fifteento49","secondary",54,58,46,31,34,25,19,27112000
"cohr71dt","female","fifteento49","stunted",50,0,,0,0,0,0,3796000
"cohr71dt","female","fifteento49","under5",52,51,7,27,0,4,0,47343000
"cohr71dt","female","fifteento49","urban",52,51,77,27,40,41,21,47343000
"cohr71dt","female","fiveto14","gt49",52,17,24,8,0,13,0,47343000
"cohr71dt","female","fiveto14","higher",54,0,25,0,0,14,0,27112000
"cohr71dt","female","fiveto14","male",52,17,48,8,9,0,0,47343000
"cohr71dt","female","fiveto14","no.birth.reg",50,0,3,0,0,1,0,3796000
"cohr71dt","female","fiveto14","no.educ",54,0,24,0,0,13,0,27112000
"cohr71dt","female","fiveto14","no.skilled.attendant",100,0,3,0,0,3,0,13085000
"cohr71dt","female","fiveto14","non.p20",52,17,90,8,15,48,7,47343000
"cohr71dt","female","fiveto14","p20",52,17,10,8,2,5,1,47343000
"cohr71dt","female","fiveto14","primary",54,0,76,0,0,41,0,27112000
"cohr71dt","female","fiveto14","rural",52,17,23,8,5,11,2,47343000
"cohr71dt","female","fiveto14","secondary",54,0,46,0,0,25,0,27112000
"cohr71dt","female","fiveto14","stunted",50,0,,0,0,0,0,3796000
"cohr71dt","female","fiveto14","under5",52,17,7,8,0,4,0,47343000
"cohr71dt","female","fiveto14","urban",52,17,77,8,12,41,6,47343000
"cohr71dt","female","gt49","higher",54,42,25,23,6,14,3,27112000
"cohr71dt","female","gt49","male",52,24,48,13,11,0,0,47343000
"cohr71dt","female","gt49","no.birth.reg",50,0,3,0,0,1,0,3796000
"cohr71dt","female","gt49","no.educ",54,42,24,23,16,13,9,27112000
"cohr71dt","female","gt49","no.skilled.attendant",100,0,3,0,0,3,0,13085000
"cohr71dt","female","gt49","non.p20",52,24,90,13,22,48,12,47343000
"cohr71dt","female","gt49","p20",52,24,10,13,2,5,1,47343000
"cohr71dt","female","gt49","primary",54,42,76,23,26,41,14,27112000
"cohr71dt","female","gt49","rural",52,24,23,13,5,11,3,47343000
"cohr71dt","female","gt49","secondary",54,42,46,23,12,25,6,27112000
"cohr71dt","female","gt49","stunted",50,0,,0,0,0,0,3796000
"cohr71dt","female","gt49","under5",52,24,7,13,0,4,0,47343000
"cohr71dt","female","gt49","urban",52,24,77,13,19,41,11,47343000
"cohr71dt","female","higher","male",54,25,46,14,11,0,0,27112000
"cohr71dt","female","higher","no.birth.reg",,,,,,,,27112000
"cohr71dt","female","higher","no.educ",54,25,24,14,0,13,0,27112000
"cohr71dt","female","higher","no.skilled.attendant",100,37,3,37,0,3,0,8971000
"cohr71dt","female","higher","non.p20",54,25,91,14,25,50,14,27112000
"cohr71dt","female","higher","p20",54,25,9,14,0,4,0,27112000
"cohr71dt","female","higher","primary",54,25,76,14,25,41,14,27112000
"cohr71dt","female","higher","rural",54,25,22,14,1,11,1,27112000
"cohr71dt","female","higher","secondary",54,25,46,14,25,25,14,27112000
"cohr71dt","female","higher","stunted",,,,,,,,27112000
"cohr71dt","female","higher","under5",54,25,0,14,0,0,0,27112000
"cohr71dt","female","higher","urban",54,25,78,14,24,44,13,27112000
"cohr71dt","female","male","no.birth.reg",50,50,3,0,2,1,0,3796000
"cohr71dt","female","male","no.educ",54,46,24,0,11,13,0,27112000
"cohr71dt","female","male","no.skilled.attendant",100,0,3,0,0,3,0,13085000
"cohr71dt","female","male","non.p20",52,48,90,0,42,48,0,47343000
"cohr71dt","female","male","p20",52,48,10,0,5,5,0,47343000
"cohr71dt","female","male","primary",54,46,76,0,34,41,0,27112000
"cohr71dt","female","male","rural",52,48,23,0,12,11,0,47343000
"cohr71dt","female","male","secondary",54,46,46,0,21,25,0,27112000
"cohr71dt","female","male","stunted",50,50,,0,0,0,0,3796000
"cohr71dt","female","male","under5",52,48,7,0,4,4,0,47343000
"cohr71dt","female","male","urban",52,48,77,0,35,41,0,47343000
"cohr71dt","female","no.birth.reg","no.educ",,,,,,,,27112000
"cohr71dt","female","no.birth.reg","no.skilled.attendant",,,,,,,,3796000
"cohr71dt","female","no.birth.reg","non.p20",50,3,86,1,2,43,1,3796000
"cohr71dt","female","no.birth.reg","p20",50,3,14,1,1,7,0,3796000
"cohr71dt","female","no.birth.reg","primary",,,,,,,,27112000
"cohr71dt","female","no.birth.reg","rural",50,3,28,1,1,14,1,3796000
"cohr71dt","female","no.birth.reg","secondary",,,,,,,,27112000
"cohr71dt","female","no.birth.reg","stunted",50,3,,1,0,0,0,3796000
"cohr71dt","female","no.birth.reg","under5",50,3,100,1,3,50,1,3796000
"cohr71dt","female","no.birth.reg","urban",50,3,72,1,2,36,1,3796000
"cohr71dt","female","no.educ","no.skilled.attendant",100,12,3,12,2,3,2,8971000
"cohr71dt","female","no.educ","non.p20",54,24,91,13,18,50,10,27112000
"cohr71dt","female","no.educ","p20",54,24,9,13,5,4,3,27112000
"cohr71dt","female","no.educ","primary",54,24,76,13,0,41,0,27112000
"cohr71dt","female","no.educ","rural",54,24,22,13,11,11,5,27112000
"cohr71dt","female","no.educ","secondary",54,24,46,13,0,25,0,27112000
"cohr71dt","female","no.educ","stunted",,,,,,,,27112000
"cohr71dt","female","no.educ","under5",54,24,0,13,0,0,0,27112000
"cohr71dt","female","no.educ","urban",54,24,78,13,13,44,7,27112000
"cohr71dt","female","no.skilled.attendant","non.p20",100,3,87,3,1,87,1,13085000
"cohr71dt","female","no.skilled.attendant","p20",100,3,13,3,2,13,2,13085000
"cohr71dt","female","no.skilled.attendant","primary",100,3,88,3,1,88,1,8971000
"cohr71dt","female","no.skilled.attendant","rural",100,3,27,3,2,27,2,13085000
"cohr71dt","female","no.skilled.attendant","secondary",100,3,64,3,1,64,1,8971000
"cohr71dt","female","no.skilled.attendant","stunted",,,,,,,,3796000
"cohr71dt","female","no.skilled.attendant","under5",100,3,0,3,0,0,0,13085000
"cohr71dt","female","no.skilled.attendant","urban",100,3,73,3,1,73,1,13085000
"cohr71dt","female","non.p20","p20",52,90,10,48,0,5,0,47343000
"cohr71dt","female","non.p20","primary",54,91,76,50,73,41,40,27112000
"cohr71dt","female","non.p20","rural",52,90,23,48,14,11,7,47343000
"cohr71dt","female","non.p20","secondary",54,91,46,50,46,25,25,27112000
"cohr71dt","female","non.p20","stunted",50,86,,43,0,0,0,3796000
"cohr71dt","female","non.p20","under5",52,90,7,48,6,4,3,47343000
"cohr71dt","female","non.p20","urban",52,90,77,48,76,41,41,47343000
"cohr71dt","female","p20","primary",54,9,76,4,3,41,1,27112000
"cohr71dt","female","p20","rural",52,10,23,5,10,11,5,47343000
"cohr71dt","female","p20","secondary",54,9,46,4,1,25,0,27112000
"cohr71dt","female","p20","stunted",50,14,,7,0,0,0,3796000
"cohr71dt","female","p20","under5",52,10,7,5,1,4,1,47343000
"cohr71dt","female","p20","urban",52,10,77,5,0,41,0,47343000
"cohr71dt","female","primary","rural",54,76,22,41,11,11,5,27112000
"cohr71dt","female","primary","secondary",54,76,46,41,46,25,25,27112000
"cohr71dt","female","primary","stunted",,,,,,,,27112000
"cohr71dt","female","primary","under5",54,76,0,41,0,0,0,27112000
"cohr71dt","female","primary","urban",54,76,78,41,65,44,36,27112000
"cohr71dt","female","rural","secondary",54,22,46,11,4,25,2,27112000
"cohr71dt","female","rural","stunted",50,28,,14,0,0,0,3796000
"cohr71dt","female","rural","under5",52,23,7,11,2,4,1,47343000
"cohr71dt","female","rural","urban",52,23,77,11,0,41,0,47343000
"cohr71dt","female","secondary","stunted",,,,,,,,27112000
"cohr71dt","female","secondary","under5",54,46,0,25,0,0,0,27112000
"cohr71dt","female","secondary","urban",54,46,78,25,42,44,23,27112000
"cohr71dt","female","stunted","under5",50,,100,0,,50,0,3796000
"cohr71dt","female","stunted","urban",50,,72,0,0,36,0,3796000
"cohr71dt","female","under5","urban",52,7,77,4,5,41,3,47343000
"cohr71dt","fifteento49","fiveto14","gt49",51,17,24,0,0,0,0,47343000
"cohr71dt","fifteento49","fiveto14","higher",58,0,25,0,0,19,0,27112000
"cohr71dt","fifteento49","fiveto14","male",51,17,48,0,9,24,0,47343000
"cohr71dt","fifteento49","fiveto14","no.birth.reg",0,0,3,0,0,0,0,3796000
"cohr71dt","fifteento49","fiveto14","no.educ",58,0,24,0,0,8,0,27112000
"cohr71dt","fifteento49","fiveto14","no.skilled.attendant",100,0,3,0,0,3,0,13085000
"cohr71dt","fifteento49","fiveto14","non.p20",51,17,90,0,15,47,0,47343000
"cohr71dt","fifteento49","fiveto14","p20",51,17,10,0,2,4,0,47343000
"cohr71dt","fifteento49","fiveto14","primary",58,0,76,0,0,50,0,27112000
"cohr71dt","fifteento49","fiveto14","rural",51,17,23,0,5,11,0,47343000
"cohr71dt","fifteento49","fiveto14","secondary",58,0,46,0,0,34,0,27112000
"cohr71dt","fifteento49","fiveto14","stunted",0,0,,0,0,0,0,3796000
"cohr71dt","fifteento49","fiveto14","under5",51,17,7,0,0,0,0,47343000
"cohr71dt","fifteento49","fiveto14","urban",51,17,77,0,12,40,0,47343000
"cohr71dt","fifteento49","gt49","higher",58,42,25,0,6,19,0,27112000
"cohr71dt","fifteento49","gt49","male",51,24,48,0,11,24,0,47343000
"cohr71dt","fifteento49","gt49","no.birth.reg",0,0,3,0,0,0,0,3796000
"cohr71dt","fifteento49","gt49","no.educ",58,42,24,0,16,8,0,27112000
"cohr71dt","fifteento49","gt49","no.skilled.attendant",100,0,3,0,0,3,0,13085000
"cohr71dt","fifteento49","gt49","non.p20",51,24,90,0,22,47,0,47343000
"cohr71dt","fifteento49","gt49","p20",51,24,10,0,2,4,0,47343000
"cohr71dt","fifteento49","gt49","primary",58,42,76,0,26,50,0,27112000
"cohr71dt","fifteento49","gt49","rural",51,24,23,0,5,11,0,47343000
"cohr71dt","fifteento49","gt49","secondary",58,42,46,0,12,34,0,27112000
"cohr71dt","fifteento49","gt49","stunted",0,0,,0,0,0,0,3796000
"cohr71dt","fifteento49","gt49","under5",51,24,7,0,0,0,0,47343000
"cohr71dt","fifteento49","gt49","urban",51,24,77,0,19,40,0,47343000
"cohr71dt","fifteento49","higher","male",58,25,46,19,11,27,8,27112000
"cohr71dt","fifteento49","higher","no.birth.reg",,,,,,,,27112000
"cohr71dt","fifteento49","higher","no.educ",58,25,24,19,0,8,0,27112000
"cohr71dt","fifteento49","higher","no.skilled.attendant",100,37,3,37,0,3,0,8971000
"cohr71dt","fifteento49","higher","non.p20",58,25,91,19,25,53,19,27112000
"cohr71dt","fifteento49","higher","p20",58,25,9,19,0,5,0,27112000
"cohr71dt","fifteento49","higher","primary",58,25,76,19,25,50,19,27112000
"cohr71dt","fifteento49","higher","rural",58,25,22,19,1,13,1,27112000
"cohr71dt","fifteento49","higher","secondary",58,25,46,19,25,34,19,27112000
"cohr71dt","fifteento49","higher","stunted",,,,,,,,27112000
"cohr71dt","fifteento49","higher","under5",58,25,0,19,0,0,0,27112000
"cohr71dt","fifteento49","higher","urban",58,25,78,19,24,45,18,27112000
"cohr71dt","fifteento49","male","no.birth.reg",0,50,3,0,2,0,0,3796000
"cohr71dt","fifteento49","male","no.educ",58,46,24,27,11,8,4,27112000
"cohr71dt","fifteento49","male","no.skilled.attendant",100,0,3,0,0,3,0,13085000
"cohr71dt","fifteento49","male","non.p20",51,48,90,24,42,47,22,47343000
"cohr71dt","fifteento49","male","p20",51,48,10,24,5,4,2,47343000
"cohr71dt","fifteento49","male","primary",58,46,76,27,34,50,23,27112000
"cohr71dt","fifteento49","male","rural",51,48,23,24,12,11,6,47343000
"cohr71dt","fifteento49","male","secondary",58,46,46,27,21,34,15,27112000
"cohr71dt","fifteento49","male","stunted",0,50,,0,0,0,0,3796000
"cohr71dt","fifteento49","male","under5",51,48,7,24,4,0,0,47343000
"cohr71dt","fifteento49","male","urban",51,48,77,24,35,40,19,47343000
"cohr71dt","fifteento49","no.birth.reg","no.educ",,,,,,,,27112000
"cohr71dt","fifteento49","no.birth.reg","no.skilled.attendant",,,,,,,,3796000
"cohr71dt","fifteento49","no.birth.reg","non.p20",0,3,86,0,2,0,0,3796000
"cohr71dt","fifteento49","no.birth.reg","p20",0,3,14,0,1,0,0,3796000
"cohr71dt","fifteento49","no.birth.reg","primary",,,,,,,,27112000
"cohr71dt","fifteento49","no.birth.reg","rural",0,3,28,0,1,0,0,3796000
"cohr71dt","fifteento49","no.birth.reg","secondary",,,,,,,,27112000
"cohr71dt","fifteento49","no.birth.reg","stunted",0,3,,0,0,0,0,3796000
"cohr71dt","fifteento49","no.birth.reg","under5",0,3,100,0,3,0,0,3796000
"cohr71dt","fifteento49","no.birth.reg","urban",0,3,72,0,2,0,0,3796000
"cohr71dt","fifteento49","no.educ","no.skilled.attendant",100,12,3,12,2,3,2,8971000
"cohr71dt","fifteento49","no.educ","non.p20",58,24,91,8,18,53,5,27112000
"cohr71dt","fifteento49","no.educ","p20",58,24,9,8,5,5,2,27112000
"cohr71dt","fifteento49","no.educ","primary",58,24,76,8,0,50,0,27112000
"cohr71dt","fifteento49","no.educ","rural",58,24,22,8,11,13,4,27112000
"cohr71dt","fifteento49","no.educ","secondary",58,24,46,8,0,34,0,27112000
"cohr71dt","fifteento49","no.educ","stunted",,,,,,,,27112000
"cohr71dt","fifteento49","no.educ","under5",58,24,0,8,0,0,0,27112000
"cohr71dt","fifteento49","no.educ","urban",58,24,78,8,13,45,3,27112000
"cohr71dt","fifteento49","no.skilled.attendant","non.p20",100,3,87,3,1,87,1,13085000
"cohr71dt","fifteento49","no.skilled.attendant","p20",100,3,13,3,2,13,2,13085000
"cohr71dt","fifteento49","no.skilled.attendant","primary",100,3,88,3,1,88,1,8971000
"cohr71dt","fifteento49","no.skilled.attendant","rural",100,3,27,3,2,27,2,13085000
"cohr71dt","fifteento49","no.skilled.attendant","secondary",100,3,64,3,1,64,1,8971000
"cohr71dt","fifteento49","no.skilled.attendant","stunted",,,,,,,,3796000
"cohr71dt","fifteento49","no.skilled.attendant","under5",100,3,0,3,0,0,0,13085000
"cohr71dt","fifteento49","no.skilled.attendant","urban",100,3,73,3,1,73,1,13085000
"cohr71dt","fifteento49","non.p20","p20",51,90,10,47,0,4,0,47343000
"cohr71dt","fifteento49","non.p20","primary",58,91,76,53,73,50,47,27112000
"cohr71dt","fifteento49","non.p20","rural",51,90,23,47,14,11,7,47343000
"cohr71dt","fifteento49","non.p20","secondary",58,91,46,53,46,34,34,27112000
"cohr71dt","fifteento49","non.p20","stunted",0,86,,0,0,0,0,3796000
"cohr71dt","fifteento49","non.p20","under5",51,90,7,47,6,0,0,47343000
"cohr71dt","fifteento49","non.p20","urban",51,90,77,47,76,40,40,47343000
"cohr71dt","fifteento49","p20","primary",58,9,76,5,3,50,2,27112000
"cohr71dt","fifteento49","p20","rural",51,10,23,4,10,11,4,47343000
"cohr71dt","fifteento49","p20","secondary",58,9,46,5,1,34,1,27112000
"cohr71dt","fifteento49","p20","stunted",0,14,,0,0,0,0,3796000
"cohr71dt","fifteento49","p20","under5",51,10,7,4,1,0,0,47343000
"cohr71dt","fifteento49","p20","urban",51,10,77,4,0,40,0,47343000
"cohr71dt","fifteento49","primary","rural",58,76,22,50,11,13,8,27112000
"cohr71dt","fifteento49","primary","secondary",58,76,46,50,46,34,34,27112000
"cohr71dt","fifteento49","primary","stunted",,,,,,,,27112000
"cohr71dt","fifteento49","primary","under5",58,76,0,50,0,0,0,27112000
"cohr71dt","fifteento49","primary","urban",58,76,78,50,65,45,42,27112000
"cohr71dt","fifteento49","rural","secondary",58,22,46,13,4,34,3,27112000
"cohr71dt","fifteento49","rural","stunted",0,28,,0,0,0,0,3796000
"cohr71dt","fifteento49","rural","under5",51,23,7,11,2,0,0,47343000
"cohr71dt","fifteento49","rural","urban",51,23,77,11,0,40,0,47343000
"cohr71dt","fifteento49","secondary","stunted",,,,,,,,27112000
"cohr71dt","fifteento49","secondary","under5",58,46,0,34,0,0,0,27112000
"cohr71dt","fifteento49","secondary","urban",58,46,78,34,42,45,31,27112000
"cohr71dt","fifteento49","stunted","under5",0,,100,0,,0,0,3796000
"cohr71dt","fifteento49","stunted","urban",0,,72,0,0,0,0,3796000
"cohr71dt","fifteento49","under5","urban",51,7,77,0,5,40,0,47343000
"cohr71dt","fiveto14","gt49","higher",0,42,25,0,6,0,0,27112000
"cohr71dt","fiveto14","gt49","male",17,24,48,0,11,9,0,47343000
"cohr71dt","fiveto14","gt49","no.birth.reg",0,0,3,0,0,0,0,3796000
"cohr71dt","fiveto14","gt49","no.educ",0,42,24,0,16,0,0,27112000
"cohr71dt","fiveto14","gt49","no.skilled.attendant",0,0,3,0,0,0,0,13085000
"cohr71dt","fiveto14","gt49","non.p20",17,24,90,0,22,15,0,47343000
"cohr71dt","fiveto14","gt49","p20",17,24,10,0,2,2,0,47343000
"cohr71dt","fiveto14","gt49","primary",0,42,76,0,26,0,0,27112000
"cohr71dt","fiveto14","gt49","rural",17,24,23,0,5,5,0,47343000
"cohr71dt","fiveto14","gt49","secondary",0,42,46,0,12,0,0,27112000
"cohr71dt","fiveto14","gt49","stunted",0,0,,0,0,0,0,3796000
"cohr71dt","fiveto14","gt49","under5",17,24,7,0,0,0,0,47343000
"cohr71dt","fiveto14","gt49","urban",17,24,77,0,19,12,0,47343000
"cohr71dt","fiveto14","higher","male",0,25,46,0,11,0,0,27112000
"cohr71dt","fiveto14","higher","no.birth.reg",,,,,,,,27112000
"cohr71dt","fiveto14","higher","no.educ",0,25,24,0,0,0,0,27112000
"cohr71dt","fiveto14","higher","no.skilled.attendant",0,37,3,0,0,0,0,8971000
"cohr71dt","fiveto14","higher","non.p20",0,25,91,0,25,0,0,27112000
"cohr71dt","fiveto14","higher","p20",0,25,9,0,0,0,0,27112000
"cohr71dt","fiveto14","higher","primary",0,25,76,0,25,0,0,27112000
"cohr71dt","fiveto14","higher","rural",0,25,22,0,1,0,0,27112000
"cohr71dt","fiveto14","higher","secondary",0,25,46,0,25,0,0,27112000
"cohr71dt","fiveto14","higher","stunted",,,,,,,,27112000
"cohr71dt","fiveto14","higher","under5",0,25,0,0,0,0,0,27112000
"cohr71dt","fiveto14","higher","urban",0,25,78,0,24,0,0,27112000
"cohr71dt","fiveto14","male","no.birth.reg",0,50,3,0,2,0,0,3796000
"cohr71dt","fiveto14","male","no.educ",0,46,24,0,11,0,0,27112000
"cohr71dt","fiveto14","male","no.skilled.attendant",0,0,3,0,0,0,0,13085000
"cohr71dt","fiveto14","male","non.p20",17,48,90,9,42,15,7,47343000
"cohr71dt","fiveto14","male","p20",17,48,10,9,5,2,1,47343000
"cohr71dt","fiveto14","male","primary",0,46,76,0,34,0,0,27112000
"cohr71dt","fiveto14","male","rural",17,48,23,9,12,5,3,47343000
"cohr71dt","fiveto14","male","secondary",0,46,46,0,21,0,0,27112000
"cohr71dt","fiveto14","male","stunted",0,50,,0,0,0,0,3796000
"cohr71dt","fiveto14","male","under5",17,48,7,9,4,0,0,47343000
"cohr71dt","fiveto14","male","urban",17,48,77,9,35,12,6,47343000
"cohr71dt","fiveto14","no.birth.reg","no.educ",,,,,,,,27112000
"cohr71dt","fiveto14","no.birth.reg","no.skilled.attendant",,,,,,,,3796000
"cohr71dt","fiveto14","no.birth.reg","non.p20",0,3,86,0,2,0,0,3796000
"cohr71dt","fiveto14","no.birth.reg","p20",0,3,14,0,1,0,0,3796000
"cohr71dt","fiveto14","no.birth.reg","primary",,,,,,,,27112000
"cohr71dt","fiveto14","no.birth.reg","rural",0,3,28,0,1,0,0,3796000
"cohr71dt","fiveto14","no.birth.reg","secondary",,,,,,,,27112000
"cohr71dt","fiveto14","no.birth.reg","stunted",0,3,,0,0,0,0,3796000
"cohr71dt","fiveto14","no.birth.reg","under5",0,3,100,0,3,0,0,3796000
"cohr71dt","fiveto14","no.birth.reg","urban",0,3,72,0,2,0,0,3796000
"cohr71dt","fiveto14","no.educ","no.skilled.attendant",0,12,3,0,2,0,0,8971000
"cohr71dt","fiveto14","no.educ","non.p20",0,24,91,0,18,0,0,27112000
"cohr71dt","fiveto14","no.educ","p20",0,24,9,0,5,0,0,27112000
"cohr71dt","fiveto14","no.educ","primary",0,24,76,0,0,0,0,27112000
"cohr71dt","fiveto14","no.educ","rural",0,24,22,0,11,0,0,27112000
"cohr71dt","fiveto14","no.educ","secondary",0,24,46,0,0,0,0,27112000
"cohr71dt","fiveto14","no.educ","stunted",,,,,,,,27112000
"cohr71dt","fiveto14","no.educ","under5",0,24,0,0,0,0,0,27112000
"cohr71dt","fiveto14","no.educ","urban",0,24,78,0,13,0,0,27112000
"cohr71dt","fiveto14","no.skilled.attendant","non.p20",0,3,87,0,1,0,0,13085000
"cohr71dt","fiveto14","no.skilled.attendant","p20",0,3,13,0,2,0,0,13085000
"cohr71dt","fiveto14","no.skilled.attendant","primary",0,3,88,0,1,0,0,8971000
"cohr71dt","fiveto14","no.skilled.attendant","rural",0,3,27,0,2,0,0,13085000
"cohr71dt","fiveto14","no.skilled.attendant","secondary",0,3,64,0,1,0,0,8971000
"cohr71dt","fiveto14","no.skilled.attendant","stunted",,,,,,,,3796000
"cohr71dt","fiveto14","no.skilled.attendant","under5",0,3,0,0,0,0,0,13085000
"cohr71dt","fiveto14","no.skilled.attendant","urban",0,3,73,0,1,0,0,13085000
"cohr71dt","fiveto14","non.p20","p20",17,90,10,15,0,2,0,47343000
"cohr71dt","fiveto14","non.p20","primary",0,91,76,0,73,0,0,27112000
"cohr71dt","fiveto14","non.p20","rural",17,90,23,15,14,5,3,47343000
"cohr71dt","fiveto14","non.p20","secondary",0,91,46,0,46,0,0,27112000
"cohr71dt","fiveto14","non.p20","stunted",0,86,,0,0,0,0,3796000
"cohr71dt","fiveto14","non.p20","under5",17,90,7,15,6,0,0,47343000
"cohr71dt","fiveto14","non.p20","urban",17,90,77,15,76,12,12,47343000
"cohr71dt","fiveto14","p20","primary",0,9,76,0,3,0,0,27112000
"cohr71dt","fiveto14","p20","rural",17,10,23,2,10,5,2,47343000
"cohr71dt","fiveto14","p20","secondary",0,9,46,0,1,0,0,27112000
"cohr71dt","fiveto14","p20","stunted",0,14,,0,0,0,0,3796000
"cohr71dt","fiveto14","p20","under5",17,10,7,2,1,0,0,47343000
"cohr71dt","fiveto14","p20","urban",17,10,77,2,0,12,0,47343000
"cohr71dt","fiveto14","primary","rural",0,76,22,0,11,0,0,27112000
"cohr71dt","fiveto14","primary","secondary",0,76,46,0,46,0,0,27112000
"cohr71dt","fiveto14","primary","stunted",,,,,,,,27112000
"cohr71dt","fiveto14","primary","under5",0,76,0,0,0,0,0,27112000
"cohr71dt","fiveto14","primary","urban",0,76,78,0,65,0,0,27112000
"cohr71dt","fiveto14","rural","secondary",0,22,46,0,4,0,0,27112000
"cohr71dt","fiveto14","rural","stunted",0,28,,0,0,0,0,3796000
"cohr71dt","fiveto14","rural","under5",17,23,7,5,2,0,0,47343000
"cohr71dt","fiveto14","rural","urban",17,23,77,5,0,12,0,47343000
"cohr71dt","fiveto14","secondary","stunted",,,,,,,,27112000
"cohr71dt","fiveto14","secondary","under5",0,46,0,0,0,0,0,27112000
"cohr71dt","fiveto14","secondary","urban",0,46,78,0,42,0,0,27112000
"cohr71dt","fiveto14","stunted","under5",0,,100,0,,0,0,3796000
"cohr71dt","fiveto14","stunted","urban",0,,72,0,0,0,0,3796000
"cohr71dt","fiveto14","under5","urban",17,7,77,0,5,12,0,47343000
"cohr71dt","gt49","higher","male",42,25,46,6,11,19,3,27112000
"cohr71dt","gt49","higher","no.birth.reg",,,,,,,,27112000
"cohr71dt","gt49","higher","no.educ",42,25,24,6,0,16,0,27112000
"cohr71dt","gt49","higher","no.skilled.attendant",0,37,3,0,0,0,0,8971000
"cohr71dt","gt49","higher","non.p20",42,25,91,6,25,38,6,27112000
"cohr71dt","gt49","higher","p20",42,25,9,6,0,4,0,27112000
"cohr71dt","gt49","higher","primary",42,25,76,6,25,26,6,27112000
"cohr71dt","gt49","higher","rural",42,25,22,6,1,9,0,27112000
"cohr71dt","gt49","higher","secondary",42,25,46,6,25,12,6,27112000
"cohr71dt","gt49","higher","stunted",,,,,,,,27112000
"cohr71dt","gt49","higher","under5",42,25,0,6,0,0,0,27112000
"cohr71dt","gt49","higher","urban",42,25,78,6,24,33,6,27112000
"cohr71dt","gt49","male","no.birth.reg",0,50,3,0,2,0,0,3796000
"cohr71dt","gt49","male","no.educ",42,46,24,19,11,16,7,27112000
"cohr71dt","gt49","male","no.skilled.attendant",0,0,3,0,0,0,0,13085000
"cohr71dt","gt49","male","non.p20",24,48,90,11,42,22,10,47343000
"cohr71dt","gt49","male","p20",24,48,10,11,5,2,1,47343000
"cohr71dt","gt49","male","primary",42,46,76,19,34,26,11,27112000
"cohr71dt","gt49","male","rural",24,48,23,11,12,5,3,47343000
"cohr71dt","gt49","male","secondary",42,46,46,19,21,12,5,27112000
"cohr71dt","gt49","male","stunted",0,50,,0,0,0,0,3796000
"cohr71dt","gt49","male","under5",24,48,7,11,4,0,0,47343000
"cohr71dt","gt49","male","urban",24,48,77,11,35,19,8,47343000
"cohr71dt","gt49","no.birth.reg","no.educ",,,,,,,,27112000
"cohr71dt","gt49","no.birth.reg","no.skilled.attendant",,,,,,,,3796000
"cohr71dt","gt49","no.birth.reg","non.p20",0,3,86,0,2,0,0,3796000
"cohr71dt","gt49","no.birth.reg","p20",0,3,14,0,1,0,0,3796000
"cohr71dt","gt49","no.birth.reg","primary",,,,,,,,27112000
"cohr71dt","gt49","no.birth.reg","rural",0,3,28,0,1,0,0,3796000
"cohr71dt","gt49","no.birth.reg","secondary",,,,,,,,27112000
"cohr71dt","gt49","no.birth.reg","stunted",0,3,,0,0,0,0,3796000
"cohr71dt","gt49","no.birth.reg","under5",0,3,100,0,3,0,0,3796000
"cohr71dt","gt49","no.birth.reg","urban",0,3,72,0,2,0,0,3796000
"cohr71dt","gt49","no.educ","no.skilled.attendant",0,12,3,0,2,0,0,8971000
"cohr71dt","gt49","no.educ","non.p20",42,24,91,16,18,38,13,27112000
"cohr71dt","gt49","no.educ","p20",42,24,9,16,5,4,3,27112000
"cohr71dt","gt49","no.educ","primary",42,24,76,16,0,26,0,27112000
"cohr71dt","gt49","no.educ","rural",42,24,22,16,11,9,7,27112000
"cohr71dt","gt49","no.educ","secondary",42,24,46,16,0,12,0,27112000
"cohr71dt","gt49","no.educ","stunted",,,,,,,,27112000
"cohr71dt","gt49","no.educ","under5",42,24,0,16,0,0,0,27112000
"cohr71dt","gt49","no.educ","urban",42,24,78,16,13,33,9,27112000
"cohr71dt","gt49","no.skilled.attendant","non.p20",0,3,87,0,1,0,0,13085000
"cohr71dt","gt49","no.skilled.attendant","p20",0,3,13,0,2,0,0,13085000
"cohr71dt","gt49","no.skilled.attendant","primary",0,3,88,0,1,0,0,8971000
"cohr71dt","gt49","no.skilled.attendant","rural",0,3,27,0,2,0,0,13085000
"cohr71dt","gt49","no.skilled.attendant","secondary",0,3,64,0,1,0,0,8971000
"cohr71dt","gt49","no.skilled.attendant","stunted",,,,,,,,3796000
"cohr71dt","gt49","no.skilled.attendant","under5",0,3,0,0,0,0,0,13085000
"cohr71dt","gt49","no.skilled.attendant","urban",0,3,73,0,1,0,0,13085000
"cohr71dt","gt49","non.p20","p20",24,90,10,22,0,2,0,47343000
"cohr71dt","gt49","non.p20","primary",42,91,76,38,73,26,25,27112000
"cohr71dt","gt49","non.p20","rural",24,90,23,22,14,5,3,47343000
"cohr71dt","gt49","non.p20","secondary",42,91,46,38,46,12,12,27112000
"cohr71dt","gt49","non.p20","stunted",0,86,,0,0,0,0,3796000
"cohr71dt","gt49","non.p20","under5",24,90,7,22,6,0,0,47343000
"cohr71dt","gt49","non.p20","urban",24,90,77,22,76,19,19,47343000
"cohr71dt","gt49","p20","primary",42,9,76,4,3,26,1,27112000
"cohr71dt","gt49","p20","rural",24,10,23,2,10,5,2,47343000
"cohr71dt","gt49","p20","secondary",42,9,46,4,1,12,0,27112000
"cohr71dt","gt49","p20","stunted",0,14,,0,0,0,0,3796000
"cohr71dt","gt49","p20","under5",24,10,7,2,1,0,0,47343000
"cohr71dt","gt49","p20","urban",24,10,77,2,0,19,0,47343000
"cohr71dt","gt49","primary","rural",42,76,22,26,11,9,3,27112000
"cohr71dt","gt49","primary","secondary",42,76,46,26,46,12,12,27112000
"cohr71dt","gt49","primary","stunted",,,,,,,,27112000
"cohr71dt","gt49","primary","under5",42,76,0,26,0,0,0,27112000
"cohr71dt","gt49","primary","urban",42,76,78,26,65,33,23,27112000
"cohr71dt","gt49","rural","secondary",42,22,46,9,4,12,1,27112000
"cohr71dt","gt49","rural","stunted",0,28,,0,0,0,0,3796000
"cohr71dt","gt49","rural","under5",24,23,7,5,2,0,0,47343000
"cohr71dt","gt49","rural","urban",24,23,77,5,0,19,0,47343000
"cohr71dt","gt49","secondary","stunted",,,,,,,,27112000
"cohr71dt","gt49","secondary","under5",42,46,0,12,0,0,0,27112000
"cohr71dt","gt49","secondary","urban",42,46,78,12,42,33,11,27112000
"cohr71dt","gt49","stunted","under5",0,,100,0,,0,0,3796000
"cohr71dt","gt49","stunted","urban",0,,72,0,0,0,0,3796000
"cohr71dt","gt49","under5","urban",24,7,77,0,5,19,0,47343000
"cohr71dt","higher","male","no.birth.reg",,,,,,,,27112000
"cohr71dt","higher","male","no.educ",25,46,24,11,11,0,0,27112000
"cohr71dt","higher","male","no.skilled.attendant",37,0,3,0,0,0,0,8971000
"cohr71dt","higher","male","non.p20",25,46,91,11,41,25,11,27112000
"cohr71dt","higher","male","p20",25,46,9,11,5,0,0,27112000
"cohr71dt","higher","male","primary",25,46,76,11,34,25,11,27112000
"cohr71dt","higher","male","rural",25,46,22,11,11,1,1,27112000
"cohr71dt","higher","male","secondary",25,46,46,11,21,25,11,27112000
"cohr71dt","higher","male","stunted",,,,,,,,27112000
"cohr71dt","higher","male","under5",25,46,0,11,0,0,0,27112000
"cohr71dt","higher","male","urban",25,46,78,11,35,24,10,27112000
"cohr71dt","higher","no.birth.reg","no.educ",,,,,,,,27112000
"cohr71dt","higher","no.birth.reg","no.skilled.attendant",,,,,,,,8971000
"cohr71dt","higher","no.birth.reg","non.p20",,,,,,,,27112000
"cohr71dt","higher","no.birth.reg","p20",,,,,,,,27112000
"cohr71dt","higher","no.birth.reg","primary",,,,,,,,27112000
"cohr71dt","higher","no.birth.reg","rural",,,,,,,,27112000
"cohr71dt","higher","no.birth.reg","secondary",,,,,,,,27112000
"cohr71dt","higher","no.birth.reg","stunted",,,,,,,,27112000
"cohr71dt","higher","no.birth.reg","under5",,,,,,,,27112000
"cohr71dt","higher","no.birth.reg","urban",,,,,,,,27112000
"cohr71dt","higher","no.educ","no.skilled.attendant",37,12,3,0,2,0,0,8971000
"cohr71dt","higher","no.educ","non.p20",25,24,91,0,18,25,0,27112000
"cohr71dt","higher","no.educ","p20",25,24,9,0,5,0,0,27112000
"cohr71dt","higher","no.educ","primary",25,24,76,0,0,25,0,27112000
"cohr71dt","higher","no.educ","rural",25,24,22,0,11,1,0,27112000
"cohr71dt","higher","no.educ","secondary",25,24,46,0,0,25,0,27112000
"cohr71dt","higher","no.educ","stunted",,,,,,,,27112000
"cohr71dt","higher","no.educ","under5",25,24,0,0,0,0,0,27112000
"cohr71dt","higher","no.educ","urban",25,24,78,0,13,24,0,27112000
"cohr71dt","higher","no.skilled.attendant","non.p20",37,3,88,0,1,37,0,8971000
"cohr71dt","higher","no.skilled.attendant","p20",37,3,12,0,2,0,0,8971000
"cohr71dt","higher","no.skilled.attendant","primary",37,3,88,0,1,37,0,8971000
"cohr71dt","higher","no.skilled.attendant","rural",37,3,25,0,2,3,0,8971000
"cohr71dt","higher","no.skilled.attendant","secondary",37,3,64,0,1,37,0,8971000
"cohr71dt","higher","no.skilled.attendant","stunted",,,,,,,,8971000
"cohr71dt","higher","no.skilled.attendant","under5",37,3,0,0,0,0,0,8971000
"cohr71dt","higher","no.skilled.attendant","urban",37,3,75,0,1,34,0,8971000
"cohr71dt","higher","non.p20","p20",25,91,9,25,0,0,0,27112000
"cohr71dt","higher","non.p20","primary",25,91,76,25,73,25,25,27112000
"cohr71dt","higher","non.p20","rural",25,91,22,25,14,1,1,27112000
"cohr71dt","higher","non.p20","secondary",25,91,46,25,46,25,25,27112000
"cohr71dt","higher","non.p20","stunted",,,,,,,,27112000
"cohr71dt","higher","non.p20","under5",25,91,0,25,0,0,0,27112000
"cohr71dt","higher","non.p20","urban",25,91,78,25,78,24,24,27112000
"cohr71dt","higher","p20","primary",25,9,76,0,3,25,0,27112000
"cohr71dt","higher","p20","rural",25,9,22,0,8,1,0,27112000
"cohr71dt","higher","p20","secondary",25,9,46,0,1,25,0,27112000
"cohr71dt","higher","p20","stunted",,,,,,,,27112000
"cohr71dt","higher","p20","under5",25,9,0,0,0,0,0,27112000
"cohr71dt","higher","p20","urban",25,9,78,0,0,24,0,27112000
"cohr71dt","higher","primary","rural",25,76,22,25,11,1,1,27112000
"cohr71dt","higher","primary","secondary",25,76,46,25,46,25,25,27112000
"cohr71dt","higher","primary","stunted",,,,,,,,27112000
"cohr71dt","higher","primary","under5",25,76,0,25,0,0,0,27112000
"cohr71dt","higher","primary","urban",25,76,78,25,65,24,24,27112000
"cohr71dt","higher","rural","secondary",25,22,46,1,4,25,1,27112000
"cohr71dt","higher","rural","stunted",,,,,,,,27112000
"cohr71dt","higher","rural","under5",25,22,0,1,0,0,0,27112000
"cohr71dt","higher","rural","urban",25,22,78,1,0,24,0,27112000
"cohr71dt","higher","secondary","stunted",,,,,,,,27112000
"cohr71dt","higher","secondary","under5",25,46,0,25,0,0,0,27112000
"cohr71dt","higher","secondary","urban",25,46,78,25,42,24,24,27112000
"cohr71dt","higher","stunted","under5",,,,,,,,27112000
"cohr71dt","higher","stunted","urban",,,,,,,,27112000
"cohr71dt","higher","under5","urban",25,0,78,0,0,24,0,27112000
"cohr71dt","male","no.birth.reg","no.educ",,,,,,,,27112000
"cohr71dt","male","no.birth.reg","no.skilled.attendant",,,,,,,,3796000
"cohr71dt","male","no.birth.reg","non.p20",50,3,86,2,2,43,1,3796000
"cohr71dt","male","no.birth.reg","p20",50,3,14,2,1,7,0,3796000
"cohr71dt","male","no.birth.reg","primary",,,,,,,,27112000
"cohr71dt","male","no.birth.reg","rural",50,3,28,2,1,14,1,3796000
"cohr71dt","male","no.birth.reg","secondary",,,,,,,,27112000
"cohr71dt","male","no.birth.reg","stunted",50,3,,2,0,0,0,3796000
"cohr71dt","male","no.birth.reg","under5",50,3,100,2,3,50,2,3796000
"cohr71dt","male","no.birth.reg","urban",50,3,72,2,2,36,1,3796000
"cohr71dt","male","no.educ","no.skilled.attendant",0,12,3,0,2,0,0,8971000
"cohr71dt","male","no.educ","non.p20",46,24,91,11,18,41,8,27112000
"cohr71dt","male","no.educ","p20",46,24,9,11,5,5,3,27112000
"cohr71dt","male","no.educ","primary",46,24,76,11,0,34,0,27112000
"cohr71dt","male","no.educ","rural",46,24,22,11,11,11,6,27112000
"cohr71dt","male","no.educ","secondary",46,24,46,11,0,21,0,27112000
"cohr71dt","male","no.educ","stunted",,,,,,,,27112000
"cohr71dt","male","no.educ","under5",46,24,0,11,0,0,0,27112000
"cohr71dt","male","no.educ","urban",46,24,78,11,13,35,5,27112000
"cohr71dt","male","no.skilled.attendant","non.p20",0,3,87,0,1,0,0,13085000
"cohr71dt","male","no.skilled.attendant","p20",0,3,13,0,2,0,0,13085000
"cohr71dt","male","no.skilled.attendant","primary",0,3,88,0,1,0,0,8971000
"cohr71dt","male","no.skilled.attendant","rural",0,3,27,0,2,0,0,13085000
"cohr71dt","male","no.skilled.attendant","secondary",0,3,64,0,1,0,0,8971000
"cohr71dt","male","no.skilled.attendant","stunted",,,,,,,,3796000
"cohr71dt","male","no.skilled.attendant","under5",0,3,0,0,0,0,0,13085000
"cohr71dt","male","no.skilled.attendant","urban",0,3,73,0,1,0,0,13085000
"cohr71dt","male","non.p20","p20",48,90,10,42,0,5,0,47343000
"cohr71dt","male","non.p20","primary",46,91,76,41,73,34,33,27112000
"cohr71dt","male","non.p20","rural",48,90,23,42,14,12,7,47343000
"cohr71dt","male","non.p20","secondary",46,91,46,41,46,21,20,27112000
"cohr71dt","male","non.p20","stunted",50,86,,43,0,0,0,3796000
"cohr71dt","male","non.p20","under5",48,90,7,42,6,4,3,47343000
"cohr71dt","male","non.p20","urban",48,90,77,42,76,35,35,47343000
"cohr71dt","male","p20","primary",46,9,76,5,3,34,2,27112000
"cohr71dt","male","p20","rural",48,10,23,5,10,12,5,47343000
"cohr71dt","male","p20","secondary",46,9,46,5,1,21,0,27112000
"cohr71dt","male","p20","stunted",50,14,,7,0,0,0,3796000
"cohr71dt","male","p20","under5",48,10,7,5,1,4,1,47343000
"cohr71dt","male","p20","urban",48,10,77,5,0,35,0,47343000
"cohr71dt","male","primary","rural",46,76,22,34,11,11,5,27112000
"cohr71dt","male","primary","secondary",46,76,46,34,46,21,21,27112000
"cohr71dt","male","primary","stunted",,,,,,,,27112000
"cohr71dt","male","primary","under5",46,76,0,34,0,0,0,27112000
"cohr71dt","male","primary","urban",46,76,78,34,65,35,29,27112000
"cohr71dt","male","rural","secondary",46,22,46,11,4,21,2,27112000
"cohr71dt","male","rural","stunted",50,28,,14,0,0,0,3796000
"cohr71dt","male","rural","under5",48,23,7,12,2,4,1,47343000
"cohr71dt","male","rural","urban",48,23,77,12,0,35,0,47343000
"cohr71dt","male","secondary","stunted",,,,,,,,27112000
"cohr71dt","male","secondary","under5",46,46,0,21,0,0,0,27112000
"cohr71dt","male","secondary","urban",46,46,78,21,42,35,19,27112000
"cohr71dt","male","stunted","under5",50,,100,0,,50,0,3796000
"cohr71dt","male","stunted","urban",50,,72,0,0,36,0,3796000
"cohr71dt","male","under5","urban",48,7,77,4,5,35,3,47343000
"cohr71dt","no.birth.reg","no.educ","no.skilled.attendant",,,,,,,,8971000
"cohr71dt","no.birth.reg","no.educ","non.p20",,,,,,,,27112000
"cohr71dt","no.birth.reg","no.educ","p20",,,,,,,,27112000
"cohr71dt","no.birth.reg","no.educ","primary",,,,,,,,27112000
"cohr71dt","no.birth.reg","no.educ","rural",,,,,,,,27112000
"cohr71dt","no.birth.reg","no.educ","secondary",,,,,,,,27112000
"cohr71dt","no.birth.reg","no.educ","stunted",,,,,,,,27112000
"cohr71dt","no.birth.reg","no.educ","under5",,,,,,,,27112000
"cohr71dt","no.birth.reg","no.educ","urban",,,,,,,,27112000
"cohr71dt","no.birth.reg","no.skilled.attendant","non.p20",,,,,,,,3796000
"cohr71dt","no.birth.reg","no.skilled.attendant","p20",,,,,,,,3796000
"cohr71dt","no.birth.reg","no.skilled.attendant","primary",,,,,,,,8971000
"cohr71dt","no.birth.reg","no.skilled.attendant","rural",,,,,,,,3796000
"cohr71dt","no.birth.reg","no.skilled.attendant","secondary",,,,,,,,8971000
"cohr71dt","no.birth.reg","no.skilled.attendant","stunted",,,,,,,,3796000
"cohr71dt","no.birth.reg","no.skilled.attendant","under5",,,,,,,,3796000
"cohr71dt","no.birth.reg","no.skilled.attendant","urban",,,,,,,,3796000
"cohr71dt","no.birth.reg","non.p20","p20",3,86,14,2,0,1,0,3796000
"cohr71dt","no.birth.reg","non.p20","primary",,,,,,,,27112000
"cohr71dt","no.birth.reg","non.p20","rural",3,86,28,2,14,1,0,3796000
"cohr71dt","no.birth.reg","non.p20","secondary",,,,,,,,27112000
"cohr71dt","no.birth.reg","non.p20","stunted",3,86,,2,0,0,0,3796000
"cohr71dt","no.birth.reg","non.p20","under5",3,86,100,2,86,3,2,3796000
"cohr71dt","no.birth.reg","non.p20","urban",3,86,72,2,71,2,2,3796000
"cohr71dt","no.birth.reg","p20","primary",,,,,,,,27112000
"cohr71dt","no.birth.reg","p20","rural",3,14,28,1,14,1,1,3796000
"cohr71dt","no.birth.reg","p20","secondary",,,,,,,,27112000
"cohr71dt","no.birth.reg","p20","stunted",3,14,,1,0,0,0,3796000
"cohr71dt","no.birth.reg","p20","under5",3,14,100,1,14,3,1,3796000
"cohr71dt","no.birth.reg","p20","urban",3,14,72,1,0,2,0,3796000
"cohr71dt","no.birth.reg","primary","rural",,,,,,,,27112000
"cohr71dt","no.birth.reg","primary","secondary",,,,,,,,27112000
"cohr71dt","no.birth.reg","primary","stunted",,,,,,,,27112000
"cohr71dt","no.birth.reg","primary","under5",,,,,,,,27112000
"cohr71dt","no.birth.reg","primary","urban",,,,,,,,27112000
"cohr71dt","no.birth.reg","rural","secondary",,,,,,,,27112000
"cohr71dt","no.birth.reg","rural","stunted",3,28,,1,0,0,0,3796000
"cohr71dt","no.birth.reg","rural","under5",3,28,100,1,28,3,1,3796000
"cohr71dt","no.birth.reg","rural","urban",3,28,72,1,0,2,0,3796000
"cohr71dt","no.birth.reg","secondary","stunted",,,,,,,,27112000
"cohr71dt","no.birth.reg","secondary","under5",,,,,,,,27112000
"cohr71dt","no.birth.reg","secondary","urban",,,,,,,,27112000
"cohr71dt","no.birth.reg","stunted","under5",3,,100,0,,3,0,3796000
"cohr71dt","no.birth.reg","stunted","urban",3,,72,0,0,2,0,3796000
"cohr71dt","no.birth.reg","under5","urban",3,100,72,3,72,2,2,3796000
"cohr71dt","no.educ","no.skilled.attendant","non.p20",12,3,88,2,1,6,0,8971000
"cohr71dt","no.educ","no.skilled.attendant","p20",12,3,12,2,2,5,1,8971000
"cohr71dt","no.educ","no.skilled.attendant","primary",12,3,88,2,1,0,0,8971000
"cohr71dt","no.educ","no.skilled.attendant","rural",12,3,25,2,2,8,2,8971000
"cohr71dt","no.educ","no.skilled.attendant","secondary",12,3,64,2,1,0,0,8971000
"cohr71dt","no.educ","no.skilled.attendant","stunted",,,,,,,,8971000
"cohr71dt","no.educ","no.skilled.attendant","under5",12,3,0,2,0,0,0,8971000
"cohr71dt","no.educ","no.skilled.attendant","urban",12,3,75,2,1,4,0,8971000
"cohr71dt","no.educ","non.p20","p20",24,91,9,18,0,5,0,27112000
"cohr71dt","no.educ","non.p20","primary",24,91,76,18,73,0,0,27112000
"cohr71dt","no.educ","non.p20","rural",24,91,22,18,14,11,6,27112000
"cohr71dt","no.educ","non.p20","secondary",24,91,46,18,46,0,0,27112000
"cohr71dt","no.educ","non.p20","stunted",,,,,,,,27112000
"cohr71dt","no.educ","non.p20","under5",24,91,0,18,0,0,0,27112000
"cohr71dt","no.educ","non.p20","urban",24,91,78,18,78,13,13,27112000
"cohr71dt","no.educ","p20","primary",24,9,76,5,3,0,0,27112000
"cohr71dt","no.educ","p20","rural",24,9,22,5,8,11,5,27112000
"cohr71dt","no.educ","p20","secondary",24,9,46,5,1,0,0,27112000
"cohr71dt","no.educ","p20","stunted",,,,,,,,27112000
"cohr71dt","no.educ","p20","under5",24,9,0,5,0,0,0,27112000
"cohr71dt","no.educ","p20","urban",24,9,78,5,0,13,0,27112000
"cohr71dt","no.educ","primary","rural",24,76,22,0,11,11,0,27112000
"cohr71dt","no.educ","primary","secondary",24,76,46,0,46,0,0,27112000
"cohr71dt","no.educ","primary","stunted",,,,,,,,27112000
"cohr71dt","no.educ","primary","under5",24,76,0,0,0,0,0,27112000
"cohr71dt","no.educ","primary","urban",24,76,78,0,65,13,0,27112000
"cohr71dt","no.educ","rural","secondary",24,22,46,11,4,0,0,27112000
"cohr71dt","no.educ","rural","stunted",,,,,,,,27112000
"cohr71dt","no.educ","rural","under5",24,22,0,11,0,0,0,27112000
"cohr71dt","no.educ","rural","urban",24,22,78,11,0,13,0,27112000
"cohr71dt","no.educ","secondary","stunted",,,,,,,,27112000
"cohr71dt","no.educ","secondary","under5",24,46,0,0,0,0,0,27112000
"cohr71dt","no.educ","secondary","urban",24,46,78,0,42,13,0,27112000
"cohr71dt","no.educ","stunted","under5",,,,,,,,27112000
"cohr71dt","no.educ","stunted","urban",,,,,,,,27112000
"cohr71dt","no.educ","under5","urban",24,0,78,0,0,13,0,27112000
"cohr71dt","no.skilled.attendant","non.p20","p20",3,87,13,1,0,2,0,13085000
"cohr71dt","no.skilled.attendant","non.p20","primary",3,88,88,1,82,1,1,8971000
"cohr71dt","no.skilled.attendant","non.p20","rural",3,87,27,1,15,2,0,13085000
"cohr71dt","no.skilled.attendant","non.p20","secondary",3,88,64,1,63,1,0,8971000
"cohr71dt","no.skilled.attendant","non.p20","stunted",,,,,,,,3796000
"cohr71dt","no.skilled.attendant","non.p20","under5",3,87,0,1,0,0,0,13085000
"cohr71dt","no.skilled.attendant","non.p20","urban",3,87,73,1,72,1,1,13085000
"cohr71dt","no.skilled.attendant","p20","primary",3,12,88,2,6,1,1,8971000
"cohr71dt","no.skilled.attendant","p20","rural",3,13,27,2,12,2,2,13085000
"cohr71dt","no.skilled.attendant","p20","secondary",3,12,64,2,2,1,0,8971000
"cohr71dt","no.skilled.attendant","p20","stunted",,,,,,,,3796000
"cohr71dt","no.skilled.attendant","p20","under5",3,13,0,2,0,0,0,13085000
"cohr71dt","no.skilled.attendant","p20","urban",3,13,73,2,1,1,0,13085000
"cohr71dt","no.skilled.attendant","primary","rural",3,88,25,1,17,2,1,8971000
"cohr71dt","no.skilled.attendant","primary","secondary",3,88,64,1,64,1,1,8971000
"cohr71dt","no.skilled.attendant","primary","stunted",,,,,,,,8971000
"cohr71dt","no.skilled.attendant","primary","under5",3,88,0,1,0,0,0,8971000
"cohr71dt","no.skilled.attendant","primary","urban",3,88,75,1,71,1,1,8971000
"cohr71dt","no.skilled.attendant","rural","secondary",3,25,64,2,8,1,0,8971000
"cohr71dt","no.skilled.attendant","rural","stunted",,,,,,,,3796000
"cohr71dt","no.skilled.attendant","rural","under5",3,27,0,2,0,0,0,13085000
"cohr71dt","no.skilled.attendant","rural","urban",3,27,73,2,0,1,0,13085000
"cohr71dt","no.skilled.attendant","secondary","stunted",,,,,,,,8971000
"cohr71dt","no.skilled.attendant","secondary","under5",3,64,0,1,0,0,0,8971000
"cohr71dt","no.skilled.attendant","secondary","urban",3,64,75,1,57,1,0,8971000
"cohr71dt","no.skilled.attendant","stunted","under5",,,,,,,,3796000
"cohr71dt","no.skilled.attendant","stunted","urban",,,,,,,,3796000
"cohr71dt","no.skilled.attendant","under5","urban",3,0,73,0,0,1,0,13085000
"cohr71dt","non.p20","p20","primary",91,9,76,0,3,73,0,27112000
"cohr71dt","non.p20","p20","rural",90,10,23,0,10,14,0,47343000
"cohr71dt","non.p20","p20","secondary",91,9,46,0,1,46,0,27112000
"cohr71dt","non.p20","p20","stunted",86,14,,0,0,0,0,3796000
"cohr71dt","non.p20","p20","under5",90,10,7,0,1,6,0,47343000
"cohr71dt","non.p20","p20","urban",90,10,77,0,0,76,0,47343000
"cohr71dt","non.p20","primary","rural",91,76,22,73,11,14,8,27112000
"cohr71dt","non.p20","primary","secondary",91,76,46,73,46,46,46,27112000
"cohr71dt","non.p20","primary","stunted",,,,,,,,27112000
"cohr71dt","non.p20","primary","under5",91,76,0,73,0,0,0,27112000
"cohr71dt","non.p20","primary","urban",91,76,78,73,65,78,65,27112000
"cohr71dt","non.p20","rural","secondary",91,22,46,14,4,46,3,27112000
"cohr71dt","non.p20","rural","stunted",86,28,,14,0,0,0,3796000
"cohr71dt","non.p20","rural","under5",90,23,7,14,2,6,1,47343000
"cohr71dt","non.p20","rural","urban",90,23,77,14,0,76,0,47343000
"cohr71dt","non.p20","secondary","stunted",,,,,,,,27112000
"cohr71dt","non.p20","secondary","under5",91,46,0,46,0,0,0,27112000
"cohr71dt","non.p20","secondary","urban",91,46,78,46,42,78,42,27112000
"cohr71dt","non.p20","stunted","under5",86,,100,0,,86,0,3796000
"cohr71dt","non.p20","stunted","urban",86,,72,0,0,71,0,3796000
"cohr71dt","non.p20","under5","urban",90,7,77,6,5,76,5,47343000
"cohr71dt","p20","primary","rural",9,76,22,3,11,8,3,27112000
"cohr71dt","p20","primary","secondary",9,76,46,3,46,1,1,27112000
"cohr71dt","p20","primary","stunted",,,,,,,,27112000
"cohr71dt","p20","primary","under5",9,76,0,3,0,0,0,27112000
"cohr71dt","p20","primary","urban",9,76,78,3,65,0,0,27112000
"cohr71dt","p20","rural","secondary",9,22,46,8,4,1,1,27112000
"cohr71dt","p20","rural","stunted",14,28,,14,0,0,0,3796000
"cohr71dt","p20","rural","under5",10,23,7,10,2,1,1,47343000
"cohr71dt","p20","rural","urban",10,23,77,10,0,0,0,47343000
"cohr71dt","p20","secondary","stunted",,,,,,,,27112000
"cohr71dt","p20","secondary","under5",9,46,0,1,0,0,0,27112000
"cohr71dt","p20","secondary","urban",9,46,78,1,42,0,0,27112000
"cohr71dt","p20","stunted","under5",14,,100,0,,14,0,3796000
"cohr71dt","p20","stunted","urban",14,,72,0,0,0,0,3796000
"cohr71dt","p20","under5","urban",10,7,77,1,5,0,0,47343000
"cohr71dt","primary","rural","secondary",76,22,46,11,4,46,4,27112000
"cohr71dt","primary","rural","stunted",,,,,,,,27112000
"cohr71dt","primary","rural","under5",76,22,0,11,0,0,0,27112000
"cohr71dt","primary","rural","urban",76,22,78,11,0,65,0,27112000
"cohr71dt","primary","secondary","stunted",,,,,,,,27112000
"cohr71dt","primary","secondary","under5",76,46,0,46,0,0,0,27112000
"cohr71dt","primary","secondary","urban",76,46,78,46,42,65,42,27112000
"cohr71dt","primary","stunted","under5",,,,,,,,27112000
"cohr71dt","primary","stunted","urban",,,,,,,,27112000
"cohr71dt","primary","under5","urban",76,0,78,0,0,65,0,27112000
"cohr71dt","rural","secondary","stunted",,,,,,,,27112000
"cohr71dt","rural","secondary","under5",22,46,0,4,0,0,0,27112000
"cohr71dt","rural","secondary","urban",22,46,78,4,42,0,0,27112000
"cohr71dt","rural","stunted","under5",28,,100,0,,28,0,3796000
"cohr71dt","rural","stunted","urban",28,,72,0,0,0,0,3796000
"cohr71dt","rural","under5","urban",23,7,77,2,5,0,0,47343000
"cohr71dt","secondary","stunted","under5",,,,,,,,27112000
"cohr71dt","secondary","stunted","urban",,,,,,,,27112000
"cohr71dt","secondary","under5","urban",46,0,78,0,0,42,0,27112000
"cohr71dt","stunted","under5","urban",,100,72,,72,0,0,3796000
