"filename","indicator1","indicator2","indicator3","X","Y","Z","X,Y","Y,Z","X,Z","X,Y,Z","pop"
"Denmark","blank1","blank2","ext",100,100,1,100,1,1,1,5614932
"Denmark","blank1","blank2","female",100,100,,100,,,,5614932
"Denmark","blank1","blank2","fifteento49",100,100,,100,,,,5614932
"Denmark","blank1","blank2","fiveto14",100,100,,100,,,,5614932
"Denmark","blank1","blank2","gt49",100,100,,100,,,,5614932
"Denmark","blank1","blank2","higher",,,,,,,,5614932
"Denmark","blank1","blank2","male",100,100,,100,,,,5614932
"Denmark","blank1","blank2","no.birth.reg",,,,,,,,5614932
"Denmark","blank1","blank2","no.educ",,,,,,,,5614932
"Denmark","blank1","blank2","no.skilled.attendant",,,,,,,,5614932
"Denmark","blank1","blank2","non.p20",100,100,99,100,99,99,99,5614932
"Denmark","blank1","blank2","p20",100,100,1,100,1,1,1,5614932
"Denmark","blank1","blank2","primary",,,,,,,,5614932
"Denmark","blank1","blank2","rural",100,100,,100,,,,5614932
"Denmark","blank1","blank2","secondary",,,,,,,,5614932
"Denmark","blank1","blank2","stunted",,,,,,,,5614932
"Denmark","blank1","blank2","under5",100,100,,100,,,,5614932
"Denmark","blank1","blank2","urban",100,100,,100,,,,5614932
"Denmark","blank1","ext","female",100,1,,1,,,,5614932
"Denmark","blank1","ext","fifteento49",100,1,,1,,,,5614932
"Denmark","blank1","ext","fiveto14",100,1,,1,,,,5614932
"Denmark","blank1","ext","gt49",100,1,,1,,,,5614932
"Denmark","blank1","ext","higher",,,,,,,,5614932
"Denmark","blank1","ext","male",100,1,,1,,,,5614932
"Denmark","blank1","ext","no.birth.reg",,,,,,,,5614932
"Denmark","blank1","ext","no.educ",,,,,,,,5614932
"Denmark","blank1","ext","no.skilled.attendant",,,,,,,,5614932
"Denmark","blank1","ext","non.p20",100,1,99,1,0,99,0,5614932
"Denmark","blank1","ext","p20",100,1,1,1,1,1,1,5614932
"Denmark","blank1","ext","primary",,,,,,,,5614932
"Denmark","blank1","ext","rural",100,1,,1,,,,5614932
"Denmark","blank1","ext","secondary",,,,,,,,5614932
"Denmark","blank1","ext","stunted",,,,,,,,5614932
"Denmark","blank1","ext","under5",100,1,,1,,,,5614932
"Denmark","blank1","ext","urban",100,1,,1,,,,5614932
"Denmark","blank1","female","fifteento49",100,,,,,,,5614932
"Denmark","blank1","female","fiveto14",100,,,,,,,5614932
"Denmark","blank1","female","gt49",100,,,,,,,5614932
"Denmark","blank1","female","higher",,,,,,,,5614932
"Denmark","blank1","female","male",100,,,,,,,5614932
"Denmark","blank1","female","no.birth.reg",,,,,,,,5614932
"Denmark","blank1","female","no.educ",,,,,,,,5614932
"Denmark","blank1","female","no.skilled.attendant",,,,,,,,5614932
"Denmark","blank1","female","non.p20",100,,99,,,99,,5614932
"Denmark","blank1","female","p20",100,,1,,,1,,5614932
"Denmark","blank1","female","primary",,,,,,,,5614932
"Denmark","blank1","female","rural",100,,,,,,,5614932
"Denmark","blank1","female","secondary",,,,,,,,5614932
"Denmark","blank1","female","stunted",,,,,,,,5614932
"Denmark","blank1","female","under5",100,,,,,,,5614932
"Denmark","blank1","female","urban",100,,,,,,,5614932
"Denmark","blank1","fifteento49","fiveto14",100,,,,,,,5614932
"Denmark","blank1","fifteento49","gt49",100,,,,,,,5614932
"Denmark","blank1","fifteento49","higher",,,,,,,,5614932
"Denmark","blank1","fifteento49","male",100,,,,,,,5614932
"Denmark","blank1","fifteento49","no.birth.reg",,,,,,,,5614932
"Denmark","blank1","fifteento49","no.educ",,,,,,,,5614932
"Denmark","blank1","fifteento49","no.skilled.attendant",,,,,,,,5614932
"Denmark","blank1","fifteento49","non.p20",100,,99,,,99,,5614932
"Denmark","blank1","fifteento49","p20",100,,1,,,1,,5614932
"Denmark","blank1","fifteento49","primary",,,,,,,,5614932
"Denmark","blank1","fifteento49","rural",100,,,,,,,5614932
"Denmark","blank1","fifteento49","secondary",,,,,,,,5614932
"Denmark","blank1","fifteento49","stunted",,,,,,,,5614932
"Denmark","blank1","fifteento49","under5",100,,,,,,,5614932
"Denmark","blank1","fifteento49","urban",100,,,,,,,5614932
"Denmark","blank1","fiveto14","gt49",100,,,,,,,5614932
"Denmark","blank1","fiveto14","higher",,,,,,,,5614932
"Denmark","blank1","fiveto14","male",100,,,,,,,5614932
"Denmark","blank1","fiveto14","no.birth.reg",,,,,,,,5614932
"Denmark","blank1","fiveto14","no.educ",,,,,,,,5614932
"Denmark","blank1","fiveto14","no.skilled.attendant",,,,,,,,5614932
"Denmark","blank1","fiveto14","non.p20",100,,99,,,99,,5614932
"Denmark","blank1","fiveto14","p20",100,,1,,,1,,5614932
"Denmark","blank1","fiveto14","primary",,,,,,,,5614932
"Denmark","blank1","fiveto14","rural",100,,,,,,,5614932
"Denmark","blank1","fiveto14","secondary",,,,,,,,5614932
"Denmark","blank1","fiveto14","stunted",,,,,,,,5614932
"Denmark","blank1","fiveto14","under5",100,,,,,,,5614932
"Denmark","blank1","fiveto14","urban",100,,,,,,,5614932
"Denmark","blank1","gt49","higher",,,,,,,,5614932
"Denmark","blank1","gt49","male",100,,,,,,,5614932
"Denmark","blank1","gt49","no.birth.reg",,,,,,,,5614932
"Denmark","blank1","gt49","no.educ",,,,,,,,5614932
"Denmark","blank1","gt49","no.skilled.attendant",,,,,,,,5614932
"Denmark","blank1","gt49","non.p20",100,,99,,,99,,5614932
"Denmark","blank1","gt49","p20",100,,1,,,1,,5614932
"Denmark","blank1","gt49","primary",,,,,,,,5614932
"Denmark","blank1","gt49","rural",100,,,,,,,5614932
"Denmark","blank1","gt49","secondary",,,,,,,,5614932
"Denmark","blank1","gt49","stunted",,,,,,,,5614932
"Denmark","blank1","gt49","under5",100,,,,,,,5614932
"Denmark","blank1","gt49","urban",100,,,,,,,5614932
"Denmark","blank1","higher","male",,,,,,,,5614932
"Denmark","blank1","higher","no.birth.reg",,,,,,,,5614932
"Denmark","blank1","higher","no.educ",,,,,,,,5614932
"Denmark","blank1","higher","no.skilled.attendant",,,,,,,,5614932
"Denmark","blank1","higher","non.p20",,,,,,,,5614932
"Denmark","blank1","higher","p20",,,,,,,,5614932
"Denmark","blank1","higher","primary",,,,,,,,5614932
"Denmark","blank1","higher","rural",,,,,,,,5614932
"Denmark","blank1","higher","secondary",,,,,,,,5614932
"Denmark","blank1","higher","stunted",,,,,,,,5614932
"Denmark","blank1","higher","under5",,,,,,,,5614932
"Denmark","blank1","higher","urban",,,,,,,,5614932
"Denmark","blank1","male","no.birth.reg",,,,,,,,5614932
"Denmark","blank1","male","no.educ",,,,,,,,5614932
"Denmark","blank1","male","no.skilled.attendant",,,,,,,,5614932
"Denmark","blank1","male","non.p20",100,,99,,,99,,5614932
"Denmark","blank1","male","p20",100,,1,,,1,,5614932
"Denmark","blank1","male","primary",,,,,,,,5614932
"Denmark","blank1","male","rural",100,,,,,,,5614932
"Denmark","blank1","male","secondary",,,,,,,,5614932
"Denmark","blank1","male","stunted",,,,,,,,5614932
"Denmark","blank1","male","under5",100,,,,,,,5614932
"Denmark","blank1","male","urban",100,,,,,,,5614932
"Denmark","blank1","no.birth.reg","no.educ",,,,,,,,5614932
"Denmark","blank1","no.birth.reg","no.skilled.attendant",,,,,,,,5614932
"Denmark","blank1","no.birth.reg","non.p20",,,,,,,,5614932
"Denmark","blank1","no.birth.reg","p20",,,,,,,,5614932
"Denmark","blank1","no.birth.reg","primary",,,,,,,,5614932
"Denmark","blank1","no.birth.reg","rural",,,,,,,,5614932
"Denmark","blank1","no.birth.reg","secondary",,,,,,,,5614932
"Denmark","blank1","no.birth.reg","stunted",,,,,,,,5614932
"Denmark","blank1","no.birth.reg","under5",,,,,,,,5614932
"Denmark","blank1","no.birth.reg","urban",,,,,,,,5614932
"Denmark","blank1","no.educ","no.skilled.attendant",,,,,,,,5614932
"Denmark","blank1","no.educ","non.p20",,,,,,,,5614932
"Denmark","blank1","no.educ","p20",,,,,,,,5614932
"Denmark","blank1","no.educ","primary",,,,,,,,5614932
"Denmark","blank1","no.educ","rural",,,,,,,,5614932
"Denmark","blank1","no.educ","secondary",,,,,,,,5614932
"Denmark","blank1","no.educ","stunted",,,,,,,,5614932
"Denmark","blank1","no.educ","under5",,,,,,,,5614932
"Denmark","blank1","no.educ","urban",,,,,,,,5614932
"Denmark","blank1","no.skilled.attendant","non.p20",,,,,,,,5614932
"Denmark","blank1","no.skilled.attendant","p20",,,,,,,,5614932
"Denmark","blank1","no.skilled.attendant","primary",,,,,,,,5614932
"Denmark","blank1","no.skilled.attendant","rural",,,,,,,,5614932
"Denmark","blank1","no.skilled.attendant","secondary",,,,,,,,5614932
"Denmark","blank1","no.skilled.attendant","stunted",,,,,,,,5614932
"Denmark","blank1","no.skilled.attendant","under5",,,,,,,,5614932
"Denmark","blank1","no.skilled.attendant","urban",,,,,,,,5614932
"Denmark","blank1","non.p20","p20",100,99,1,99,0,1,0,5614932
"Denmark","blank1","non.p20","primary",,,,,,,,5614932
"Denmark","blank1","non.p20","rural",100,99,,99,,,,5614932
"Denmark","blank1","non.p20","secondary",,,,,,,,5614932
"Denmark","blank1","non.p20","stunted",,,,,,,,5614932
"Denmark","blank1","non.p20","under5",100,99,,99,,,,5614932
"Denmark","blank1","non.p20","urban",100,99,,99,,,,5614932
"Denmark","blank1","p20","primary",,,,,,,,5614932
"Denmark","blank1","p20","rural",100,1,,1,,,,5614932
"Denmark","blank1","p20","secondary",,,,,,,,5614932
"Denmark","blank1","p20","stunted",,,,,,,,5614932
"Denmark","blank1","p20","under5",100,1,,1,,,,5614932
"Denmark","blank1","p20","urban",100,1,,1,,,,5614932
"Denmark","blank1","primary","rural",,,,,,,,5614932
"Denmark","blank1","primary","secondary",,,,,,,,5614932
"Denmark","blank1","primary","stunted",,,,,,,,5614932
"Denmark","blank1","primary","under5",,,,,,,,5614932
"Denmark","blank1","primary","urban",,,,,,,,5614932
"Denmark","blank1","rural","secondary",,,,,,,,5614932
"Denmark","blank1","rural","stunted",,,,,,,,5614932
"Denmark","blank1","rural","under5",100,,,,,,,5614932
"Denmark","blank1","rural","urban",100,,,,,,,5614932
"Denmark","blank1","secondary","stunted",,,,,,,,5614932
"Denmark","blank1","secondary","under5",,,,,,,,5614932
"Denmark","blank1","secondary","urban",,,,,,,,5614932
"Denmark","blank1","stunted","under5",,,,,,,,5614932
"Denmark","blank1","stunted","urban",,,,,,,,5614932
"Denmark","blank1","under5","urban",100,,,,,,,5614932
"Denmark","blank2","ext","female",100,1,,1,,,,5614932
"Denmark","blank2","ext","fifteento49",100,1,,1,,,,5614932
"Denmark","blank2","ext","fiveto14",100,1,,1,,,,5614932
"Denmark","blank2","ext","gt49",100,1,,1,,,,5614932
"Denmark","blank2","ext","higher",,,,,,,,5614932
"Denmark","blank2","ext","male",100,1,,1,,,,5614932
"Denmark","blank2","ext","no.birth.reg",,,,,,,,5614932
"Denmark","blank2","ext","no.educ",,,,,,,,5614932
"Denmark","blank2","ext","no.skilled.attendant",,,,,,,,5614932
"Denmark","blank2","ext","non.p20",100,1,99,1,0,99,0,5614932
"Denmark","blank2","ext","p20",100,1,1,1,1,1,1,5614932
"Denmark","blank2","ext","primary",,,,,,,,5614932
"Denmark","blank2","ext","rural",100,1,,1,,,,5614932
"Denmark","blank2","ext","secondary",,,,,,,,5614932
"Denmark","blank2","ext","stunted",,,,,,,,5614932
"Denmark","blank2","ext","under5",100,1,,1,,,,5614932
"Denmark","blank2","ext","urban",100,1,,1,,,,5614932
"Denmark","blank2","female","fifteento49",100,,,,,,,5614932
"Denmark","blank2","female","fiveto14",100,,,,,,,5614932
"Denmark","blank2","female","gt49",100,,,,,,,5614932
"Denmark","blank2","female","higher",,,,,,,,5614932
"Denmark","blank2","female","male",100,,,,,,,5614932
"Denmark","blank2","female","no.birth.reg",,,,,,,,5614932
"Denmark","blank2","female","no.educ",,,,,,,,5614932
"Denmark","blank2","female","no.skilled.attendant",,,,,,,,5614932
"Denmark","blank2","female","non.p20",100,,99,,,99,,5614932
"Denmark","blank2","female","p20",100,,1,,,1,,5614932
"Denmark","blank2","female","primary",,,,,,,,5614932
"Denmark","blank2","female","rural",100,,,,,,,5614932
"Denmark","blank2","female","secondary",,,,,,,,5614932
"Denmark","blank2","female","stunted",,,,,,,,5614932
"Denmark","blank2","female","under5",100,,,,,,,5614932
"Denmark","blank2","female","urban",100,,,,,,,5614932
"Denmark","blank2","fifteento49","fiveto14",100,,,,,,,5614932
"Denmark","blank2","fifteento49","gt49",100,,,,,,,5614932
"Denmark","blank2","fifteento49","higher",,,,,,,,5614932
"Denmark","blank2","fifteento49","male",100,,,,,,,5614932
"Denmark","blank2","fifteento49","no.birth.reg",,,,,,,,5614932
"Denmark","blank2","fifteento49","no.educ",,,,,,,,5614932
"Denmark","blank2","fifteento49","no.skilled.attendant",,,,,,,,5614932
"Denmark","blank2","fifteento49","non.p20",100,,99,,,99,,5614932
"Denmark","blank2","fifteento49","p20",100,,1,,,1,,5614932
"Denmark","blank2","fifteento49","primary",,,,,,,,5614932
"Denmark","blank2","fifteento49","rural",100,,,,,,,5614932
"Denmark","blank2","fifteento49","secondary",,,,,,,,5614932
"Denmark","blank2","fifteento49","stunted",,,,,,,,5614932
"Denmark","blank2","fifteento49","under5",100,,,,,,,5614932
"Denmark","blank2","fifteento49","urban",100,,,,,,,5614932
"Denmark","blank2","fiveto14","gt49",100,,,,,,,5614932
"Denmark","blank2","fiveto14","higher",,,,,,,,5614932
"Denmark","blank2","fiveto14","male",100,,,,,,,5614932
"Denmark","blank2","fiveto14","no.birth.reg",,,,,,,,5614932
"Denmark","blank2","fiveto14","no.educ",,,,,,,,5614932
"Denmark","blank2","fiveto14","no.skilled.attendant",,,,,,,,5614932
"Denmark","blank2","fiveto14","non.p20",100,,99,,,99,,5614932
"Denmark","blank2","fiveto14","p20",100,,1,,,1,,5614932
"Denmark","blank2","fiveto14","primary",,,,,,,,5614932
"Denmark","blank2","fiveto14","rural",100,,,,,,,5614932
"Denmark","blank2","fiveto14","secondary",,,,,,,,5614932
"Denmark","blank2","fiveto14","stunted",,,,,,,,5614932
"Denmark","blank2","fiveto14","under5",100,,,,,,,5614932
"Denmark","blank2","fiveto14","urban",100,,,,,,,5614932
"Denmark","blank2","gt49","higher",,,,,,,,5614932
"Denmark","blank2","gt49","male",100,,,,,,,5614932
"Denmark","blank2","gt49","no.birth.reg",,,,,,,,5614932
"Denmark","blank2","gt49","no.educ",,,,,,,,5614932
"Denmark","blank2","gt49","no.skilled.attendant",,,,,,,,5614932
"Denmark","blank2","gt49","non.p20",100,,99,,,99,,5614932
"Denmark","blank2","gt49","p20",100,,1,,,1,,5614932
"Denmark","blank2","gt49","primary",,,,,,,,5614932
"Denmark","blank2","gt49","rural",100,,,,,,,5614932
"Denmark","blank2","gt49","secondary",,,,,,,,5614932
"Denmark","blank2","gt49","stunted",,,,,,,,5614932
"Denmark","blank2","gt49","under5",100,,,,,,,5614932
"Denmark","blank2","gt49","urban",100,,,,,,,5614932
"Denmark","blank2","higher","male",,,,,,,,5614932
"Denmark","blank2","higher","no.birth.reg",,,,,,,,5614932
"Denmark","blank2","higher","no.educ",,,,,,,,5614932
"Denmark","blank2","higher","no.skilled.attendant",,,,,,,,5614932
"Denmark","blank2","higher","non.p20",,,,,,,,5614932
"Denmark","blank2","higher","p20",,,,,,,,5614932
"Denmark","blank2","higher","primary",,,,,,,,5614932
"Denmark","blank2","higher","rural",,,,,,,,5614932
"Denmark","blank2","higher","secondary",,,,,,,,5614932
"Denmark","blank2","higher","stunted",,,,,,,,5614932
"Denmark","blank2","higher","under5",,,,,,,,5614932
"Denmark","blank2","higher","urban",,,,,,,,5614932
"Denmark","blank2","male","no.birth.reg",,,,,,,,5614932
"Denmark","blank2","male","no.educ",,,,,,,,5614932
"Denmark","blank2","male","no.skilled.attendant",,,,,,,,5614932
"Denmark","blank2","male","non.p20",100,,99,,,99,,5614932
"Denmark","blank2","male","p20",100,,1,,,1,,5614932
"Denmark","blank2","male","primary",,,,,,,,5614932
"Denmark","blank2","male","rural",100,,,,,,,5614932
"Denmark","blank2","male","secondary",,,,,,,,5614932
"Denmark","blank2","male","stunted",,,,,,,,5614932
"Denmark","blank2","male","under5",100,,,,,,,5614932
"Denmark","blank2","male","urban",100,,,,,,,5614932
"Denmark","blank2","no.birth.reg","no.educ",,,,,,,,5614932
"Denmark","blank2","no.birth.reg","no.skilled.attendant",,,,,,,,5614932
"Denmark","blank2","no.birth.reg","non.p20",,,,,,,,5614932
"Denmark","blank2","no.birth.reg","p20",,,,,,,,5614932
"Denmark","blank2","no.birth.reg","primary",,,,,,,,5614932
"Denmark","blank2","no.birth.reg","rural",,,,,,,,5614932
"Denmark","blank2","no.birth.reg","secondary",,,,,,,,5614932
"Denmark","blank2","no.birth.reg","stunted",,,,,,,,5614932
"Denmark","blank2","no.birth.reg","under5",,,,,,,,5614932
"Denmark","blank2","no.birth.reg","urban",,,,,,,,5614932
"Denmark","blank2","no.educ","no.skilled.attendant",,,,,,,,5614932
"Denmark","blank2","no.educ","non.p20",,,,,,,,5614932
"Denmark","blank2","no.educ","p20",,,,,,,,5614932
"Denmark","blank2","no.educ","primary",,,,,,,,5614932
"Denmark","blank2","no.educ","rural",,,,,,,,5614932
"Denmark","blank2","no.educ","secondary",,,,,,,,5614932
"Denmark","blank2","no.educ","stunted",,,,,,,,5614932
"Denmark","blank2","no.educ","under5",,,,,,,,5614932
"Denmark","blank2","no.educ","urban",,,,,,,,5614932
"Denmark","blank2","no.skilled.attendant","non.p20",,,,,,,,5614932
"Denmark","blank2","no.skilled.attendant","p20",,,,,,,,5614932
"Denmark","blank2","no.skilled.attendant","primary",,,,,,,,5614932
"Denmark","blank2","no.skilled.attendant","rural",,,,,,,,5614932
"Denmark","blank2","no.skilled.attendant","secondary",,,,,,,,5614932
"Denmark","blank2","no.skilled.attendant","stunted",,,,,,,,5614932
"Denmark","blank2","no.skilled.attendant","under5",,,,,,,,5614932
"Denmark","blank2","no.skilled.attendant","urban",,,,,,,,5614932
"Denmark","blank2","non.p20","p20",100,99,1,99,0,1,0,5614932
"Denmark","blank2","non.p20","primary",,,,,,,,5614932
"Denmark","blank2","non.p20","rural",100,99,,99,,,,5614932
"Denmark","blank2","non.p20","secondary",,,,,,,,5614932
"Denmark","blank2","non.p20","stunted",,,,,,,,5614932
"Denmark","blank2","non.p20","under5",100,99,,99,,,,5614932
"Denmark","blank2","non.p20","urban",100,99,,99,,,,5614932
"Denmark","blank2","p20","primary",,,,,,,,5614932
"Denmark","blank2","p20","rural",100,1,,1,,,,5614932
"Denmark","blank2","p20","secondary",,,,,,,,5614932
"Denmark","blank2","p20","stunted",,,,,,,,5614932
"Denmark","blank2","p20","under5",100,1,,1,,,,5614932
"Denmark","blank2","p20","urban",100,1,,1,,,,5614932
"Denmark","blank2","primary","rural",,,,,,,,5614932
"Denmark","blank2","primary","secondary",,,,,,,,5614932
"Denmark","blank2","primary","stunted",,,,,,,,5614932
"Denmark","blank2","primary","under5",,,,,,,,5614932
"Denmark","blank2","primary","urban",,,,,,,,5614932
"Denmark","blank2","rural","secondary",,,,,,,,5614932
"Denmark","blank2","rural","stunted",,,,,,,,5614932
"Denmark","blank2","rural","under5",100,,,,,,,5614932
"Denmark","blank2","rural","urban",100,,,,,,,5614932
"Denmark","blank2","secondary","stunted",,,,,,,,5614932
"Denmark","blank2","secondary","under5",,,,,,,,5614932
"Denmark","blank2","secondary","urban",,,,,,,,5614932
"Denmark","blank2","stunted","under5",,,,,,,,5614932
"Denmark","blank2","stunted","urban",,,,,,,,5614932
"Denmark","blank2","under5","urban",100,,,,,,,5614932
"Denmark","ext","female","fifteento49",1,,,,,,,5614932
"Denmark","ext","female","fiveto14",1,,,,,,,5614932
"Denmark","ext","female","gt49",1,,,,,,,5614932
"Denmark","ext","female","higher",,,,,,,,5614932
"Denmark","ext","female","male",1,,,,,,,5614932
"Denmark","ext","female","no.birth.reg",,,,,,,,5614932
"Denmark","ext","female","no.educ",,,,,,,,5614932
"Denmark","ext","female","no.skilled.attendant",,,,,,,,5614932
"Denmark","ext","female","non.p20",1,,99,,,0,0,5614932
"Denmark","ext","female","p20",1,,1,,,1,,5614932
"Denmark","ext","female","primary",,,,,,,,5614932
"Denmark","ext","female","rural",1,,,,,,,5614932
"Denmark","ext","female","secondary",,,,,,,,5614932
"Denmark","ext","female","stunted",,,,,,,,5614932
"Denmark","ext","female","under5",1,,,,,,,5614932
"Denmark","ext","female","urban",1,,,,,,,5614932
"Denmark","ext","fifteento49","fiveto14",1,,,,,,,5614932
"Denmark","ext","fifteento49","gt49",1,,,,,,,5614932
"Denmark","ext","fifteento49","higher",,,,,,,,5614932
"Denmark","ext","fifteento49","male",1,,,,,,,5614932
"Denmark","ext","fifteento49","no.birth.reg",,,,,,,,5614932
"Denmark","ext","fifteento49","no.educ",,,,,,,,5614932
"Denmark","ext","fifteento49","no.skilled.attendant",,,,,,,,5614932
"Denmark","ext","fifteento49","non.p20",1,,99,,,0,0,5614932
"Denmark","ext","fifteento49","p20",1,,1,,,1,,5614932
"Denmark","ext","fifteento49","primary",,,,,,,,5614932
"Denmark","ext","fifteento49","rural",1,,,,,,,5614932
"Denmark","ext","fifteento49","secondary",,,,,,,,5614932
"Denmark","ext","fifteento49","stunted",,,,,,,,5614932
"Denmark","ext","fifteento49","under5",1,,,,,,,5614932
"Denmark","ext","fifteento49","urban",1,,,,,,,5614932
"Denmark","ext","fiveto14","gt49",1,,,,,,,5614932
"Denmark","ext","fiveto14","higher",,,,,,,,5614932
"Denmark","ext","fiveto14","male",1,,,,,,,5614932
"Denmark","ext","fiveto14","no.birth.reg",,,,,,,,5614932
"Denmark","ext","fiveto14","no.educ",,,,,,,,5614932
"Denmark","ext","fiveto14","no.skilled.attendant",,,,,,,,5614932
"Denmark","ext","fiveto14","non.p20",1,,99,,,0,0,5614932
"Denmark","ext","fiveto14","p20",1,,1,,,1,,5614932
"Denmark","ext","fiveto14","primary",,,,,,,,5614932
"Denmark","ext","fiveto14","rural",1,,,,,,,5614932
"Denmark","ext","fiveto14","secondary",,,,,,,,5614932
"Denmark","ext","fiveto14","stunted",,,,,,,,5614932
"Denmark","ext","fiveto14","under5",1,,,,,,,5614932
"Denmark","ext","fiveto14","urban",1,,,,,,,5614932
"Denmark","ext","gt49","higher",,,,,,,,5614932
"Denmark","ext","gt49","male",1,,,,,,,5614932
"Denmark","ext","gt49","no.birth.reg",,,,,,,,5614932
"Denmark","ext","gt49","no.educ",,,,,,,,5614932
"Denmark","ext","gt49","no.skilled.attendant",,,,,,,,5614932
"Denmark","ext","gt49","non.p20",1,,99,,,0,0,5614932
"Denmark","ext","gt49","p20",1,,1,,,1,,5614932
"Denmark","ext","gt49","primary",,,,,,,,5614932
"Denmark","ext","gt49","rural",1,,,,,,,5614932
"Denmark","ext","gt49","secondary",,,,,,,,5614932
"Denmark","ext","gt49","stunted",,,,,,,,5614932
"Denmark","ext","gt49","under5",1,,,,,,,5614932
"Denmark","ext","gt49","urban",1,,,,,,,5614932
"Denmark","ext","higher","male",,,,,,,,5614932
"Denmark","ext","higher","no.birth.reg",,,,,,,,5614932
"Denmark","ext","higher","no.educ",,,,,,,,5614932
"Denmark","ext","higher","no.skilled.attendant",,,,,,,,5614932
"Denmark","ext","higher","non.p20",,,,,,0,0,5614932
"Denmark","ext","higher","p20",,,,,,,,5614932
"Denmark","ext","higher","primary",,,,,,,,5614932
"Denmark","ext","higher","rural",,,,,,,,5614932
"Denmark","ext","higher","secondary",,,,,,,,5614932
"Denmark","ext","higher","stunted",,,,,,,,5614932
"Denmark","ext","higher","under5",,,,,,,,5614932
"Denmark","ext","higher","urban",,,,,,,,5614932
"Denmark","ext","male","no.birth.reg",,,,,,,,5614932
"Denmark","ext","male","no.educ",,,,,,,,5614932
"Denmark","ext","male","no.skilled.attendant",,,,,,,,5614932
"Denmark","ext","male","non.p20",1,,99,,,0,0,5614932
"Denmark","ext","male","p20",1,,1,,,1,,5614932
"Denmark","ext","male","primary",,,,,,,,5614932
"Denmark","ext","male","rural",1,,,,,,,5614932
"Denmark","ext","male","secondary",,,,,,,,5614932
"Denmark","ext","male","stunted",,,,,,,,5614932
"Denmark","ext","male","under5",1,,,,,,,5614932
"Denmark","ext","male","urban",1,,,,,,,5614932
"Denmark","ext","no.birth.reg","no.educ",,,,,,,,5614932
"Denmark","ext","no.birth.reg","no.skilled.attendant",,,,,,,,5614932
"Denmark","ext","no.birth.reg","non.p20",,,,,,0,0,5614932
"Denmark","ext","no.birth.reg","p20",,,,,,,,5614932
"Denmark","ext","no.birth.reg","primary",,,,,,,,5614932
"Denmark","ext","no.birth.reg","rural",,,,,,,,5614932
"Denmark","ext","no.birth.reg","secondary",,,,,,,,5614932
"Denmark","ext","no.birth.reg","stunted",,,,,,,,5614932
"Denmark","ext","no.birth.reg","under5",,,,,,,,5614932
"Denmark","ext","no.birth.reg","urban",,,,,,,,5614932
"Denmark","ext","no.educ","no.skilled.attendant",,,,,,,,5614932
"Denmark","ext","no.educ","non.p20",,,,,,0,0,5614932
"Denmark","ext","no.educ","p20",,,,,,,,5614932
"Denmark","ext","no.educ","primary",,,,,,,,5614932
"Denmark","ext","no.educ","rural",,,,,,,,5614932
"Denmark","ext","no.educ","secondary",,,,,,,,5614932
"Denmark","ext","no.educ","stunted",,,,,,,,5614932
"Denmark","ext","no.educ","under5",,,,,,,,5614932
"Denmark","ext","no.educ","urban",,,,,,,,5614932
"Denmark","ext","no.skilled.attendant","non.p20",,,,,,0,0,5614932
"Denmark","ext","no.skilled.attendant","p20",,,,,,,,5614932
"Denmark","ext","no.skilled.attendant","primary",,,,,,,,5614932
"Denmark","ext","no.skilled.attendant","rural",,,,,,,,5614932
"Denmark","ext","no.skilled.attendant","secondary",,,,,,,,5614932
"Denmark","ext","no.skilled.attendant","stunted",,,,,,,,5614932
"Denmark","ext","no.skilled.attendant","under5",,,,,,,,5614932
"Denmark","ext","no.skilled.attendant","urban",,,,,,,,5614932
"Denmark","ext","non.p20","p20",1,99,1,0,0,1,0,5614932
"Denmark","ext","non.p20","primary",,,,0,,,0,5614932
"Denmark","ext","non.p20","rural",1,99,,0,,,0,5614932
"Denmark","ext","non.p20","secondary",,,,0,,,0,5614932
"Denmark","ext","non.p20","stunted",,,,0,,,0,5614932
"Denmark","ext","non.p20","under5",1,99,,0,,,0,5614932
"Denmark","ext","non.p20","urban",1,99,,0,,,0,5614932
"Denmark","ext","p20","primary",,,,,,,,5614932
"Denmark","ext","p20","rural",1,1,,1,,,,5614932
"Denmark","ext","p20","secondary",,,,,,,,5614932
"Denmark","ext","p20","stunted",,,,,,,,5614932
"Denmark","ext","p20","under5",1,1,,1,,,,5614932
"Denmark","ext","p20","urban",1,1,,1,,,,5614932
"Denmark","ext","primary","rural",,,,,,,,5614932
"Denmark","ext","primary","secondary",,,,,,,,5614932
"Denmark","ext","primary","stunted",,,,,,,,5614932
"Denmark","ext","primary","under5",,,,,,,,5614932
"Denmark","ext","primary","urban",,,,,,,,5614932
"Denmark","ext","rural","secondary",,,,,,,,5614932
"Denmark","ext","rural","stunted",,,,,,,,5614932
"Denmark","ext","rural","under5",1,,,,,,,5614932
"Denmark","ext","rural","urban",1,,,,,,,5614932
"Denmark","ext","secondary","stunted",,,,,,,,5614932
"Denmark","ext","secondary","under5",,,,,,,,5614932
"Denmark","ext","secondary","urban",,,,,,,,5614932
"Denmark","ext","stunted","under5",,,,,,,,5614932
"Denmark","ext","stunted","urban",,,,,,,,5614932
"Denmark","ext","under5","urban",1,,,,,,,5614932
"Denmark","female","fifteento49","fiveto14",,,,,,,,5614932
"Denmark","female","fifteento49","gt49",,,,,,,,5614932
"Denmark","female","fifteento49","higher",,,,,,,,5614932
"Denmark","female","fifteento49","male",,,,,,,,5614932
"Denmark","female","fifteento49","no.birth.reg",,,,,,,,5614932
"Denmark","female","fifteento49","no.educ",,,,,,,,5614932
"Denmark","female","fifteento49","no.skilled.attendant",,,,,,,,5614932
"Denmark","female","fifteento49","non.p20",,,99,,,,,5614932
"Denmark","female","fifteento49","p20",,,1,,,,,5614932
"Denmark","female","fifteento49","primary",,,,,,,,5614932
"Denmark","female","fifteento49","rural",,,,,,,,5614932
"Denmark","female","fifteento49","secondary",,,,,,,,5614932
"Denmark","female","fifteento49","stunted",,,,,,,,5614932
"Denmark","female","fifteento49","under5",,,,,,,,5614932
"Denmark","female","fifteento49","urban",,,,,,,,5614932
"Denmark","female","fiveto14","gt49",,,,,,,,5614932
"Denmark","female","fiveto14","higher",,,,,,,,5614932
"Denmark","female","fiveto14","male",,,,,,,,5614932
"Denmark","female","fiveto14","no.birth.reg",,,,,,,,5614932
"Denmark","female","fiveto14","no.educ",,,,,,,,5614932
"Denmark","female","fiveto14","no.skilled.attendant",,,,,,,,5614932
"Denmark","female","fiveto14","non.p20",,,99,,,,,5614932
"Denmark","female","fiveto14","p20",,,1,,,,,5614932
"Denmark","female","fiveto14","primary",,,,,,,,5614932
"Denmark","female","fiveto14","rural",,,,,,,,5614932
"Denmark","female","fiveto14","secondary",,,,,,,,5614932
"Denmark","female","fiveto14","stunted",,,,,,,,5614932
"Denmark","female","fiveto14","under5",,,,,,,,5614932
"Denmark","female","fiveto14","urban",,,,,,,,5614932
"Denmark","female","gt49","higher",,,,,,,,5614932
"Denmark","female","gt49","male",,,,,,,,5614932
"Denmark","female","gt49","no.birth.reg",,,,,,,,5614932
"Denmark","female","gt49","no.educ",,,,,,,,5614932
"Denmark","female","gt49","no.skilled.attendant",,,,,,,,5614932
"Denmark","female","gt49","non.p20",,,99,,,,,5614932
"Denmark","female","gt49","p20",,,1,,,,,5614932
"Denmark","female","gt49","primary",,,,,,,,5614932
"Denmark","female","gt49","rural",,,,,,,,5614932
"Denmark","female","gt49","secondary",,,,,,,,5614932
"Denmark","female","gt49","stunted",,,,,,,,5614932
"Denmark","female","gt49","under5",,,,,,,,5614932
"Denmark","female","gt49","urban",,,,,,,,5614932
"Denmark","female","higher","male",,,,,,,,5614932
"Denmark","female","higher","no.birth.reg",,,,,,,,5614932
"Denmark","female","higher","no.educ",,,,,,,,5614932
"Denmark","female","higher","no.skilled.attendant",,,,,,,,5614932
"Denmark","female","higher","non.p20",,,,,,,,5614932
"Denmark","female","higher","p20",,,,,,,,5614932
"Denmark","female","higher","primary",,,,,,,,5614932
"Denmark","female","higher","rural",,,,,,,,5614932
"Denmark","female","higher","secondary",,,,,,,,5614932
"Denmark","female","higher","stunted",,,,,,,,5614932
"Denmark","female","higher","under5",,,,,,,,5614932
"Denmark","female","higher","urban",,,,,,,,5614932
"Denmark","female","male","no.birth.reg",,,,,,,,5614932
"Denmark","female","male","no.educ",,,,,,,,5614932
"Denmark","female","male","no.skilled.attendant",,,,,,,,5614932
"Denmark","female","male","non.p20",,,99,,,,,5614932
"Denmark","female","male","p20",,,1,,,,,5614932
"Denmark","female","male","primary",,,,,,,,5614932
"Denmark","female","male","rural",,,,,,,,5614932
"Denmark","female","male","secondary",,,,,,,,5614932
"Denmark","female","male","stunted",,,,,,,,5614932
"Denmark","female","male","under5",,,,,,,,5614932
"Denmark","female","male","urban",,,,,,,,5614932
"Denmark","female","no.birth.reg","no.educ",,,,,,,,5614932
"Denmark","female","no.birth.reg","no.skilled.attendant",,,,,,,,5614932
"Denmark","female","no.birth.reg","non.p20",,,,,,,,5614932
"Denmark","female","no.birth.reg","p20",,,,,,,,5614932
"Denmark","female","no.birth.reg","primary",,,,,,,,5614932
"Denmark","female","no.birth.reg","rural",,,,,,,,5614932
"Denmark","female","no.birth.reg","secondary",,,,,,,,5614932
"Denmark","female","no.birth.reg","stunted",,,,,,,,5614932
"Denmark","female","no.birth.reg","under5",,,,,,,,5614932
"Denmark","female","no.birth.reg","urban",,,,,,,,5614932
"Denmark","female","no.educ","no.skilled.attendant",,,,,,,,5614932
"Denmark","female","no.educ","non.p20",,,,,,,,5614932
"Denmark","female","no.educ","p20",,,,,,,,5614932
"Denmark","female","no.educ","primary",,,,,,,,5614932
"Denmark","female","no.educ","rural",,,,,,,,5614932
"Denmark","female","no.educ","secondary",,,,,,,,5614932
"Denmark","female","no.educ","stunted",,,,,,,,5614932
"Denmark","female","no.educ","under5",,,,,,,,5614932
"Denmark","female","no.educ","urban",,,,,,,,5614932
"Denmark","female","no.skilled.attendant","non.p20",,,,,,,,5614932
"Denmark","female","no.skilled.attendant","p20",,,,,,,,5614932
"Denmark","female","no.skilled.attendant","primary",,,,,,,,5614932
"Denmark","female","no.skilled.attendant","rural",,,,,,,,5614932
"Denmark","female","no.skilled.attendant","secondary",,,,,,,,5614932
"Denmark","female","no.skilled.attendant","stunted",,,,,,,,5614932
"Denmark","female","no.skilled.attendant","under5",,,,,,,,5614932
"Denmark","female","no.skilled.attendant","urban",,,,,,,,5614932
"Denmark","female","non.p20","p20",,99,1,,0,,0,5614932
"Denmark","female","non.p20","primary",,,,,,,,5614932
"Denmark","female","non.p20","rural",,99,,,,,,5614932
"Denmark","female","non.p20","secondary",,,,,,,,5614932
"Denmark","female","non.p20","stunted",,,,,,,,5614932
"Denmark","female","non.p20","under5",,99,,,,,,5614932
"Denmark","female","non.p20","urban",,99,,,,,,5614932
"Denmark","female","p20","primary",,,,,,,,5614932
"Denmark","female","p20","rural",,1,,,,,,5614932
"Denmark","female","p20","secondary",,,,,,,,5614932
"Denmark","female","p20","stunted",,,,,,,,5614932
"Denmark","female","p20","under5",,1,,,,,,5614932
"Denmark","female","p20","urban",,1,,,,,,5614932
"Denmark","female","primary","rural",,,,,,,,5614932
"Denmark","female","primary","secondary",,,,,,,,5614932
"Denmark","female","primary","stunted",,,,,,,,5614932
"Denmark","female","primary","under5",,,,,,,,5614932
"Denmark","female","primary","urban",,,,,,,,5614932
"Denmark","female","rural","secondary",,,,,,,,5614932
"Denmark","female","rural","stunted",,,,,,,,5614932
"Denmark","female","rural","under5",,,,,,,,5614932
"Denmark","female","rural","urban",,,,,,,,5614932
"Denmark","female","secondary","stunted",,,,,,,,5614932
"Denmark","female","secondary","under5",,,,,,,,5614932
"Denmark","female","secondary","urban",,,,,,,,5614932
"Denmark","female","stunted","under5",,,,,,,,5614932
"Denmark","female","stunted","urban",,,,,,,,5614932
"Denmark","female","under5","urban",,,,,,,,5614932
"Denmark","fifteento49","fiveto14","gt49",,,,,,,,5614932
"Denmark","fifteento49","fiveto14","higher",,,,,,,,5614932
"Denmark","fifteento49","fiveto14","male",,,,,,,,5614932
"Denmark","fifteento49","fiveto14","no.birth.reg",,,,,,,,5614932
"Denmark","fifteento49","fiveto14","no.educ",,,,,,,,5614932
"Denmark","fifteento49","fiveto14","no.skilled.attendant",,,,,,,,5614932
"Denmark","fifteento49","fiveto14","non.p20",,,99,,,,,5614932
"Denmark","fifteento49","fiveto14","p20",,,1,,,,,5614932
"Denmark","fifteento49","fiveto14","primary",,,,,,,,5614932
"Denmark","fifteento49","fiveto14","rural",,,,,,,,5614932
"Denmark","fifteento49","fiveto14","secondary",,,,,,,,5614932
"Denmark","fifteento49","fiveto14","stunted",,,,,,,,5614932
"Denmark","fifteento49","fiveto14","under5",,,,,,,,5614932
"Denmark","fifteento49","fiveto14","urban",,,,,,,,5614932
"Denmark","fifteento49","gt49","higher",,,,,,,,5614932
"Denmark","fifteento49","gt49","male",,,,,,,,5614932
"Denmark","fifteento49","gt49","no.birth.reg",,,,,,,,5614932
"Denmark","fifteento49","gt49","no.educ",,,,,,,,5614932
"Denmark","fifteento49","gt49","no.skilled.attendant",,,,,,,,5614932
"Denmark","fifteento49","gt49","non.p20",,,99,,,,,5614932
"Denmark","fifteento49","gt49","p20",,,1,,,,,5614932
"Denmark","fifteento49","gt49","primary",,,,,,,,5614932
"Denmark","fifteento49","gt49","rural",,,,,,,,5614932
"Denmark","fifteento49","gt49","secondary",,,,,,,,5614932
"Denmark","fifteento49","gt49","stunted",,,,,,,,5614932
"Denmark","fifteento49","gt49","under5",,,,,,,,5614932
"Denmark","fifteento49","gt49","urban",,,,,,,,5614932
"Denmark","fifteento49","higher","male",,,,,,,,5614932
"Denmark","fifteento49","higher","no.birth.reg",,,,,,,,5614932
"Denmark","fifteento49","higher","no.educ",,,,,,,,5614932
"Denmark","fifteento49","higher","no.skilled.attendant",,,,,,,,5614932
"Denmark","fifteento49","higher","non.p20",,,,,,,,5614932
"Denmark","fifteento49","higher","p20",,,,,,,,5614932
"Denmark","fifteento49","higher","primary",,,,,,,,5614932
"Denmark","fifteento49","higher","rural",,,,,,,,5614932
"Denmark","fifteento49","higher","secondary",,,,,,,,5614932
"Denmark","fifteento49","higher","stunted",,,,,,,,5614932
"Denmark","fifteento49","higher","under5",,,,,,,,5614932
"Denmark","fifteento49","higher","urban",,,,,,,,5614932
"Denmark","fifteento49","male","no.birth.reg",,,,,,,,5614932
"Denmark","fifteento49","male","no.educ",,,,,,,,5614932
"Denmark","fifteento49","male","no.skilled.attendant",,,,,,,,5614932
"Denmark","fifteento49","male","non.p20",,,99,,,,,5614932
"Denmark","fifteento49","male","p20",,,1,,,,,5614932
"Denmark","fifteento49","male","primary",,,,,,,,5614932
"Denmark","fifteento49","male","rural",,,,,,,,5614932
"Denmark","fifteento49","male","secondary",,,,,,,,5614932
"Denmark","fifteento49","male","stunted",,,,,,,,5614932
"Denmark","fifteento49","male","under5",,,,,,,,5614932
"Denmark","fifteento49","male","urban",,,,,,,,5614932
"Denmark","fifteento49","no.birth.reg","no.educ",,,,,,,,5614932
"Denmark","fifteento49","no.birth.reg","no.skilled.attendant",,,,,,,,5614932
"Denmark","fifteento49","no.birth.reg","non.p20",,,,,,,,5614932
"Denmark","fifteento49","no.birth.reg","p20",,,,,,,,5614932
"Denmark","fifteento49","no.birth.reg","primary",,,,,,,,5614932
"Denmark","fifteento49","no.birth.reg","rural",,,,,,,,5614932
"Denmark","fifteento49","no.birth.reg","secondary",,,,,,,,5614932
"Denmark","fifteento49","no.birth.reg","stunted",,,,,,,,5614932
"Denmark","fifteento49","no.birth.reg","under5",,,,,,,,5614932
"Denmark","fifteento49","no.birth.reg","urban",,,,,,,,5614932
"Denmark","fifteento49","no.educ","no.skilled.attendant",,,,,,,,5614932
"Denmark","fifteento49","no.educ","non.p20",,,,,,,,5614932
"Denmark","fifteento49","no.educ","p20",,,,,,,,5614932
"Denmark","fifteento49","no.educ","primary",,,,,,,,5614932
"Denmark","fifteento49","no.educ","rural",,,,,,,,5614932
"Denmark","fifteento49","no.educ","secondary",,,,,,,,5614932
"Denmark","fifteento49","no.educ","stunted",,,,,,,,5614932
"Denmark","fifteento49","no.educ","under5",,,,,,,,5614932
"Denmark","fifteento49","no.educ","urban",,,,,,,,5614932
"Denmark","fifteento49","no.skilled.attendant","non.p20",,,,,,,,5614932
"Denmark","fifteento49","no.skilled.attendant","p20",,,,,,,,5614932
"Denmark","fifteento49","no.skilled.attendant","primary",,,,,,,,5614932
"Denmark","fifteento49","no.skilled.attendant","rural",,,,,,,,5614932
"Denmark","fifteento49","no.skilled.attendant","secondary",,,,,,,,5614932
"Denmark","fifteento49","no.skilled.attendant","stunted",,,,,,,,5614932
"Denmark","fifteento49","no.skilled.attendant","under5",,,,,,,,5614932
"Denmark","fifteento49","no.skilled.attendant","urban",,,,,,,,5614932
"Denmark","fifteento49","non.p20","p20",,99,1,,0,,0,5614932
"Denmark","fifteento49","non.p20","primary",,,,,,,,5614932
"Denmark","fifteento49","non.p20","rural",,99,,,,,,5614932
"Denmark","fifteento49","non.p20","secondary",,,,,,,,5614932
"Denmark","fifteento49","non.p20","stunted",,,,,,,,5614932
"Denmark","fifteento49","non.p20","under5",,99,,,,,,5614932
"Denmark","fifteento49","non.p20","urban",,99,,,,,,5614932
"Denmark","fifteento49","p20","primary",,,,,,,,5614932
"Denmark","fifteento49","p20","rural",,1,,,,,,5614932
"Denmark","fifteento49","p20","secondary",,,,,,,,5614932
"Denmark","fifteento49","p20","stunted",,,,,,,,5614932
"Denmark","fifteento49","p20","under5",,1,,,,,,5614932
"Denmark","fifteento49","p20","urban",,1,,,,,,5614932
"Denmark","fifteento49","primary","rural",,,,,,,,5614932
"Denmark","fifteento49","primary","secondary",,,,,,,,5614932
"Denmark","fifteento49","primary","stunted",,,,,,,,5614932
"Denmark","fifteento49","primary","under5",,,,,,,,5614932
"Denmark","fifteento49","primary","urban",,,,,,,,5614932
"Denmark","fifteento49","rural","secondary",,,,,,,,5614932
"Denmark","fifteento49","rural","stunted",,,,,,,,5614932
"Denmark","fifteento49","rural","under5",,,,,,,,5614932
"Denmark","fifteento49","rural","urban",,,,,,,,5614932
"Denmark","fifteento49","secondary","stunted",,,,,,,,5614932
"Denmark","fifteento49","secondary","under5",,,,,,,,5614932
"Denmark","fifteento49","secondary","urban",,,,,,,,5614932
"Denmark","fifteento49","stunted","under5",,,,,,,,5614932
"Denmark","fifteento49","stunted","urban",,,,,,,,5614932
"Denmark","fifteento49","under5","urban",,,,,,,,5614932
"Denmark","fiveto14","gt49","higher",,,,,,,,5614932
"Denmark","fiveto14","gt49","male",,,,,,,,5614932
"Denmark","fiveto14","gt49","no.birth.reg",,,,,,,,5614932
"Denmark","fiveto14","gt49","no.educ",,,,,,,,5614932
"Denmark","fiveto14","gt49","no.skilled.attendant",,,,,,,,5614932
"Denmark","fiveto14","gt49","non.p20",,,99,,,,,5614932
"Denmark","fiveto14","gt49","p20",,,1,,,,,5614932
"Denmark","fiveto14","gt49","primary",,,,,,,,5614932
"Denmark","fiveto14","gt49","rural",,,,,,,,5614932
"Denmark","fiveto14","gt49","secondary",,,,,,,,5614932
"Denmark","fiveto14","gt49","stunted",,,,,,,,5614932
"Denmark","fiveto14","gt49","under5",,,,,,,,5614932
"Denmark","fiveto14","gt49","urban",,,,,,,,5614932
"Denmark","fiveto14","higher","male",,,,,,,,5614932
"Denmark","fiveto14","higher","no.birth.reg",,,,,,,,5614932
"Denmark","fiveto14","higher","no.educ",,,,,,,,5614932
"Denmark","fiveto14","higher","no.skilled.attendant",,,,,,,,5614932
"Denmark","fiveto14","higher","non.p20",,,,,,,,5614932
"Denmark","fiveto14","higher","p20",,,,,,,,5614932
"Denmark","fiveto14","higher","primary",,,,,,,,5614932
"Denmark","fiveto14","higher","rural",,,,,,,,5614932
"Denmark","fiveto14","higher","secondary",,,,,,,,5614932
"Denmark","fiveto14","higher","stunted",,,,,,,,5614932
"Denmark","fiveto14","higher","under5",,,,,,,,5614932
"Denmark","fiveto14","higher","urban",,,,,,,,5614932
"Denmark","fiveto14","male","no.birth.reg",,,,,,,,5614932
"Denmark","fiveto14","male","no.educ",,,,,,,,5614932
"Denmark","fiveto14","male","no.skilled.attendant",,,,,,,,5614932
"Denmark","fiveto14","male","non.p20",,,99,,,,,5614932
"Denmark","fiveto14","male","p20",,,1,,,,,5614932
"Denmark","fiveto14","male","primary",,,,,,,,5614932
"Denmark","fiveto14","male","rural",,,,,,,,5614932
"Denmark","fiveto14","male","secondary",,,,,,,,5614932
"Denmark","fiveto14","male","stunted",,,,,,,,5614932
"Denmark","fiveto14","male","under5",,,,,,,,5614932
"Denmark","fiveto14","male","urban",,,,,,,,5614932
"Denmark","fiveto14","no.birth.reg","no.educ",,,,,,,,5614932
"Denmark","fiveto14","no.birth.reg","no.skilled.attendant",,,,,,,,5614932
"Denmark","fiveto14","no.birth.reg","non.p20",,,,,,,,5614932
"Denmark","fiveto14","no.birth.reg","p20",,,,,,,,5614932
"Denmark","fiveto14","no.birth.reg","primary",,,,,,,,5614932
"Denmark","fiveto14","no.birth.reg","rural",,,,,,,,5614932
"Denmark","fiveto14","no.birth.reg","secondary",,,,,,,,5614932
"Denmark","fiveto14","no.birth.reg","stunted",,,,,,,,5614932
"Denmark","fiveto14","no.birth.reg","under5",,,,,,,,5614932
"Denmark","fiveto14","no.birth.reg","urban",,,,,,,,5614932
"Denmark","fiveto14","no.educ","no.skilled.attendant",,,,,,,,5614932
"Denmark","fiveto14","no.educ","non.p20",,,,,,,,5614932
"Denmark","fiveto14","no.educ","p20",,,,,,,,5614932
"Denmark","fiveto14","no.educ","primary",,,,,,,,5614932
"Denmark","fiveto14","no.educ","rural",,,,,,,,5614932
"Denmark","fiveto14","no.educ","secondary",,,,,,,,5614932
"Denmark","fiveto14","no.educ","stunted",,,,,,,,5614932
"Denmark","fiveto14","no.educ","under5",,,,,,,,5614932
"Denmark","fiveto14","no.educ","urban",,,,,,,,5614932
"Denmark","fiveto14","no.skilled.attendant","non.p20",,,,,,,,5614932
"Denmark","fiveto14","no.skilled.attendant","p20",,,,,,,,5614932
"Denmark","fiveto14","no.skilled.attendant","primary",,,,,,,,5614932
"Denmark","fiveto14","no.skilled.attendant","rural",,,,,,,,5614932
"Denmark","fiveto14","no.skilled.attendant","secondary",,,,,,,,5614932
"Denmark","fiveto14","no.skilled.attendant","stunted",,,,,,,,5614932
"Denmark","fiveto14","no.skilled.attendant","under5",,,,,,,,5614932
"Denmark","fiveto14","no.skilled.attendant","urban",,,,,,,,5614932
"Denmark","fiveto14","non.p20","p20",,99,1,,0,,0,5614932
"Denmark","fiveto14","non.p20","primary",,,,,,,,5614932
"Denmark","fiveto14","non.p20","rural",,99,,,,,,5614932
"Denmark","fiveto14","non.p20","secondary",,,,,,,,5614932
"Denmark","fiveto14","non.p20","stunted",,,,,,,,5614932
"Denmark","fiveto14","non.p20","under5",,99,,,,,,5614932
"Denmark","fiveto14","non.p20","urban",,99,,,,,,5614932
"Denmark","fiveto14","p20","primary",,,,,,,,5614932
"Denmark","fiveto14","p20","rural",,1,,,,,,5614932
"Denmark","fiveto14","p20","secondary",,,,,,,,5614932
"Denmark","fiveto14","p20","stunted",,,,,,,,5614932
"Denmark","fiveto14","p20","under5",,1,,,,,,5614932
"Denmark","fiveto14","p20","urban",,1,,,,,,5614932
"Denmark","fiveto14","primary","rural",,,,,,,,5614932
"Denmark","fiveto14","primary","secondary",,,,,,,,5614932
"Denmark","fiveto14","primary","stunted",,,,,,,,5614932
"Denmark","fiveto14","primary","under5",,,,,,,,5614932
"Denmark","fiveto14","primary","urban",,,,,,,,5614932
"Denmark","fiveto14","rural","secondary",,,,,,,,5614932
"Denmark","fiveto14","rural","stunted",,,,,,,,5614932
"Denmark","fiveto14","rural","under5",,,,,,,,5614932
"Denmark","fiveto14","rural","urban",,,,,,,,5614932
"Denmark","fiveto14","secondary","stunted",,,,,,,,5614932
"Denmark","fiveto14","secondary","under5",,,,,,,,5614932
"Denmark","fiveto14","secondary","urban",,,,,,,,5614932
"Denmark","fiveto14","stunted","under5",,,,,,,,5614932
"Denmark","fiveto14","stunted","urban",,,,,,,,5614932
"Denmark","fiveto14","under5","urban",,,,,,,,5614932
"Denmark","gt49","higher","male",,,,,,,,5614932
"Denmark","gt49","higher","no.birth.reg",,,,,,,,5614932
"Denmark","gt49","higher","no.educ",,,,,,,,5614932
"Denmark","gt49","higher","no.skilled.attendant",,,,,,,,5614932
"Denmark","gt49","higher","non.p20",,,,,,,,5614932
"Denmark","gt49","higher","p20",,,,,,,,5614932
"Denmark","gt49","higher","primary",,,,,,,,5614932
"Denmark","gt49","higher","rural",,,,,,,,5614932
"Denmark","gt49","higher","secondary",,,,,,,,5614932
"Denmark","gt49","higher","stunted",,,,,,,,5614932
"Denmark","gt49","higher","under5",,,,,,,,5614932
"Denmark","gt49","higher","urban",,,,,,,,5614932
"Denmark","gt49","male","no.birth.reg",,,,,,,,5614932
"Denmark","gt49","male","no.educ",,,,,,,,5614932
"Denmark","gt49","male","no.skilled.attendant",,,,,,,,5614932
"Denmark","gt49","male","non.p20",,,99,,,,,5614932
"Denmark","gt49","male","p20",,,1,,,,,5614932
"Denmark","gt49","male","primary",,,,,,,,5614932
"Denmark","gt49","male","rural",,,,,,,,5614932
"Denmark","gt49","male","secondary",,,,,,,,5614932
"Denmark","gt49","male","stunted",,,,,,,,5614932
"Denmark","gt49","male","under5",,,,,,,,5614932
"Denmark","gt49","male","urban",,,,,,,,5614932
"Denmark","gt49","no.birth.reg","no.educ",,,,,,,,5614932
"Denmark","gt49","no.birth.reg","no.skilled.attendant",,,,,,,,5614932
"Denmark","gt49","no.birth.reg","non.p20",,,,,,,,5614932
"Denmark","gt49","no.birth.reg","p20",,,,,,,,5614932
"Denmark","gt49","no.birth.reg","primary",,,,,,,,5614932
"Denmark","gt49","no.birth.reg","rural",,,,,,,,5614932
"Denmark","gt49","no.birth.reg","secondary",,,,,,,,5614932
"Denmark","gt49","no.birth.reg","stunted",,,,,,,,5614932
"Denmark","gt49","no.birth.reg","under5",,,,,,,,5614932
"Denmark","gt49","no.birth.reg","urban",,,,,,,,5614932
"Denmark","gt49","no.educ","no.skilled.attendant",,,,,,,,5614932
"Denmark","gt49","no.educ","non.p20",,,,,,,,5614932
"Denmark","gt49","no.educ","p20",,,,,,,,5614932
"Denmark","gt49","no.educ","primary",,,,,,,,5614932
"Denmark","gt49","no.educ","rural",,,,,,,,5614932
"Denmark","gt49","no.educ","secondary",,,,,,,,5614932
"Denmark","gt49","no.educ","stunted",,,,,,,,5614932
"Denmark","gt49","no.educ","under5",,,,,,,,5614932
"Denmark","gt49","no.educ","urban",,,,,,,,5614932
"Denmark","gt49","no.skilled.attendant","non.p20",,,,,,,,5614932
"Denmark","gt49","no.skilled.attendant","p20",,,,,,,,5614932
"Denmark","gt49","no.skilled.attendant","primary",,,,,,,,5614932
"Denmark","gt49","no.skilled.attendant","rural",,,,,,,,5614932
"Denmark","gt49","no.skilled.attendant","secondary",,,,,,,,5614932
"Denmark","gt49","no.skilled.attendant","stunted",,,,,,,,5614932
"Denmark","gt49","no.skilled.attendant","under5",,,,,,,,5614932
"Denmark","gt49","no.skilled.attendant","urban",,,,,,,,5614932
"Denmark","gt49","non.p20","p20",,99,1,,0,,0,5614932
"Denmark","gt49","non.p20","primary",,,,,,,,5614932
"Denmark","gt49","non.p20","rural",,99,,,,,,5614932
"Denmark","gt49","non.p20","secondary",,,,,,,,5614932
"Denmark","gt49","non.p20","stunted",,,,,,,,5614932
"Denmark","gt49","non.p20","under5",,99,,,,,,5614932
"Denmark","gt49","non.p20","urban",,99,,,,,,5614932
"Denmark","gt49","p20","primary",,,,,,,,5614932
"Denmark","gt49","p20","rural",,1,,,,,,5614932
"Denmark","gt49","p20","secondary",,,,,,,,5614932
"Denmark","gt49","p20","stunted",,,,,,,,5614932
"Denmark","gt49","p20","under5",,1,,,,,,5614932
"Denmark","gt49","p20","urban",,1,,,,,,5614932
"Denmark","gt49","primary","rural",,,,,,,,5614932
"Denmark","gt49","primary","secondary",,,,,,,,5614932
"Denmark","gt49","primary","stunted",,,,,,,,5614932
"Denmark","gt49","primary","under5",,,,,,,,5614932
"Denmark","gt49","primary","urban",,,,,,,,5614932
"Denmark","gt49","rural","secondary",,,,,,,,5614932
"Denmark","gt49","rural","stunted",,,,,,,,5614932
"Denmark","gt49","rural","under5",,,,,,,,5614932
"Denmark","gt49","rural","urban",,,,,,,,5614932
"Denmark","gt49","secondary","stunted",,,,,,,,5614932
"Denmark","gt49","secondary","under5",,,,,,,,5614932
"Denmark","gt49","secondary","urban",,,,,,,,5614932
"Denmark","gt49","stunted","under5",,,,,,,,5614932
"Denmark","gt49","stunted","urban",,,,,,,,5614932
"Denmark","gt49","under5","urban",,,,,,,,5614932
"Denmark","higher","male","no.birth.reg",,,,,,,,5614932
"Denmark","higher","male","no.educ",,,,,,,,5614932
"Denmark","higher","male","no.skilled.attendant",,,,,,,,5614932
"Denmark","higher","male","non.p20",,,,,,,,5614932
"Denmark","higher","male","p20",,,,,,,,5614932
"Denmark","higher","male","primary",,,,,,,,5614932
"Denmark","higher","male","rural",,,,,,,,5614932
"Denmark","higher","male","secondary",,,,,,,,5614932
"Denmark","higher","male","stunted",,,,,,,,5614932
"Denmark","higher","male","under5",,,,,,,,5614932
"Denmark","higher","male","urban",,,,,,,,5614932
"Denmark","higher","no.birth.reg","no.educ",,,,,,,,5614932
"Denmark","higher","no.birth.reg","no.skilled.attendant",,,,,,,,5614932
"Denmark","higher","no.birth.reg","non.p20",,,,,,,,5614932
"Denmark","higher","no.birth.reg","p20",,,,,,,,5614932
"Denmark","higher","no.birth.reg","primary",,,,,,,,5614932
"Denmark","higher","no.birth.reg","rural",,,,,,,,5614932
"Denmark","higher","no.birth.reg","secondary",,,,,,,,5614932
"Denmark","higher","no.birth.reg","stunted",,,,,,,,5614932
"Denmark","higher","no.birth.reg","under5",,,,,,,,5614932
"Denmark","higher","no.birth.reg","urban",,,,,,,,5614932
"Denmark","higher","no.educ","no.skilled.attendant",,,,,,,,5614932
"Denmark","higher","no.educ","non.p20",,,,,,,,5614932
"Denmark","higher","no.educ","p20",,,,,,,,5614932
"Denmark","higher","no.educ","primary",,,,,,,,5614932
"Denmark","higher","no.educ","rural",,,,,,,,5614932
"Denmark","higher","no.educ","secondary",,,,,,,,5614932
"Denmark","higher","no.educ","stunted",,,,,,,,5614932
"Denmark","higher","no.educ","under5",,,,,,,,5614932
"Denmark","higher","no.educ","urban",,,,,,,,5614932
"Denmark","higher","no.skilled.attendant","non.p20",,,,,,,,5614932
"Denmark","higher","no.skilled.attendant","p20",,,,,,,,5614932
"Denmark","higher","no.skilled.attendant","primary",,,,,,,,5614932
"Denmark","higher","no.skilled.attendant","rural",,,,,,,,5614932
"Denmark","higher","no.skilled.attendant","secondary",,,,,,,,5614932
"Denmark","higher","no.skilled.attendant","stunted",,,,,,,,5614932
"Denmark","higher","no.skilled.attendant","under5",,,,,,,,5614932
"Denmark","higher","no.skilled.attendant","urban",,,,,,,,5614932
"Denmark","higher","non.p20","p20",,,,,0,,0,5614932
"Denmark","higher","non.p20","primary",,,,,,,,5614932
"Denmark","higher","non.p20","rural",,,,,,,,5614932
"Denmark","higher","non.p20","secondary",,,,,,,,5614932
"Denmark","higher","non.p20","stunted",,,,,,,,5614932
"Denmark","higher","non.p20","under5",,,,,,,,5614932
"Denmark","higher","non.p20","urban",,,,,,,,5614932
"Denmark","higher","p20","primary",,,,,,,,5614932
"Denmark","higher","p20","rural",,,,,,,,5614932
"Denmark","higher","p20","secondary",,,,,,,,5614932
"Denmark","higher","p20","stunted",,,,,,,,5614932
"Denmark","higher","p20","under5",,,,,,,,5614932
"Denmark","higher","p20","urban",,,,,,,,5614932
"Denmark","higher","primary","rural",,,,,,,,5614932
"Denmark","higher","primary","secondary",,,,,,,,5614932
"Denmark","higher","primary","stunted",,,,,,,,5614932
"Denmark","higher","primary","under5",,,,,,,,5614932
"Denmark","higher","primary","urban",,,,,,,,5614932
"Denmark","higher","rural","secondary",,,,,,,,5614932
"Denmark","higher","rural","stunted",,,,,,,,5614932
"Denmark","higher","rural","under5",,,,,,,,5614932
"Denmark","higher","rural","urban",,,,,,,,5614932
"Denmark","higher","secondary","stunted",,,,,,,,5614932
"Denmark","higher","secondary","under5",,,,,,,,5614932
"Denmark","higher","secondary","urban",,,,,,,,5614932
"Denmark","higher","stunted","under5",,,,,,,,5614932
"Denmark","higher","stunted","urban",,,,,,,,5614932
"Denmark","higher","under5","urban",,,,,,,,5614932
"Denmark","male","no.birth.reg","no.educ",,,,,,,,5614932
"Denmark","male","no.birth.reg","no.skilled.attendant",,,,,,,,5614932
"Denmark","male","no.birth.reg","non.p20",,,,,,,,5614932
"Denmark","male","no.birth.reg","p20",,,,,,,,5614932
"Denmark","male","no.birth.reg","primary",,,,,,,,5614932
"Denmark","male","no.birth.reg","rural",,,,,,,,5614932
"Denmark","male","no.birth.reg","secondary",,,,,,,,5614932
"Denmark","male","no.birth.reg","stunted",,,,,,,,5614932
"Denmark","male","no.birth.reg","under5",,,,,,,,5614932
"Denmark","male","no.birth.reg","urban",,,,,,,,5614932
"Denmark","male","no.educ","no.skilled.attendant",,,,,,,,5614932
"Denmark","male","no.educ","non.p20",,,,,,,,5614932
"Denmark","male","no.educ","p20",,,,,,,,5614932
"Denmark","male","no.educ","primary",,,,,,,,5614932
"Denmark","male","no.educ","rural",,,,,,,,5614932
"Denmark","male","no.educ","secondary",,,,,,,,5614932
"Denmark","male","no.educ","stunted",,,,,,,,5614932
"Denmark","male","no.educ","under5",,,,,,,,5614932
"Denmark","male","no.educ","urban",,,,,,,,5614932
"Denmark","male","no.skilled.attendant","non.p20",,,,,,,,5614932
"Denmark","male","no.skilled.attendant","p20",,,,,,,,5614932
"Denmark","male","no.skilled.attendant","primary",,,,,,,,5614932
"Denmark","male","no.skilled.attendant","rural",,,,,,,,5614932
"Denmark","male","no.skilled.attendant","secondary",,,,,,,,5614932
"Denmark","male","no.skilled.attendant","stunted",,,,,,,,5614932
"Denmark","male","no.skilled.attendant","under5",,,,,,,,5614932
"Denmark","male","no.skilled.attendant","urban",,,,,,,,5614932
"Denmark","male","non.p20","p20",,99,1,,0,,0,5614932
"Denmark","male","non.p20","primary",,,,,,,,5614932
"Denmark","male","non.p20","rural",,99,,,,,,5614932
"Denmark","male","non.p20","secondary",,,,,,,,5614932
"Denmark","male","non.p20","stunted",,,,,,,,5614932
"Denmark","male","non.p20","under5",,99,,,,,,5614932
"Denmark","male","non.p20","urban",,99,,,,,,5614932
"Denmark","male","p20","primary",,,,,,,,5614932
"Denmark","male","p20","rural",,1,,,,,,5614932
"Denmark","male","p20","secondary",,,,,,,,5614932
"Denmark","male","p20","stunted",,,,,,,,5614932
"Denmark","male","p20","under5",,1,,,,,,5614932
"Denmark","male","p20","urban",,1,,,,,,5614932
"Denmark","male","primary","rural",,,,,,,,5614932
"Denmark","male","primary","secondary",,,,,,,,5614932
"Denmark","male","primary","stunted",,,,,,,,5614932
"Denmark","male","primary","under5",,,,,,,,5614932
"Denmark","male","primary","urban",,,,,,,,5614932
"Denmark","male","rural","secondary",,,,,,,,5614932
"Denmark","male","rural","stunted",,,,,,,,5614932
"Denmark","male","rural","under5",,,,,,,,5614932
"Denmark","male","rural","urban",,,,,,,,5614932
"Denmark","male","secondary","stunted",,,,,,,,5614932
"Denmark","male","secondary","under5",,,,,,,,5614932
"Denmark","male","secondary","urban",,,,,,,,5614932
"Denmark","male","stunted","under5",,,,,,,,5614932
"Denmark","male","stunted","urban",,,,,,,,5614932
"Denmark","male","under5","urban",,,,,,,,5614932
"Denmark","no.birth.reg","no.educ","no.skilled.attendant",,,,,,,,5614932
"Denmark","no.birth.reg","no.educ","non.p20",,,,,,,,5614932
"Denmark","no.birth.reg","no.educ","p20",,,,,,,,5614932
"Denmark","no.birth.reg","no.educ","primary",,,,,,,,5614932
"Denmark","no.birth.reg","no.educ","rural",,,,,,,,5614932
"Denmark","no.birth.reg","no.educ","secondary",,,,,,,,5614932
"Denmark","no.birth.reg","no.educ","stunted",,,,,,,,5614932
"Denmark","no.birth.reg","no.educ","under5",,,,,,,,5614932
"Denmark","no.birth.reg","no.educ","urban",,,,,,,,5614932
"Denmark","no.birth.reg","no.skilled.attendant","non.p20",,,,,,,,5614932
"Denmark","no.birth.reg","no.skilled.attendant","p20",,,,,,,,5614932
"Denmark","no.birth.reg","no.skilled.attendant","primary",,,,,,,,5614932
"Denmark","no.birth.reg","no.skilled.attendant","rural",,,,,,,,5614932
"Denmark","no.birth.reg","no.skilled.attendant","secondary",,,,,,,,5614932
"Denmark","no.birth.reg","no.skilled.attendant","stunted",,,,,,,,5614932
"Denmark","no.birth.reg","no.skilled.attendant","under5",,,,,,,,5614932
"Denmark","no.birth.reg","no.skilled.attendant","urban",,,,,,,,5614932
"Denmark","no.birth.reg","non.p20","p20",,,,,0,,0,5614932
"Denmark","no.birth.reg","non.p20","primary",,,,,,,,5614932
"Denmark","no.birth.reg","non.p20","rural",,,,,,,,5614932
"Denmark","no.birth.reg","non.p20","secondary",,,,,,,,5614932
"Denmark","no.birth.reg","non.p20","stunted",,,,,,,,5614932
"Denmark","no.birth.reg","non.p20","under5",,,,,,,,5614932
"Denmark","no.birth.reg","non.p20","urban",,,,,,,,5614932
"Denmark","no.birth.reg","p20","primary",,,,,,,,5614932
"Denmark","no.birth.reg","p20","rural",,,,,,,,5614932
"Denmark","no.birth.reg","p20","secondary",,,,,,,,5614932
"Denmark","no.birth.reg","p20","stunted",,,,,,,,5614932
"Denmark","no.birth.reg","p20","under5",,,,,,,,5614932
"Denmark","no.birth.reg","p20","urban",,,,,,,,5614932
"Denmark","no.birth.reg","primary","rural",,,,,,,,5614932
"Denmark","no.birth.reg","primary","secondary",,,,,,,,5614932
"Denmark","no.birth.reg","primary","stunted",,,,,,,,5614932
"Denmark","no.birth.reg","primary","under5",,,,,,,,5614932
"Denmark","no.birth.reg","primary","urban",,,,,,,,5614932
"Denmark","no.birth.reg","rural","secondary",,,,,,,,5614932
"Denmark","no.birth.reg","rural","stunted",,,,,,,,5614932
"Denmark","no.birth.reg","rural","under5",,,,,,,,5614932
"Denmark","no.birth.reg","rural","urban",,,,,,,,5614932
"Denmark","no.birth.reg","secondary","stunted",,,,,,,,5614932
"Denmark","no.birth.reg","secondary","under5",,,,,,,,5614932
"Denmark","no.birth.reg","secondary","urban",,,,,,,,5614932
"Denmark","no.birth.reg","stunted","under5",,,,,,,,5614932
"Denmark","no.birth.reg","stunted","urban",,,,,,,,5614932
"Denmark","no.birth.reg","under5","urban",,,,,,,,5614932
"Denmark","no.educ","no.skilled.attendant","non.p20",,,,,,,,5614932
"Denmark","no.educ","no.skilled.attendant","p20",,,,,,,,5614932
"Denmark","no.educ","no.skilled.attendant","primary",,,,,,,,5614932
"Denmark","no.educ","no.skilled.attendant","rural",,,,,,,,5614932
"Denmark","no.educ","no.skilled.attendant","secondary",,,,,,,,5614932
"Denmark","no.educ","no.skilled.attendant","stunted",,,,,,,,5614932
"Denmark","no.educ","no.skilled.attendant","under5",,,,,,,,5614932
"Denmark","no.educ","no.skilled.attendant","urban",,,,,,,,5614932
"Denmark","no.educ","non.p20","p20",,,,,0,,0,5614932
"Denmark","no.educ","non.p20","primary",,,,,,,,5614932
"Denmark","no.educ","non.p20","rural",,,,,,,,5614932
"Denmark","no.educ","non.p20","secondary",,,,,,,,5614932
"Denmark","no.educ","non.p20","stunted",,,,,,,,5614932
"Denmark","no.educ","non.p20","under5",,,,,,,,5614932
"Denmark","no.educ","non.p20","urban",,,,,,,,5614932
"Denmark","no.educ","p20","primary",,,,,,,,5614932
"Denmark","no.educ","p20","rural",,,,,,,,5614932
"Denmark","no.educ","p20","secondary",,,,,,,,5614932
"Denmark","no.educ","p20","stunted",,,,,,,,5614932
"Denmark","no.educ","p20","under5",,,,,,,,5614932
"Denmark","no.educ","p20","urban",,,,,,,,5614932
"Denmark","no.educ","primary","rural",,,,,,,,5614932
"Denmark","no.educ","primary","secondary",,,,,,,,5614932
"Denmark","no.educ","primary","stunted",,,,,,,,5614932
"Denmark","no.educ","primary","under5",,,,,,,,5614932
"Denmark","no.educ","primary","urban",,,,,,,,5614932
"Denmark","no.educ","rural","secondary",,,,,,,,5614932
"Denmark","no.educ","rural","stunted",,,,,,,,5614932
"Denmark","no.educ","rural","under5",,,,,,,,5614932
"Denmark","no.educ","rural","urban",,,,,,,,5614932
"Denmark","no.educ","secondary","stunted",,,,,,,,5614932
"Denmark","no.educ","secondary","under5",,,,,,,,5614932
"Denmark","no.educ","secondary","urban",,,,,,,,5614932
"Denmark","no.educ","stunted","under5",,,,,,,,5614932
"Denmark","no.educ","stunted","urban",,,,,,,,5614932
"Denmark","no.educ","under5","urban",,,,,,,,5614932
"Denmark","no.skilled.attendant","non.p20","p20",,,,,0,,0,5614932
"Denmark","no.skilled.attendant","non.p20","primary",,,,,,,,5614932
"Denmark","no.skilled.attendant","non.p20","rural",,,,,,,,5614932
"Denmark","no.skilled.attendant","non.p20","secondary",,,,,,,,5614932
"Denmark","no.skilled.attendant","non.p20","stunted",,,,,,,,5614932
"Denmark","no.skilled.attendant","non.p20","under5",,,,,,,,5614932
"Denmark","no.skilled.attendant","non.p20","urban",,,,,,,,5614932
"Denmark","no.skilled.attendant","p20","primary",,,,,,,,5614932
"Denmark","no.skilled.attendant","p20","rural",,,,,,,,5614932
"Denmark","no.skilled.attendant","p20","secondary",,,,,,,,5614932
"Denmark","no.skilled.attendant","p20","stunted",,,,,,,,5614932
"Denmark","no.skilled.attendant","p20","under5",,,,,,,,5614932
"Denmark","no.skilled.attendant","p20","urban",,,,,,,,5614932
"Denmark","no.skilled.attendant","primary","rural",,,,,,,,5614932
"Denmark","no.skilled.attendant","primary","secondary",,,,,,,,5614932
"Denmark","no.skilled.attendant","primary","stunted",,,,,,,,5614932
"Denmark","no.skilled.attendant","primary","under5",,,,,,,,5614932
"Denmark","no.skilled.attendant","primary","urban",,,,,,,,5614932
"Denmark","no.skilled.attendant","rural","secondary",,,,,,,,5614932
"Denmark","no.skilled.attendant","rural","stunted",,,,,,,,5614932
"Denmark","no.skilled.attendant","rural","under5",,,,,,,,5614932
"Denmark","no.skilled.attendant","rural","urban",,,,,,,,5614932
"Denmark","no.skilled.attendant","secondary","stunted",,,,,,,,5614932
"Denmark","no.skilled.attendant","secondary","under5",,,,,,,,5614932
"Denmark","no.skilled.attendant","secondary","urban",,,,,,,,5614932
"Denmark","no.skilled.attendant","stunted","under5",,,,,,,,5614932
"Denmark","no.skilled.attendant","stunted","urban",,,,,,,,5614932
"Denmark","no.skilled.attendant","under5","urban",,,,,,,,5614932
"Denmark","non.p20","p20","primary",,,,0,,,0,5614932
"Denmark","non.p20","p20","rural",99,1,,0,,,0,5614932
"Denmark","non.p20","p20","secondary",,,,0,,,0,5614932
"Denmark","non.p20","p20","stunted",,,,0,,,0,5614932
"Denmark","non.p20","p20","under5",99,1,,0,,,0,5614932
"Denmark","non.p20","p20","urban",99,1,,0,,,0,5614932
"Denmark","non.p20","primary","rural",,,,,,,,5614932
"Denmark","non.p20","primary","secondary",,,,,,,,5614932
"Denmark","non.p20","primary","stunted",,,,,,,,5614932
"Denmark","non.p20","primary","under5",,,,,,,,5614932
"Denmark","non.p20","primary","urban",,,,,,,,5614932
"Denmark","non.p20","rural","secondary",,,,,,,,5614932
"Denmark","non.p20","rural","stunted",,,,,,,,5614932
"Denmark","non.p20","rural","under5",99,,,,,,,5614932
"Denmark","non.p20","rural","urban",99,,,,,,,5614932
"Denmark","non.p20","secondary","stunted",,,,,,,,5614932
"Denmark","non.p20","secondary","under5",,,,,,,,5614932
"Denmark","non.p20","secondary","urban",,,,,,,,5614932
"Denmark","non.p20","stunted","under5",,,,,,,,5614932
"Denmark","non.p20","stunted","urban",,,,,,,,5614932
"Denmark","non.p20","under5","urban",99,,,,,,,5614932
"Denmark","p20","primary","rural",,,,,,,,5614932
"Denmark","p20","primary","secondary",,,,,,,,5614932
"Denmark","p20","primary","stunted",,,,,,,,5614932
"Denmark","p20","primary","under5",,,,,,,,5614932
"Denmark","p20","primary","urban",,,,,,,,5614932
"Denmark","p20","rural","secondary",,,,,,,,5614932
"Denmark","p20","rural","stunted",,,,,,,,5614932
"Denmark","p20","rural","under5",1,,,,,,,5614932
"Denmark","p20","rural","urban",1,,,,,,,5614932
"Denmark","p20","secondary","stunted",,,,,,,,5614932
"Denmark","p20","secondary","under5",,,,,,,,5614932
"Denmark","p20","secondary","urban",,,,,,,,5614932
"Denmark","p20","stunted","under5",,,,,,,,5614932
"Denmark","p20","stunted","urban",,,,,,,,5614932
"Denmark","p20","under5","urban",1,,,,,,,5614932
"Denmark","primary","rural","secondary",,,,,,,,5614932
"Denmark","primary","rural","stunted",,,,,,,,5614932
"Denmark","primary","rural","under5",,,,,,,,5614932
"Denmark","primary","rural","urban",,,,,,,,5614932
"Denmark","primary","secondary","stunted",,,,,,,,5614932
"Denmark","primary","secondary","under5",,,,,,,,5614932
"Denmark","primary","secondary","urban",,,,,,,,5614932
"Denmark","primary","stunted","under5",,,,,,,,5614932
"Denmark","primary","stunted","urban",,,,,,,,5614932
"Denmark","primary","under5","urban",,,,,,,,5614932
"Denmark","rural","secondary","stunted",,,,,,,,5614932
"Denmark","rural","secondary","under5",,,,,,,,5614932
"Denmark","rural","secondary","urban",,,,,,,,5614932
"Denmark","rural","stunted","under5",,,,,,,,5614932
"Denmark","rural","stunted","urban",,,,,,,,5614932
"Denmark","rural","under5","urban",,,,,,,,5614932
"Denmark","secondary","stunted","under5",,,,,,,,5614932
"Denmark","secondary","stunted","urban",,,,,,,,5614932
"Denmark","secondary","under5","urban",,,,,,,,5614932
"Denmark","stunted","under5","urban",,,,,,,,5614932
