"filename","indicator1","indicator2","indicator3","X","Y","Z","X,Y","Y,Z","X,Z","X,Y,Z","pop"
"Ireland","blank1","blank2","ext",100,100,0,100,0,0,0,4598294
"Ireland","blank1","blank2","female",100,100,,100,,,,4598294
"Ireland","blank1","blank2","fifteento49",100,100,,100,,,,4598294
"Ireland","blank1","blank2","fiveto14",100,100,,100,,,,4598294
"Ireland","blank1","blank2","gt49",100,100,,100,,,,4598294
"Ireland","blank1","blank2","higher",,,,,,,,4598294
"Ireland","blank1","blank2","male",100,100,,100,,,,4598294
"Ireland","blank1","blank2","no.birth.reg",,,,,,,,4598294
"Ireland","blank1","blank2","no.educ",,,,,,,,4598294
"Ireland","blank1","blank2","no.skilled.attendant",,,,,,,,4598294
"Ireland","blank1","blank2","non.p20",100,100,99,100,99,99,99,4598294
"Ireland","blank1","blank2","p20",100,100,1,100,1,1,1,4598294
"Ireland","blank1","blank2","primary",,,,,,,,4598294
"Ireland","blank1","blank2","rural",100,100,,100,,,,4598294
"Ireland","blank1","blank2","secondary",,,,,,,,4598294
"Ireland","blank1","blank2","stunted",,,,,,,,4598294
"Ireland","blank1","blank2","under5",100,100,,100,,,,4598294
"Ireland","blank1","blank2","urban",100,100,,100,,,,4598294
"Ireland","blank1","ext","female",100,0,,0,,,,4598294
"Ireland","blank1","ext","fifteento49",100,0,,0,,,,4598294
"Ireland","blank1","ext","fiveto14",100,0,,0,,,,4598294
"Ireland","blank1","ext","gt49",100,0,,0,,,,4598294
"Ireland","blank1","ext","higher",,,,,,,,4598294
"Ireland","blank1","ext","male",100,0,,0,,,,4598294
"Ireland","blank1","ext","no.birth.reg",,,,,,,,4598294
"Ireland","blank1","ext","no.educ",,,,,,,,4598294
"Ireland","blank1","ext","no.skilled.attendant",,,,,,,,4598294
"Ireland","blank1","ext","non.p20",100,0,99,0,0,99,0,4598294
"Ireland","blank1","ext","p20",100,0,1,0,0,1,0,4598294
"Ireland","blank1","ext","primary",,,,,,,,4598294
"Ireland","blank1","ext","rural",100,0,,0,,,,4598294
"Ireland","blank1","ext","secondary",,,,,,,,4598294
"Ireland","blank1","ext","stunted",,,,,,,,4598294
"Ireland","blank1","ext","under5",100,0,,0,,,,4598294
"Ireland","blank1","ext","urban",100,0,,0,,,,4598294
"Ireland","blank1","female","fifteento49",100,,,,,,,4598294
"Ireland","blank1","female","fiveto14",100,,,,,,,4598294
"Ireland","blank1","female","gt49",100,,,,,,,4598294
"Ireland","blank1","female","higher",,,,,,,,4598294
"Ireland","blank1","female","male",100,,,,,,,4598294
"Ireland","blank1","female","no.birth.reg",,,,,,,,4598294
"Ireland","blank1","female","no.educ",,,,,,,,4598294
"Ireland","blank1","female","no.skilled.attendant",,,,,,,,4598294
"Ireland","blank1","female","non.p20",100,,99,,,99,,4598294
"Ireland","blank1","female","p20",100,,1,,,1,,4598294
"Ireland","blank1","female","primary",,,,,,,,4598294
"Ireland","blank1","female","rural",100,,,,,,,4598294
"Ireland","blank1","female","secondary",,,,,,,,4598294
"Ireland","blank1","female","stunted",,,,,,,,4598294
"Ireland","blank1","female","under5",100,,,,,,,4598294
"Ireland","blank1","female","urban",100,,,,,,,4598294
"Ireland","blank1","fifteento49","fiveto14",100,,,,,,,4598294
"Ireland","blank1","fifteento49","gt49",100,,,,,,,4598294
"Ireland","blank1","fifteento49","higher",,,,,,,,4598294
"Ireland","blank1","fifteento49","male",100,,,,,,,4598294
"Ireland","blank1","fifteento49","no.birth.reg",,,,,,,,4598294
"Ireland","blank1","fifteento49","no.educ",,,,,,,,4598294
"Ireland","blank1","fifteento49","no.skilled.attendant",,,,,,,,4598294
"Ireland","blank1","fifteento49","non.p20",100,,99,,,99,,4598294
"Ireland","blank1","fifteento49","p20",100,,1,,,1,,4598294
"Ireland","blank1","fifteento49","primary",,,,,,,,4598294
"Ireland","blank1","fifteento49","rural",100,,,,,,,4598294
"Ireland","blank1","fifteento49","secondary",,,,,,,,4598294
"Ireland","blank1","fifteento49","stunted",,,,,,,,4598294
"Ireland","blank1","fifteento49","under5",100,,,,,,,4598294
"Ireland","blank1","fifteento49","urban",100,,,,,,,4598294
"Ireland","blank1","fiveto14","gt49",100,,,,,,,4598294
"Ireland","blank1","fiveto14","higher",,,,,,,,4598294
"Ireland","blank1","fiveto14","male",100,,,,,,,4598294
"Ireland","blank1","fiveto14","no.birth.reg",,,,,,,,4598294
"Ireland","blank1","fiveto14","no.educ",,,,,,,,4598294
"Ireland","blank1","fiveto14","no.skilled.attendant",,,,,,,,4598294
"Ireland","blank1","fiveto14","non.p20",100,,99,,,99,,4598294
"Ireland","blank1","fiveto14","p20",100,,1,,,1,,4598294
"Ireland","blank1","fiveto14","primary",,,,,,,,4598294
"Ireland","blank1","fiveto14","rural",100,,,,,,,4598294
"Ireland","blank1","fiveto14","secondary",,,,,,,,4598294
"Ireland","blank1","fiveto14","stunted",,,,,,,,4598294
"Ireland","blank1","fiveto14","under5",100,,,,,,,4598294
"Ireland","blank1","fiveto14","urban",100,,,,,,,4598294
"Ireland","blank1","gt49","higher",,,,,,,,4598294
"Ireland","blank1","gt49","male",100,,,,,,,4598294
"Ireland","blank1","gt49","no.birth.reg",,,,,,,,4598294
"Ireland","blank1","gt49","no.educ",,,,,,,,4598294
"Ireland","blank1","gt49","no.skilled.attendant",,,,,,,,4598294
"Ireland","blank1","gt49","non.p20",100,,99,,,99,,4598294
"Ireland","blank1","gt49","p20",100,,1,,,1,,4598294
"Ireland","blank1","gt49","primary",,,,,,,,4598294
"Ireland","blank1","gt49","rural",100,,,,,,,4598294
"Ireland","blank1","gt49","secondary",,,,,,,,4598294
"Ireland","blank1","gt49","stunted",,,,,,,,4598294
"Ireland","blank1","gt49","under5",100,,,,,,,4598294
"Ireland","blank1","gt49","urban",100,,,,,,,4598294
"Ireland","blank1","higher","male",,,,,,,,4598294
"Ireland","blank1","higher","no.birth.reg",,,,,,,,4598294
"Ireland","blank1","higher","no.educ",,,,,,,,4598294
"Ireland","blank1","higher","no.skilled.attendant",,,,,,,,4598294
"Ireland","blank1","higher","non.p20",,,,,,,,4598294
"Ireland","blank1","higher","p20",,,,,,,,4598294
"Ireland","blank1","higher","primary",,,,,,,,4598294
"Ireland","blank1","higher","rural",,,,,,,,4598294
"Ireland","blank1","higher","secondary",,,,,,,,4598294
"Ireland","blank1","higher","stunted",,,,,,,,4598294
"Ireland","blank1","higher","under5",,,,,,,,4598294
"Ireland","blank1","higher","urban",,,,,,,,4598294
"Ireland","blank1","male","no.birth.reg",,,,,,,,4598294
"Ireland","blank1","male","no.educ",,,,,,,,4598294
"Ireland","blank1","male","no.skilled.attendant",,,,,,,,4598294
"Ireland","blank1","male","non.p20",100,,99,,,99,,4598294
"Ireland","blank1","male","p20",100,,1,,,1,,4598294
"Ireland","blank1","male","primary",,,,,,,,4598294
"Ireland","blank1","male","rural",100,,,,,,,4598294
"Ireland","blank1","male","secondary",,,,,,,,4598294
"Ireland","blank1","male","stunted",,,,,,,,4598294
"Ireland","blank1","male","under5",100,,,,,,,4598294
"Ireland","blank1","male","urban",100,,,,,,,4598294
"Ireland","blank1","no.birth.reg","no.educ",,,,,,,,4598294
"Ireland","blank1","no.birth.reg","no.skilled.attendant",,,,,,,,4598294
"Ireland","blank1","no.birth.reg","non.p20",,,,,,,,4598294
"Ireland","blank1","no.birth.reg","p20",,,,,,,,4598294
"Ireland","blank1","no.birth.reg","primary",,,,,,,,4598294
"Ireland","blank1","no.birth.reg","rural",,,,,,,,4598294
"Ireland","blank1","no.birth.reg","secondary",,,,,,,,4598294
"Ireland","blank1","no.birth.reg","stunted",,,,,,,,4598294
"Ireland","blank1","no.birth.reg","under5",,,,,,,,4598294
"Ireland","blank1","no.birth.reg","urban",,,,,,,,4598294
"Ireland","blank1","no.educ","no.skilled.attendant",,,,,,,,4598294
"Ireland","blank1","no.educ","non.p20",,,,,,,,4598294
"Ireland","blank1","no.educ","p20",,,,,,,,4598294
"Ireland","blank1","no.educ","primary",,,,,,,,4598294
"Ireland","blank1","no.educ","rural",,,,,,,,4598294
"Ireland","blank1","no.educ","secondary",,,,,,,,4598294
"Ireland","blank1","no.educ","stunted",,,,,,,,4598294
"Ireland","blank1","no.educ","under5",,,,,,,,4598294
"Ireland","blank1","no.educ","urban",,,,,,,,4598294
"Ireland","blank1","no.skilled.attendant","non.p20",,,,,,,,4598294
"Ireland","blank1","no.skilled.attendant","p20",,,,,,,,4598294
"Ireland","blank1","no.skilled.attendant","primary",,,,,,,,4598294
"Ireland","blank1","no.skilled.attendant","rural",,,,,,,,4598294
"Ireland","blank1","no.skilled.attendant","secondary",,,,,,,,4598294
"Ireland","blank1","no.skilled.attendant","stunted",,,,,,,,4598294
"Ireland","blank1","no.skilled.attendant","under5",,,,,,,,4598294
"Ireland","blank1","no.skilled.attendant","urban",,,,,,,,4598294
"Ireland","blank1","non.p20","p20",100,99,1,99,0,1,0,4598294
"Ireland","blank1","non.p20","primary",,,,,,,,4598294
"Ireland","blank1","non.p20","rural",100,99,,99,,,,4598294
"Ireland","blank1","non.p20","secondary",,,,,,,,4598294
"Ireland","blank1","non.p20","stunted",,,,,,,,4598294
"Ireland","blank1","non.p20","under5",100,99,,99,,,,4598294
"Ireland","blank1","non.p20","urban",100,99,,99,,,,4598294
"Ireland","blank1","p20","primary",,,,,,,,4598294
"Ireland","blank1","p20","rural",100,1,,1,,,,4598294
"Ireland","blank1","p20","secondary",,,,,,,,4598294
"Ireland","blank1","p20","stunted",,,,,,,,4598294
"Ireland","blank1","p20","under5",100,1,,1,,,,4598294
"Ireland","blank1","p20","urban",100,1,,1,,,,4598294
"Ireland","blank1","primary","rural",,,,,,,,4598294
"Ireland","blank1","primary","secondary",,,,,,,,4598294
"Ireland","blank1","primary","stunted",,,,,,,,4598294
"Ireland","blank1","primary","under5",,,,,,,,4598294
"Ireland","blank1","primary","urban",,,,,,,,4598294
"Ireland","blank1","rural","secondary",,,,,,,,4598294
"Ireland","blank1","rural","stunted",,,,,,,,4598294
"Ireland","blank1","rural","under5",100,,,,,,,4598294
"Ireland","blank1","rural","urban",100,,,,,,,4598294
"Ireland","blank1","secondary","stunted",,,,,,,,4598294
"Ireland","blank1","secondary","under5",,,,,,,,4598294
"Ireland","blank1","secondary","urban",,,,,,,,4598294
"Ireland","blank1","stunted","under5",,,,,,,,4598294
"Ireland","blank1","stunted","urban",,,,,,,,4598294
"Ireland","blank1","under5","urban",100,,,,,,,4598294
"Ireland","blank2","ext","female",100,0,,0,,,,4598294
"Ireland","blank2","ext","fifteento49",100,0,,0,,,,4598294
"Ireland","blank2","ext","fiveto14",100,0,,0,,,,4598294
"Ireland","blank2","ext","gt49",100,0,,0,,,,4598294
"Ireland","blank2","ext","higher",,,,,,,,4598294
"Ireland","blank2","ext","male",100,0,,0,,,,4598294
"Ireland","blank2","ext","no.birth.reg",,,,,,,,4598294
"Ireland","blank2","ext","no.educ",,,,,,,,4598294
"Ireland","blank2","ext","no.skilled.attendant",,,,,,,,4598294
"Ireland","blank2","ext","non.p20",100,0,99,0,0,99,0,4598294
"Ireland","blank2","ext","p20",100,0,1,0,0,1,0,4598294
"Ireland","blank2","ext","primary",,,,,,,,4598294
"Ireland","blank2","ext","rural",100,0,,0,,,,4598294
"Ireland","blank2","ext","secondary",,,,,,,,4598294
"Ireland","blank2","ext","stunted",,,,,,,,4598294
"Ireland","blank2","ext","under5",100,0,,0,,,,4598294
"Ireland","blank2","ext","urban",100,0,,0,,,,4598294
"Ireland","blank2","female","fifteento49",100,,,,,,,4598294
"Ireland","blank2","female","fiveto14",100,,,,,,,4598294
"Ireland","blank2","female","gt49",100,,,,,,,4598294
"Ireland","blank2","female","higher",,,,,,,,4598294
"Ireland","blank2","female","male",100,,,,,,,4598294
"Ireland","blank2","female","no.birth.reg",,,,,,,,4598294
"Ireland","blank2","female","no.educ",,,,,,,,4598294
"Ireland","blank2","female","no.skilled.attendant",,,,,,,,4598294
"Ireland","blank2","female","non.p20",100,,99,,,99,,4598294
"Ireland","blank2","female","p20",100,,1,,,1,,4598294
"Ireland","blank2","female","primary",,,,,,,,4598294
"Ireland","blank2","female","rural",100,,,,,,,4598294
"Ireland","blank2","female","secondary",,,,,,,,4598294
"Ireland","blank2","female","stunted",,,,,,,,4598294
"Ireland","blank2","female","under5",100,,,,,,,4598294
"Ireland","blank2","female","urban",100,,,,,,,4598294
"Ireland","blank2","fifteento49","fiveto14",100,,,,,,,4598294
"Ireland","blank2","fifteento49","gt49",100,,,,,,,4598294
"Ireland","blank2","fifteento49","higher",,,,,,,,4598294
"Ireland","blank2","fifteento49","male",100,,,,,,,4598294
"Ireland","blank2","fifteento49","no.birth.reg",,,,,,,,4598294
"Ireland","blank2","fifteento49","no.educ",,,,,,,,4598294
"Ireland","blank2","fifteento49","no.skilled.attendant",,,,,,,,4598294
"Ireland","blank2","fifteento49","non.p20",100,,99,,,99,,4598294
"Ireland","blank2","fifteento49","p20",100,,1,,,1,,4598294
"Ireland","blank2","fifteento49","primary",,,,,,,,4598294
"Ireland","blank2","fifteento49","rural",100,,,,,,,4598294
"Ireland","blank2","fifteento49","secondary",,,,,,,,4598294
"Ireland","blank2","fifteento49","stunted",,,,,,,,4598294
"Ireland","blank2","fifteento49","under5",100,,,,,,,4598294
"Ireland","blank2","fifteento49","urban",100,,,,,,,4598294
"Ireland","blank2","fiveto14","gt49",100,,,,,,,4598294
"Ireland","blank2","fiveto14","higher",,,,,,,,4598294
"Ireland","blank2","fiveto14","male",100,,,,,,,4598294
"Ireland","blank2","fiveto14","no.birth.reg",,,,,,,,4598294
"Ireland","blank2","fiveto14","no.educ",,,,,,,,4598294
"Ireland","blank2","fiveto14","no.skilled.attendant",,,,,,,,4598294
"Ireland","blank2","fiveto14","non.p20",100,,99,,,99,,4598294
"Ireland","blank2","fiveto14","p20",100,,1,,,1,,4598294
"Ireland","blank2","fiveto14","primary",,,,,,,,4598294
"Ireland","blank2","fiveto14","rural",100,,,,,,,4598294
"Ireland","blank2","fiveto14","secondary",,,,,,,,4598294
"Ireland","blank2","fiveto14","stunted",,,,,,,,4598294
"Ireland","blank2","fiveto14","under5",100,,,,,,,4598294
"Ireland","blank2","fiveto14","urban",100,,,,,,,4598294
"Ireland","blank2","gt49","higher",,,,,,,,4598294
"Ireland","blank2","gt49","male",100,,,,,,,4598294
"Ireland","blank2","gt49","no.birth.reg",,,,,,,,4598294
"Ireland","blank2","gt49","no.educ",,,,,,,,4598294
"Ireland","blank2","gt49","no.skilled.attendant",,,,,,,,4598294
"Ireland","blank2","gt49","non.p20",100,,99,,,99,,4598294
"Ireland","blank2","gt49","p20",100,,1,,,1,,4598294
"Ireland","blank2","gt49","primary",,,,,,,,4598294
"Ireland","blank2","gt49","rural",100,,,,,,,4598294
"Ireland","blank2","gt49","secondary",,,,,,,,4598294
"Ireland","blank2","gt49","stunted",,,,,,,,4598294
"Ireland","blank2","gt49","under5",100,,,,,,,4598294
"Ireland","blank2","gt49","urban",100,,,,,,,4598294
"Ireland","blank2","higher","male",,,,,,,,4598294
"Ireland","blank2","higher","no.birth.reg",,,,,,,,4598294
"Ireland","blank2","higher","no.educ",,,,,,,,4598294
"Ireland","blank2","higher","no.skilled.attendant",,,,,,,,4598294
"Ireland","blank2","higher","non.p20",,,,,,,,4598294
"Ireland","blank2","higher","p20",,,,,,,,4598294
"Ireland","blank2","higher","primary",,,,,,,,4598294
"Ireland","blank2","higher","rural",,,,,,,,4598294
"Ireland","blank2","higher","secondary",,,,,,,,4598294
"Ireland","blank2","higher","stunted",,,,,,,,4598294
"Ireland","blank2","higher","under5",,,,,,,,4598294
"Ireland","blank2","higher","urban",,,,,,,,4598294
"Ireland","blank2","male","no.birth.reg",,,,,,,,4598294
"Ireland","blank2","male","no.educ",,,,,,,,4598294
"Ireland","blank2","male","no.skilled.attendant",,,,,,,,4598294
"Ireland","blank2","male","non.p20",100,,99,,,99,,4598294
"Ireland","blank2","male","p20",100,,1,,,1,,4598294
"Ireland","blank2","male","primary",,,,,,,,4598294
"Ireland","blank2","male","rural",100,,,,,,,4598294
"Ireland","blank2","male","secondary",,,,,,,,4598294
"Ireland","blank2","male","stunted",,,,,,,,4598294
"Ireland","blank2","male","under5",100,,,,,,,4598294
"Ireland","blank2","male","urban",100,,,,,,,4598294
"Ireland","blank2","no.birth.reg","no.educ",,,,,,,,4598294
"Ireland","blank2","no.birth.reg","no.skilled.attendant",,,,,,,,4598294
"Ireland","blank2","no.birth.reg","non.p20",,,,,,,,4598294
"Ireland","blank2","no.birth.reg","p20",,,,,,,,4598294
"Ireland","blank2","no.birth.reg","primary",,,,,,,,4598294
"Ireland","blank2","no.birth.reg","rural",,,,,,,,4598294
"Ireland","blank2","no.birth.reg","secondary",,,,,,,,4598294
"Ireland","blank2","no.birth.reg","stunted",,,,,,,,4598294
"Ireland","blank2","no.birth.reg","under5",,,,,,,,4598294
"Ireland","blank2","no.birth.reg","urban",,,,,,,,4598294
"Ireland","blank2","no.educ","no.skilled.attendant",,,,,,,,4598294
"Ireland","blank2","no.educ","non.p20",,,,,,,,4598294
"Ireland","blank2","no.educ","p20",,,,,,,,4598294
"Ireland","blank2","no.educ","primary",,,,,,,,4598294
"Ireland","blank2","no.educ","rural",,,,,,,,4598294
"Ireland","blank2","no.educ","secondary",,,,,,,,4598294
"Ireland","blank2","no.educ","stunted",,,,,,,,4598294
"Ireland","blank2","no.educ","under5",,,,,,,,4598294
"Ireland","blank2","no.educ","urban",,,,,,,,4598294
"Ireland","blank2","no.skilled.attendant","non.p20",,,,,,,,4598294
"Ireland","blank2","no.skilled.attendant","p20",,,,,,,,4598294
"Ireland","blank2","no.skilled.attendant","primary",,,,,,,,4598294
"Ireland","blank2","no.skilled.attendant","rural",,,,,,,,4598294
"Ireland","blank2","no.skilled.attendant","secondary",,,,,,,,4598294
"Ireland","blank2","no.skilled.attendant","stunted",,,,,,,,4598294
"Ireland","blank2","no.skilled.attendant","under5",,,,,,,,4598294
"Ireland","blank2","no.skilled.attendant","urban",,,,,,,,4598294
"Ireland","blank2","non.p20","p20",100,99,1,99,0,1,0,4598294
"Ireland","blank2","non.p20","primary",,,,,,,,4598294
"Ireland","blank2","non.p20","rural",100,99,,99,,,,4598294
"Ireland","blank2","non.p20","secondary",,,,,,,,4598294
"Ireland","blank2","non.p20","stunted",,,,,,,,4598294
"Ireland","blank2","non.p20","under5",100,99,,99,,,,4598294
"Ireland","blank2","non.p20","urban",100,99,,99,,,,4598294
"Ireland","blank2","p20","primary",,,,,,,,4598294
"Ireland","blank2","p20","rural",100,1,,1,,,,4598294
"Ireland","blank2","p20","secondary",,,,,,,,4598294
"Ireland","blank2","p20","stunted",,,,,,,,4598294
"Ireland","blank2","p20","under5",100,1,,1,,,,4598294
"Ireland","blank2","p20","urban",100,1,,1,,,,4598294
"Ireland","blank2","primary","rural",,,,,,,,4598294
"Ireland","blank2","primary","secondary",,,,,,,,4598294
"Ireland","blank2","primary","stunted",,,,,,,,4598294
"Ireland","blank2","primary","under5",,,,,,,,4598294
"Ireland","blank2","primary","urban",,,,,,,,4598294
"Ireland","blank2","rural","secondary",,,,,,,,4598294
"Ireland","blank2","rural","stunted",,,,,,,,4598294
"Ireland","blank2","rural","under5",100,,,,,,,4598294
"Ireland","blank2","rural","urban",100,,,,,,,4598294
"Ireland","blank2","secondary","stunted",,,,,,,,4598294
"Ireland","blank2","secondary","under5",,,,,,,,4598294
"Ireland","blank2","secondary","urban",,,,,,,,4598294
"Ireland","blank2","stunted","under5",,,,,,,,4598294
"Ireland","blank2","stunted","urban",,,,,,,,4598294
"Ireland","blank2","under5","urban",100,,,,,,,4598294
"Ireland","ext","female","fifteento49",0,,,,,,,4598294
"Ireland","ext","female","fiveto14",0,,,,,,,4598294
"Ireland","ext","female","gt49",0,,,,,,,4598294
"Ireland","ext","female","higher",,,,,,,,4598294
"Ireland","ext","female","male",0,,,,,,,4598294
"Ireland","ext","female","no.birth.reg",,,,,,,,4598294
"Ireland","ext","female","no.educ",,,,,,,,4598294
"Ireland","ext","female","no.skilled.attendant",,,,,,,,4598294
"Ireland","ext","female","non.p20",0,,99,,,0,0,4598294
"Ireland","ext","female","p20",0,,1,,,0,,4598294
"Ireland","ext","female","primary",,,,,,,,4598294
"Ireland","ext","female","rural",0,,,,,,,4598294
"Ireland","ext","female","secondary",,,,,,,,4598294
"Ireland","ext","female","stunted",,,,,,,,4598294
"Ireland","ext","female","under5",0,,,,,,,4598294
"Ireland","ext","female","urban",0,,,,,,,4598294
"Ireland","ext","fifteento49","fiveto14",0,,,,,,,4598294
"Ireland","ext","fifteento49","gt49",0,,,,,,,4598294
"Ireland","ext","fifteento49","higher",,,,,,,,4598294
"Ireland","ext","fifteento49","male",0,,,,,,,4598294
"Ireland","ext","fifteento49","no.birth.reg",,,,,,,,4598294
"Ireland","ext","fifteento49","no.educ",,,,,,,,4598294
"Ireland","ext","fifteento49","no.skilled.attendant",,,,,,,,4598294
"Ireland","ext","fifteento49","non.p20",0,,99,,,0,0,4598294
"Ireland","ext","fifteento49","p20",0,,1,,,0,,4598294
"Ireland","ext","fifteento49","primary",,,,,,,,4598294
"Ireland","ext","fifteento49","rural",0,,,,,,,4598294
"Ireland","ext","fifteento49","secondary",,,,,,,,4598294
"Ireland","ext","fifteento49","stunted",,,,,,,,4598294
"Ireland","ext","fifteento49","under5",0,,,,,,,4598294
"Ireland","ext","fifteento49","urban",0,,,,,,,4598294
"Ireland","ext","fiveto14","gt49",0,,,,,,,4598294
"Ireland","ext","fiveto14","higher",,,,,,,,4598294
"Ireland","ext","fiveto14","male",0,,,,,,,4598294
"Ireland","ext","fiveto14","no.birth.reg",,,,,,,,4598294
"Ireland","ext","fiveto14","no.educ",,,,,,,,4598294
"Ireland","ext","fiveto14","no.skilled.attendant",,,,,,,,4598294
"Ireland","ext","fiveto14","non.p20",0,,99,,,0,0,4598294
"Ireland","ext","fiveto14","p20",0,,1,,,0,,4598294
"Ireland","ext","fiveto14","primary",,,,,,,,4598294
"Ireland","ext","fiveto14","rural",0,,,,,,,4598294
"Ireland","ext","fiveto14","secondary",,,,,,,,4598294
"Ireland","ext","fiveto14","stunted",,,,,,,,4598294
"Ireland","ext","fiveto14","under5",0,,,,,,,4598294
"Ireland","ext","fiveto14","urban",0,,,,,,,4598294
"Ireland","ext","gt49","higher",,,,,,,,4598294
"Ireland","ext","gt49","male",0,,,,,,,4598294
"Ireland","ext","gt49","no.birth.reg",,,,,,,,4598294
"Ireland","ext","gt49","no.educ",,,,,,,,4598294
"Ireland","ext","gt49","no.skilled.attendant",,,,,,,,4598294
"Ireland","ext","gt49","non.p20",0,,99,,,0,0,4598294
"Ireland","ext","gt49","p20",0,,1,,,0,,4598294
"Ireland","ext","gt49","primary",,,,,,,,4598294
"Ireland","ext","gt49","rural",0,,,,,,,4598294
"Ireland","ext","gt49","secondary",,,,,,,,4598294
"Ireland","ext","gt49","stunted",,,,,,,,4598294
"Ireland","ext","gt49","under5",0,,,,,,,4598294
"Ireland","ext","gt49","urban",0,,,,,,,4598294
"Ireland","ext","higher","male",,,,,,,,4598294
"Ireland","ext","higher","no.birth.reg",,,,,,,,4598294
"Ireland","ext","higher","no.educ",,,,,,,,4598294
"Ireland","ext","higher","no.skilled.attendant",,,,,,,,4598294
"Ireland","ext","higher","non.p20",,,,,,0,0,4598294
"Ireland","ext","higher","p20",,,,,,,,4598294
"Ireland","ext","higher","primary",,,,,,,,4598294
"Ireland","ext","higher","rural",,,,,,,,4598294
"Ireland","ext","higher","secondary",,,,,,,,4598294
"Ireland","ext","higher","stunted",,,,,,,,4598294
"Ireland","ext","higher","under5",,,,,,,,4598294
"Ireland","ext","higher","urban",,,,,,,,4598294
"Ireland","ext","male","no.birth.reg",,,,,,,,4598294
"Ireland","ext","male","no.educ",,,,,,,,4598294
"Ireland","ext","male","no.skilled.attendant",,,,,,,,4598294
"Ireland","ext","male","non.p20",0,,99,,,0,0,4598294
"Ireland","ext","male","p20",0,,1,,,0,,4598294
"Ireland","ext","male","primary",,,,,,,,4598294
"Ireland","ext","male","rural",0,,,,,,,4598294
"Ireland","ext","male","secondary",,,,,,,,4598294
"Ireland","ext","male","stunted",,,,,,,,4598294
"Ireland","ext","male","under5",0,,,,,,,4598294
"Ireland","ext","male","urban",0,,,,,,,4598294
"Ireland","ext","no.birth.reg","no.educ",,,,,,,,4598294
"Ireland","ext","no.birth.reg","no.skilled.attendant",,,,,,,,4598294
"Ireland","ext","no.birth.reg","non.p20",,,,,,0,0,4598294
"Ireland","ext","no.birth.reg","p20",,,,,,,,4598294
"Ireland","ext","no.birth.reg","primary",,,,,,,,4598294
"Ireland","ext","no.birth.reg","rural",,,,,,,,4598294
"Ireland","ext","no.birth.reg","secondary",,,,,,,,4598294
"Ireland","ext","no.birth.reg","stunted",,,,,,,,4598294
"Ireland","ext","no.birth.reg","under5",,,,,,,,4598294
"Ireland","ext","no.birth.reg","urban",,,,,,,,4598294
"Ireland","ext","no.educ","no.skilled.attendant",,,,,,,,4598294
"Ireland","ext","no.educ","non.p20",,,,,,0,0,4598294
"Ireland","ext","no.educ","p20",,,,,,,,4598294
"Ireland","ext","no.educ","primary",,,,,,,,4598294
"Ireland","ext","no.educ","rural",,,,,,,,4598294
"Ireland","ext","no.educ","secondary",,,,,,,,4598294
"Ireland","ext","no.educ","stunted",,,,,,,,4598294
"Ireland","ext","no.educ","under5",,,,,,,,4598294
"Ireland","ext","no.educ","urban",,,,,,,,4598294
"Ireland","ext","no.skilled.attendant","non.p20",,,,,,0,0,4598294
"Ireland","ext","no.skilled.attendant","p20",,,,,,,,4598294
"Ireland","ext","no.skilled.attendant","primary",,,,,,,,4598294
"Ireland","ext","no.skilled.attendant","rural",,,,,,,,4598294
"Ireland","ext","no.skilled.attendant","secondary",,,,,,,,4598294
"Ireland","ext","no.skilled.attendant","stunted",,,,,,,,4598294
"Ireland","ext","no.skilled.attendant","under5",,,,,,,,4598294
"Ireland","ext","no.skilled.attendant","urban",,,,,,,,4598294
"Ireland","ext","non.p20","p20",0,99,1,0,0,0,0,4598294
"Ireland","ext","non.p20","primary",,,,0,,,0,4598294
"Ireland","ext","non.p20","rural",0,99,,0,,,0,4598294
"Ireland","ext","non.p20","secondary",,,,0,,,0,4598294
"Ireland","ext","non.p20","stunted",,,,0,,,0,4598294
"Ireland","ext","non.p20","under5",0,99,,0,,,0,4598294
"Ireland","ext","non.p20","urban",0,99,,0,,,0,4598294
"Ireland","ext","p20","primary",,,,,,,,4598294
"Ireland","ext","p20","rural",0,1,,0,,,,4598294
"Ireland","ext","p20","secondary",,,,,,,,4598294
"Ireland","ext","p20","stunted",,,,,,,,4598294
"Ireland","ext","p20","under5",0,1,,0,,,,4598294
"Ireland","ext","p20","urban",0,1,,0,,,,4598294
"Ireland","ext","primary","rural",,,,,,,,4598294
"Ireland","ext","primary","secondary",,,,,,,,4598294
"Ireland","ext","primary","stunted",,,,,,,,4598294
"Ireland","ext","primary","under5",,,,,,,,4598294
"Ireland","ext","primary","urban",,,,,,,,4598294
"Ireland","ext","rural","secondary",,,,,,,,4598294
"Ireland","ext","rural","stunted",,,,,,,,4598294
"Ireland","ext","rural","under5",0,,,,,,,4598294
"Ireland","ext","rural","urban",0,,,,,,,4598294
"Ireland","ext","secondary","stunted",,,,,,,,4598294
"Ireland","ext","secondary","under5",,,,,,,,4598294
"Ireland","ext","secondary","urban",,,,,,,,4598294
"Ireland","ext","stunted","under5",,,,,,,,4598294
"Ireland","ext","stunted","urban",,,,,,,,4598294
"Ireland","ext","under5","urban",0,,,,,,,4598294
"Ireland","female","fifteento49","fiveto14",,,,,,,,4598294
"Ireland","female","fifteento49","gt49",,,,,,,,4598294
"Ireland","female","fifteento49","higher",,,,,,,,4598294
"Ireland","female","fifteento49","male",,,,,,,,4598294
"Ireland","female","fifteento49","no.birth.reg",,,,,,,,4598294
"Ireland","female","fifteento49","no.educ",,,,,,,,4598294
"Ireland","female","fifteento49","no.skilled.attendant",,,,,,,,4598294
"Ireland","female","fifteento49","non.p20",,,99,,,,,4598294
"Ireland","female","fifteento49","p20",,,1,,,,,4598294
"Ireland","female","fifteento49","primary",,,,,,,,4598294
"Ireland","female","fifteento49","rural",,,,,,,,4598294
"Ireland","female","fifteento49","secondary",,,,,,,,4598294
"Ireland","female","fifteento49","stunted",,,,,,,,4598294
"Ireland","female","fifteento49","under5",,,,,,,,4598294
"Ireland","female","fifteento49","urban",,,,,,,,4598294
"Ireland","female","fiveto14","gt49",,,,,,,,4598294
"Ireland","female","fiveto14","higher",,,,,,,,4598294
"Ireland","female","fiveto14","male",,,,,,,,4598294
"Ireland","female","fiveto14","no.birth.reg",,,,,,,,4598294
"Ireland","female","fiveto14","no.educ",,,,,,,,4598294
"Ireland","female","fiveto14","no.skilled.attendant",,,,,,,,4598294
"Ireland","female","fiveto14","non.p20",,,99,,,,,4598294
"Ireland","female","fiveto14","p20",,,1,,,,,4598294
"Ireland","female","fiveto14","primary",,,,,,,,4598294
"Ireland","female","fiveto14","rural",,,,,,,,4598294
"Ireland","female","fiveto14","secondary",,,,,,,,4598294
"Ireland","female","fiveto14","stunted",,,,,,,,4598294
"Ireland","female","fiveto14","under5",,,,,,,,4598294
"Ireland","female","fiveto14","urban",,,,,,,,4598294
"Ireland","female","gt49","higher",,,,,,,,4598294
"Ireland","female","gt49","male",,,,,,,,4598294
"Ireland","female","gt49","no.birth.reg",,,,,,,,4598294
"Ireland","female","gt49","no.educ",,,,,,,,4598294
"Ireland","female","gt49","no.skilled.attendant",,,,,,,,4598294
"Ireland","female","gt49","non.p20",,,99,,,,,4598294
"Ireland","female","gt49","p20",,,1,,,,,4598294
"Ireland","female","gt49","primary",,,,,,,,4598294
"Ireland","female","gt49","rural",,,,,,,,4598294
"Ireland","female","gt49","secondary",,,,,,,,4598294
"Ireland","female","gt49","stunted",,,,,,,,4598294
"Ireland","female","gt49","under5",,,,,,,,4598294
"Ireland","female","gt49","urban",,,,,,,,4598294
"Ireland","female","higher","male",,,,,,,,4598294
"Ireland","female","higher","no.birth.reg",,,,,,,,4598294
"Ireland","female","higher","no.educ",,,,,,,,4598294
"Ireland","female","higher","no.skilled.attendant",,,,,,,,4598294
"Ireland","female","higher","non.p20",,,,,,,,4598294
"Ireland","female","higher","p20",,,,,,,,4598294
"Ireland","female","higher","primary",,,,,,,,4598294
"Ireland","female","higher","rural",,,,,,,,4598294
"Ireland","female","higher","secondary",,,,,,,,4598294
"Ireland","female","higher","stunted",,,,,,,,4598294
"Ireland","female","higher","under5",,,,,,,,4598294
"Ireland","female","higher","urban",,,,,,,,4598294
"Ireland","female","male","no.birth.reg",,,,,,,,4598294
"Ireland","female","male","no.educ",,,,,,,,4598294
"Ireland","female","male","no.skilled.attendant",,,,,,,,4598294
"Ireland","female","male","non.p20",,,99,,,,,4598294
"Ireland","female","male","p20",,,1,,,,,4598294
"Ireland","female","male","primary",,,,,,,,4598294
"Ireland","female","male","rural",,,,,,,,4598294
"Ireland","female","male","secondary",,,,,,,,4598294
"Ireland","female","male","stunted",,,,,,,,4598294
"Ireland","female","male","under5",,,,,,,,4598294
"Ireland","female","male","urban",,,,,,,,4598294
"Ireland","female","no.birth.reg","no.educ",,,,,,,,4598294
"Ireland","female","no.birth.reg","no.skilled.attendant",,,,,,,,4598294
"Ireland","female","no.birth.reg","non.p20",,,,,,,,4598294
"Ireland","female","no.birth.reg","p20",,,,,,,,4598294
"Ireland","female","no.birth.reg","primary",,,,,,,,4598294
"Ireland","female","no.birth.reg","rural",,,,,,,,4598294
"Ireland","female","no.birth.reg","secondary",,,,,,,,4598294
"Ireland","female","no.birth.reg","stunted",,,,,,,,4598294
"Ireland","female","no.birth.reg","under5",,,,,,,,4598294
"Ireland","female","no.birth.reg","urban",,,,,,,,4598294
"Ireland","female","no.educ","no.skilled.attendant",,,,,,,,4598294
"Ireland","female","no.educ","non.p20",,,,,,,,4598294
"Ireland","female","no.educ","p20",,,,,,,,4598294
"Ireland","female","no.educ","primary",,,,,,,,4598294
"Ireland","female","no.educ","rural",,,,,,,,4598294
"Ireland","female","no.educ","secondary",,,,,,,,4598294
"Ireland","female","no.educ","stunted",,,,,,,,4598294
"Ireland","female","no.educ","under5",,,,,,,,4598294
"Ireland","female","no.educ","urban",,,,,,,,4598294
"Ireland","female","no.skilled.attendant","non.p20",,,,,,,,4598294
"Ireland","female","no.skilled.attendant","p20",,,,,,,,4598294
"Ireland","female","no.skilled.attendant","primary",,,,,,,,4598294
"Ireland","female","no.skilled.attendant","rural",,,,,,,,4598294
"Ireland","female","no.skilled.attendant","secondary",,,,,,,,4598294
"Ireland","female","no.skilled.attendant","stunted",,,,,,,,4598294
"Ireland","female","no.skilled.attendant","under5",,,,,,,,4598294
"Ireland","female","no.skilled.attendant","urban",,,,,,,,4598294
"Ireland","female","non.p20","p20",,99,1,,0,,0,4598294
"Ireland","female","non.p20","primary",,,,,,,,4598294
"Ireland","female","non.p20","rural",,99,,,,,,4598294
"Ireland","female","non.p20","secondary",,,,,,,,4598294
"Ireland","female","non.p20","stunted",,,,,,,,4598294
"Ireland","female","non.p20","under5",,99,,,,,,4598294
"Ireland","female","non.p20","urban",,99,,,,,,4598294
"Ireland","female","p20","primary",,,,,,,,4598294
"Ireland","female","p20","rural",,1,,,,,,4598294
"Ireland","female","p20","secondary",,,,,,,,4598294
"Ireland","female","p20","stunted",,,,,,,,4598294
"Ireland","female","p20","under5",,1,,,,,,4598294
"Ireland","female","p20","urban",,1,,,,,,4598294
"Ireland","female","primary","rural",,,,,,,,4598294
"Ireland","female","primary","secondary",,,,,,,,4598294
"Ireland","female","primary","stunted",,,,,,,,4598294
"Ireland","female","primary","under5",,,,,,,,4598294
"Ireland","female","primary","urban",,,,,,,,4598294
"Ireland","female","rural","secondary",,,,,,,,4598294
"Ireland","female","rural","stunted",,,,,,,,4598294
"Ireland","female","rural","under5",,,,,,,,4598294
"Ireland","female","rural","urban",,,,,,,,4598294
"Ireland","female","secondary","stunted",,,,,,,,4598294
"Ireland","female","secondary","under5",,,,,,,,4598294
"Ireland","female","secondary","urban",,,,,,,,4598294
"Ireland","female","stunted","under5",,,,,,,,4598294
"Ireland","female","stunted","urban",,,,,,,,4598294
"Ireland","female","under5","urban",,,,,,,,4598294
"Ireland","fifteento49","fiveto14","gt49",,,,,,,,4598294
"Ireland","fifteento49","fiveto14","higher",,,,,,,,4598294
"Ireland","fifteento49","fiveto14","male",,,,,,,,4598294
"Ireland","fifteento49","fiveto14","no.birth.reg",,,,,,,,4598294
"Ireland","fifteento49","fiveto14","no.educ",,,,,,,,4598294
"Ireland","fifteento49","fiveto14","no.skilled.attendant",,,,,,,,4598294
"Ireland","fifteento49","fiveto14","non.p20",,,99,,,,,4598294
"Ireland","fifteento49","fiveto14","p20",,,1,,,,,4598294
"Ireland","fifteento49","fiveto14","primary",,,,,,,,4598294
"Ireland","fifteento49","fiveto14","rural",,,,,,,,4598294
"Ireland","fifteento49","fiveto14","secondary",,,,,,,,4598294
"Ireland","fifteento49","fiveto14","stunted",,,,,,,,4598294
"Ireland","fifteento49","fiveto14","under5",,,,,,,,4598294
"Ireland","fifteento49","fiveto14","urban",,,,,,,,4598294
"Ireland","fifteento49","gt49","higher",,,,,,,,4598294
"Ireland","fifteento49","gt49","male",,,,,,,,4598294
"Ireland","fifteento49","gt49","no.birth.reg",,,,,,,,4598294
"Ireland","fifteento49","gt49","no.educ",,,,,,,,4598294
"Ireland","fifteento49","gt49","no.skilled.attendant",,,,,,,,4598294
"Ireland","fifteento49","gt49","non.p20",,,99,,,,,4598294
"Ireland","fifteento49","gt49","p20",,,1,,,,,4598294
"Ireland","fifteento49","gt49","primary",,,,,,,,4598294
"Ireland","fifteento49","gt49","rural",,,,,,,,4598294
"Ireland","fifteento49","gt49","secondary",,,,,,,,4598294
"Ireland","fifteento49","gt49","stunted",,,,,,,,4598294
"Ireland","fifteento49","gt49","under5",,,,,,,,4598294
"Ireland","fifteento49","gt49","urban",,,,,,,,4598294
"Ireland","fifteento49","higher","male",,,,,,,,4598294
"Ireland","fifteento49","higher","no.birth.reg",,,,,,,,4598294
"Ireland","fifteento49","higher","no.educ",,,,,,,,4598294
"Ireland","fifteento49","higher","no.skilled.attendant",,,,,,,,4598294
"Ireland","fifteento49","higher","non.p20",,,,,,,,4598294
"Ireland","fifteento49","higher","p20",,,,,,,,4598294
"Ireland","fifteento49","higher","primary",,,,,,,,4598294
"Ireland","fifteento49","higher","rural",,,,,,,,4598294
"Ireland","fifteento49","higher","secondary",,,,,,,,4598294
"Ireland","fifteento49","higher","stunted",,,,,,,,4598294
"Ireland","fifteento49","higher","under5",,,,,,,,4598294
"Ireland","fifteento49","higher","urban",,,,,,,,4598294
"Ireland","fifteento49","male","no.birth.reg",,,,,,,,4598294
"Ireland","fifteento49","male","no.educ",,,,,,,,4598294
"Ireland","fifteento49","male","no.skilled.attendant",,,,,,,,4598294
"Ireland","fifteento49","male","non.p20",,,99,,,,,4598294
"Ireland","fifteento49","male","p20",,,1,,,,,4598294
"Ireland","fifteento49","male","primary",,,,,,,,4598294
"Ireland","fifteento49","male","rural",,,,,,,,4598294
"Ireland","fifteento49","male","secondary",,,,,,,,4598294
"Ireland","fifteento49","male","stunted",,,,,,,,4598294
"Ireland","fifteento49","male","under5",,,,,,,,4598294
"Ireland","fifteento49","male","urban",,,,,,,,4598294
"Ireland","fifteento49","no.birth.reg","no.educ",,,,,,,,4598294
"Ireland","fifteento49","no.birth.reg","no.skilled.attendant",,,,,,,,4598294
"Ireland","fifteento49","no.birth.reg","non.p20",,,,,,,,4598294
"Ireland","fifteento49","no.birth.reg","p20",,,,,,,,4598294
"Ireland","fifteento49","no.birth.reg","primary",,,,,,,,4598294
"Ireland","fifteento49","no.birth.reg","rural",,,,,,,,4598294
"Ireland","fifteento49","no.birth.reg","secondary",,,,,,,,4598294
"Ireland","fifteento49","no.birth.reg","stunted",,,,,,,,4598294
"Ireland","fifteento49","no.birth.reg","under5",,,,,,,,4598294
"Ireland","fifteento49","no.birth.reg","urban",,,,,,,,4598294
"Ireland","fifteento49","no.educ","no.skilled.attendant",,,,,,,,4598294
"Ireland","fifteento49","no.educ","non.p20",,,,,,,,4598294
"Ireland","fifteento49","no.educ","p20",,,,,,,,4598294
"Ireland","fifteento49","no.educ","primary",,,,,,,,4598294
"Ireland","fifteento49","no.educ","rural",,,,,,,,4598294
"Ireland","fifteento49","no.educ","secondary",,,,,,,,4598294
"Ireland","fifteento49","no.educ","stunted",,,,,,,,4598294
"Ireland","fifteento49","no.educ","under5",,,,,,,,4598294
"Ireland","fifteento49","no.educ","urban",,,,,,,,4598294
"Ireland","fifteento49","no.skilled.attendant","non.p20",,,,,,,,4598294
"Ireland","fifteento49","no.skilled.attendant","p20",,,,,,,,4598294
"Ireland","fifteento49","no.skilled.attendant","primary",,,,,,,,4598294
"Ireland","fifteento49","no.skilled.attendant","rural",,,,,,,,4598294
"Ireland","fifteento49","no.skilled.attendant","secondary",,,,,,,,4598294
"Ireland","fifteento49","no.skilled.attendant","stunted",,,,,,,,4598294
"Ireland","fifteento49","no.skilled.attendant","under5",,,,,,,,4598294
"Ireland","fifteento49","no.skilled.attendant","urban",,,,,,,,4598294
"Ireland","fifteento49","non.p20","p20",,99,1,,0,,0,4598294
"Ireland","fifteento49","non.p20","primary",,,,,,,,4598294
"Ireland","fifteento49","non.p20","rural",,99,,,,,,4598294
"Ireland","fifteento49","non.p20","secondary",,,,,,,,4598294
"Ireland","fifteento49","non.p20","stunted",,,,,,,,4598294
"Ireland","fifteento49","non.p20","under5",,99,,,,,,4598294
"Ireland","fifteento49","non.p20","urban",,99,,,,,,4598294
"Ireland","fifteento49","p20","primary",,,,,,,,4598294
"Ireland","fifteento49","p20","rural",,1,,,,,,4598294
"Ireland","fifteento49","p20","secondary",,,,,,,,4598294
"Ireland","fifteento49","p20","stunted",,,,,,,,4598294
"Ireland","fifteento49","p20","under5",,1,,,,,,4598294
"Ireland","fifteento49","p20","urban",,1,,,,,,4598294
"Ireland","fifteento49","primary","rural",,,,,,,,4598294
"Ireland","fifteento49","primary","secondary",,,,,,,,4598294
"Ireland","fifteento49","primary","stunted",,,,,,,,4598294
"Ireland","fifteento49","primary","under5",,,,,,,,4598294
"Ireland","fifteento49","primary","urban",,,,,,,,4598294
"Ireland","fifteento49","rural","secondary",,,,,,,,4598294
"Ireland","fifteento49","rural","stunted",,,,,,,,4598294
"Ireland","fifteento49","rural","under5",,,,,,,,4598294
"Ireland","fifteento49","rural","urban",,,,,,,,4598294
"Ireland","fifteento49","secondary","stunted",,,,,,,,4598294
"Ireland","fifteento49","secondary","under5",,,,,,,,4598294
"Ireland","fifteento49","secondary","urban",,,,,,,,4598294
"Ireland","fifteento49","stunted","under5",,,,,,,,4598294
"Ireland","fifteento49","stunted","urban",,,,,,,,4598294
"Ireland","fifteento49","under5","urban",,,,,,,,4598294
"Ireland","fiveto14","gt49","higher",,,,,,,,4598294
"Ireland","fiveto14","gt49","male",,,,,,,,4598294
"Ireland","fiveto14","gt49","no.birth.reg",,,,,,,,4598294
"Ireland","fiveto14","gt49","no.educ",,,,,,,,4598294
"Ireland","fiveto14","gt49","no.skilled.attendant",,,,,,,,4598294
"Ireland","fiveto14","gt49","non.p20",,,99,,,,,4598294
"Ireland","fiveto14","gt49","p20",,,1,,,,,4598294
"Ireland","fiveto14","gt49","primary",,,,,,,,4598294
"Ireland","fiveto14","gt49","rural",,,,,,,,4598294
"Ireland","fiveto14","gt49","secondary",,,,,,,,4598294
"Ireland","fiveto14","gt49","stunted",,,,,,,,4598294
"Ireland","fiveto14","gt49","under5",,,,,,,,4598294
"Ireland","fiveto14","gt49","urban",,,,,,,,4598294
"Ireland","fiveto14","higher","male",,,,,,,,4598294
"Ireland","fiveto14","higher","no.birth.reg",,,,,,,,4598294
"Ireland","fiveto14","higher","no.educ",,,,,,,,4598294
"Ireland","fiveto14","higher","no.skilled.attendant",,,,,,,,4598294
"Ireland","fiveto14","higher","non.p20",,,,,,,,4598294
"Ireland","fiveto14","higher","p20",,,,,,,,4598294
"Ireland","fiveto14","higher","primary",,,,,,,,4598294
"Ireland","fiveto14","higher","rural",,,,,,,,4598294
"Ireland","fiveto14","higher","secondary",,,,,,,,4598294
"Ireland","fiveto14","higher","stunted",,,,,,,,4598294
"Ireland","fiveto14","higher","under5",,,,,,,,4598294
"Ireland","fiveto14","higher","urban",,,,,,,,4598294
"Ireland","fiveto14","male","no.birth.reg",,,,,,,,4598294
"Ireland","fiveto14","male","no.educ",,,,,,,,4598294
"Ireland","fiveto14","male","no.skilled.attendant",,,,,,,,4598294
"Ireland","fiveto14","male","non.p20",,,99,,,,,4598294
"Ireland","fiveto14","male","p20",,,1,,,,,4598294
"Ireland","fiveto14","male","primary",,,,,,,,4598294
"Ireland","fiveto14","male","rural",,,,,,,,4598294
"Ireland","fiveto14","male","secondary",,,,,,,,4598294
"Ireland","fiveto14","male","stunted",,,,,,,,4598294
"Ireland","fiveto14","male","under5",,,,,,,,4598294
"Ireland","fiveto14","male","urban",,,,,,,,4598294
"Ireland","fiveto14","no.birth.reg","no.educ",,,,,,,,4598294
"Ireland","fiveto14","no.birth.reg","no.skilled.attendant",,,,,,,,4598294
"Ireland","fiveto14","no.birth.reg","non.p20",,,,,,,,4598294
"Ireland","fiveto14","no.birth.reg","p20",,,,,,,,4598294
"Ireland","fiveto14","no.birth.reg","primary",,,,,,,,4598294
"Ireland","fiveto14","no.birth.reg","rural",,,,,,,,4598294
"Ireland","fiveto14","no.birth.reg","secondary",,,,,,,,4598294
"Ireland","fiveto14","no.birth.reg","stunted",,,,,,,,4598294
"Ireland","fiveto14","no.birth.reg","under5",,,,,,,,4598294
"Ireland","fiveto14","no.birth.reg","urban",,,,,,,,4598294
"Ireland","fiveto14","no.educ","no.skilled.attendant",,,,,,,,4598294
"Ireland","fiveto14","no.educ","non.p20",,,,,,,,4598294
"Ireland","fiveto14","no.educ","p20",,,,,,,,4598294
"Ireland","fiveto14","no.educ","primary",,,,,,,,4598294
"Ireland","fiveto14","no.educ","rural",,,,,,,,4598294
"Ireland","fiveto14","no.educ","secondary",,,,,,,,4598294
"Ireland","fiveto14","no.educ","stunted",,,,,,,,4598294
"Ireland","fiveto14","no.educ","under5",,,,,,,,4598294
"Ireland","fiveto14","no.educ","urban",,,,,,,,4598294
"Ireland","fiveto14","no.skilled.attendant","non.p20",,,,,,,,4598294
"Ireland","fiveto14","no.skilled.attendant","p20",,,,,,,,4598294
"Ireland","fiveto14","no.skilled.attendant","primary",,,,,,,,4598294
"Ireland","fiveto14","no.skilled.attendant","rural",,,,,,,,4598294
"Ireland","fiveto14","no.skilled.attendant","secondary",,,,,,,,4598294
"Ireland","fiveto14","no.skilled.attendant","stunted",,,,,,,,4598294
"Ireland","fiveto14","no.skilled.attendant","under5",,,,,,,,4598294
"Ireland","fiveto14","no.skilled.attendant","urban",,,,,,,,4598294
"Ireland","fiveto14","non.p20","p20",,99,1,,0,,0,4598294
"Ireland","fiveto14","non.p20","primary",,,,,,,,4598294
"Ireland","fiveto14","non.p20","rural",,99,,,,,,4598294
"Ireland","fiveto14","non.p20","secondary",,,,,,,,4598294
"Ireland","fiveto14","non.p20","stunted",,,,,,,,4598294
"Ireland","fiveto14","non.p20","under5",,99,,,,,,4598294
"Ireland","fiveto14","non.p20","urban",,99,,,,,,4598294
"Ireland","fiveto14","p20","primary",,,,,,,,4598294
"Ireland","fiveto14","p20","rural",,1,,,,,,4598294
"Ireland","fiveto14","p20","secondary",,,,,,,,4598294
"Ireland","fiveto14","p20","stunted",,,,,,,,4598294
"Ireland","fiveto14","p20","under5",,1,,,,,,4598294
"Ireland","fiveto14","p20","urban",,1,,,,,,4598294
"Ireland","fiveto14","primary","rural",,,,,,,,4598294
"Ireland","fiveto14","primary","secondary",,,,,,,,4598294
"Ireland","fiveto14","primary","stunted",,,,,,,,4598294
"Ireland","fiveto14","primary","under5",,,,,,,,4598294
"Ireland","fiveto14","primary","urban",,,,,,,,4598294
"Ireland","fiveto14","rural","secondary",,,,,,,,4598294
"Ireland","fiveto14","rural","stunted",,,,,,,,4598294
"Ireland","fiveto14","rural","under5",,,,,,,,4598294
"Ireland","fiveto14","rural","urban",,,,,,,,4598294
"Ireland","fiveto14","secondary","stunted",,,,,,,,4598294
"Ireland","fiveto14","secondary","under5",,,,,,,,4598294
"Ireland","fiveto14","secondary","urban",,,,,,,,4598294
"Ireland","fiveto14","stunted","under5",,,,,,,,4598294
"Ireland","fiveto14","stunted","urban",,,,,,,,4598294
"Ireland","fiveto14","under5","urban",,,,,,,,4598294
"Ireland","gt49","higher","male",,,,,,,,4598294
"Ireland","gt49","higher","no.birth.reg",,,,,,,,4598294
"Ireland","gt49","higher","no.educ",,,,,,,,4598294
"Ireland","gt49","higher","no.skilled.attendant",,,,,,,,4598294
"Ireland","gt49","higher","non.p20",,,,,,,,4598294
"Ireland","gt49","higher","p20",,,,,,,,4598294
"Ireland","gt49","higher","primary",,,,,,,,4598294
"Ireland","gt49","higher","rural",,,,,,,,4598294
"Ireland","gt49","higher","secondary",,,,,,,,4598294
"Ireland","gt49","higher","stunted",,,,,,,,4598294
"Ireland","gt49","higher","under5",,,,,,,,4598294
"Ireland","gt49","higher","urban",,,,,,,,4598294
"Ireland","gt49","male","no.birth.reg",,,,,,,,4598294
"Ireland","gt49","male","no.educ",,,,,,,,4598294
"Ireland","gt49","male","no.skilled.attendant",,,,,,,,4598294
"Ireland","gt49","male","non.p20",,,99,,,,,4598294
"Ireland","gt49","male","p20",,,1,,,,,4598294
"Ireland","gt49","male","primary",,,,,,,,4598294
"Ireland","gt49","male","rural",,,,,,,,4598294
"Ireland","gt49","male","secondary",,,,,,,,4598294
"Ireland","gt49","male","stunted",,,,,,,,4598294
"Ireland","gt49","male","under5",,,,,,,,4598294
"Ireland","gt49","male","urban",,,,,,,,4598294
"Ireland","gt49","no.birth.reg","no.educ",,,,,,,,4598294
"Ireland","gt49","no.birth.reg","no.skilled.attendant",,,,,,,,4598294
"Ireland","gt49","no.birth.reg","non.p20",,,,,,,,4598294
"Ireland","gt49","no.birth.reg","p20",,,,,,,,4598294
"Ireland","gt49","no.birth.reg","primary",,,,,,,,4598294
"Ireland","gt49","no.birth.reg","rural",,,,,,,,4598294
"Ireland","gt49","no.birth.reg","secondary",,,,,,,,4598294
"Ireland","gt49","no.birth.reg","stunted",,,,,,,,4598294
"Ireland","gt49","no.birth.reg","under5",,,,,,,,4598294
"Ireland","gt49","no.birth.reg","urban",,,,,,,,4598294
"Ireland","gt49","no.educ","no.skilled.attendant",,,,,,,,4598294
"Ireland","gt49","no.educ","non.p20",,,,,,,,4598294
"Ireland","gt49","no.educ","p20",,,,,,,,4598294
"Ireland","gt49","no.educ","primary",,,,,,,,4598294
"Ireland","gt49","no.educ","rural",,,,,,,,4598294
"Ireland","gt49","no.educ","secondary",,,,,,,,4598294
"Ireland","gt49","no.educ","stunted",,,,,,,,4598294
"Ireland","gt49","no.educ","under5",,,,,,,,4598294
"Ireland","gt49","no.educ","urban",,,,,,,,4598294
"Ireland","gt49","no.skilled.attendant","non.p20",,,,,,,,4598294
"Ireland","gt49","no.skilled.attendant","p20",,,,,,,,4598294
"Ireland","gt49","no.skilled.attendant","primary",,,,,,,,4598294
"Ireland","gt49","no.skilled.attendant","rural",,,,,,,,4598294
"Ireland","gt49","no.skilled.attendant","secondary",,,,,,,,4598294
"Ireland","gt49","no.skilled.attendant","stunted",,,,,,,,4598294
"Ireland","gt49","no.skilled.attendant","under5",,,,,,,,4598294
"Ireland","gt49","no.skilled.attendant","urban",,,,,,,,4598294
"Ireland","gt49","non.p20","p20",,99,1,,0,,0,4598294
"Ireland","gt49","non.p20","primary",,,,,,,,4598294
"Ireland","gt49","non.p20","rural",,99,,,,,,4598294
"Ireland","gt49","non.p20","secondary",,,,,,,,4598294
"Ireland","gt49","non.p20","stunted",,,,,,,,4598294
"Ireland","gt49","non.p20","under5",,99,,,,,,4598294
"Ireland","gt49","non.p20","urban",,99,,,,,,4598294
"Ireland","gt49","p20","primary",,,,,,,,4598294
"Ireland","gt49","p20","rural",,1,,,,,,4598294
"Ireland","gt49","p20","secondary",,,,,,,,4598294
"Ireland","gt49","p20","stunted",,,,,,,,4598294
"Ireland","gt49","p20","under5",,1,,,,,,4598294
"Ireland","gt49","p20","urban",,1,,,,,,4598294
"Ireland","gt49","primary","rural",,,,,,,,4598294
"Ireland","gt49","primary","secondary",,,,,,,,4598294
"Ireland","gt49","primary","stunted",,,,,,,,4598294
"Ireland","gt49","primary","under5",,,,,,,,4598294
"Ireland","gt49","primary","urban",,,,,,,,4598294
"Ireland","gt49","rural","secondary",,,,,,,,4598294
"Ireland","gt49","rural","stunted",,,,,,,,4598294
"Ireland","gt49","rural","under5",,,,,,,,4598294
"Ireland","gt49","rural","urban",,,,,,,,4598294
"Ireland","gt49","secondary","stunted",,,,,,,,4598294
"Ireland","gt49","secondary","under5",,,,,,,,4598294
"Ireland","gt49","secondary","urban",,,,,,,,4598294
"Ireland","gt49","stunted","under5",,,,,,,,4598294
"Ireland","gt49","stunted","urban",,,,,,,,4598294
"Ireland","gt49","under5","urban",,,,,,,,4598294
"Ireland","higher","male","no.birth.reg",,,,,,,,4598294
"Ireland","higher","male","no.educ",,,,,,,,4598294
"Ireland","higher","male","no.skilled.attendant",,,,,,,,4598294
"Ireland","higher","male","non.p20",,,,,,,,4598294
"Ireland","higher","male","p20",,,,,,,,4598294
"Ireland","higher","male","primary",,,,,,,,4598294
"Ireland","higher","male","rural",,,,,,,,4598294
"Ireland","higher","male","secondary",,,,,,,,4598294
"Ireland","higher","male","stunted",,,,,,,,4598294
"Ireland","higher","male","under5",,,,,,,,4598294
"Ireland","higher","male","urban",,,,,,,,4598294
"Ireland","higher","no.birth.reg","no.educ",,,,,,,,4598294
"Ireland","higher","no.birth.reg","no.skilled.attendant",,,,,,,,4598294
"Ireland","higher","no.birth.reg","non.p20",,,,,,,,4598294
"Ireland","higher","no.birth.reg","p20",,,,,,,,4598294
"Ireland","higher","no.birth.reg","primary",,,,,,,,4598294
"Ireland","higher","no.birth.reg","rural",,,,,,,,4598294
"Ireland","higher","no.birth.reg","secondary",,,,,,,,4598294
"Ireland","higher","no.birth.reg","stunted",,,,,,,,4598294
"Ireland","higher","no.birth.reg","under5",,,,,,,,4598294
"Ireland","higher","no.birth.reg","urban",,,,,,,,4598294
"Ireland","higher","no.educ","no.skilled.attendant",,,,,,,,4598294
"Ireland","higher","no.educ","non.p20",,,,,,,,4598294
"Ireland","higher","no.educ","p20",,,,,,,,4598294
"Ireland","higher","no.educ","primary",,,,,,,,4598294
"Ireland","higher","no.educ","rural",,,,,,,,4598294
"Ireland","higher","no.educ","secondary",,,,,,,,4598294
"Ireland","higher","no.educ","stunted",,,,,,,,4598294
"Ireland","higher","no.educ","under5",,,,,,,,4598294
"Ireland","higher","no.educ","urban",,,,,,,,4598294
"Ireland","higher","no.skilled.attendant","non.p20",,,,,,,,4598294
"Ireland","higher","no.skilled.attendant","p20",,,,,,,,4598294
"Ireland","higher","no.skilled.attendant","primary",,,,,,,,4598294
"Ireland","higher","no.skilled.attendant","rural",,,,,,,,4598294
"Ireland","higher","no.skilled.attendant","secondary",,,,,,,,4598294
"Ireland","higher","no.skilled.attendant","stunted",,,,,,,,4598294
"Ireland","higher","no.skilled.attendant","under5",,,,,,,,4598294
"Ireland","higher","no.skilled.attendant","urban",,,,,,,,4598294
"Ireland","higher","non.p20","p20",,,,,0,,0,4598294
"Ireland","higher","non.p20","primary",,,,,,,,4598294
"Ireland","higher","non.p20","rural",,,,,,,,4598294
"Ireland","higher","non.p20","secondary",,,,,,,,4598294
"Ireland","higher","non.p20","stunted",,,,,,,,4598294
"Ireland","higher","non.p20","under5",,,,,,,,4598294
"Ireland","higher","non.p20","urban",,,,,,,,4598294
"Ireland","higher","p20","primary",,,,,,,,4598294
"Ireland","higher","p20","rural",,,,,,,,4598294
"Ireland","higher","p20","secondary",,,,,,,,4598294
"Ireland","higher","p20","stunted",,,,,,,,4598294
"Ireland","higher","p20","under5",,,,,,,,4598294
"Ireland","higher","p20","urban",,,,,,,,4598294
"Ireland","higher","primary","rural",,,,,,,,4598294
"Ireland","higher","primary","secondary",,,,,,,,4598294
"Ireland","higher","primary","stunted",,,,,,,,4598294
"Ireland","higher","primary","under5",,,,,,,,4598294
"Ireland","higher","primary","urban",,,,,,,,4598294
"Ireland","higher","rural","secondary",,,,,,,,4598294
"Ireland","higher","rural","stunted",,,,,,,,4598294
"Ireland","higher","rural","under5",,,,,,,,4598294
"Ireland","higher","rural","urban",,,,,,,,4598294
"Ireland","higher","secondary","stunted",,,,,,,,4598294
"Ireland","higher","secondary","under5",,,,,,,,4598294
"Ireland","higher","secondary","urban",,,,,,,,4598294
"Ireland","higher","stunted","under5",,,,,,,,4598294
"Ireland","higher","stunted","urban",,,,,,,,4598294
"Ireland","higher","under5","urban",,,,,,,,4598294
"Ireland","male","no.birth.reg","no.educ",,,,,,,,4598294
"Ireland","male","no.birth.reg","no.skilled.attendant",,,,,,,,4598294
"Ireland","male","no.birth.reg","non.p20",,,,,,,,4598294
"Ireland","male","no.birth.reg","p20",,,,,,,,4598294
"Ireland","male","no.birth.reg","primary",,,,,,,,4598294
"Ireland","male","no.birth.reg","rural",,,,,,,,4598294
"Ireland","male","no.birth.reg","secondary",,,,,,,,4598294
"Ireland","male","no.birth.reg","stunted",,,,,,,,4598294
"Ireland","male","no.birth.reg","under5",,,,,,,,4598294
"Ireland","male","no.birth.reg","urban",,,,,,,,4598294
"Ireland","male","no.educ","no.skilled.attendant",,,,,,,,4598294
"Ireland","male","no.educ","non.p20",,,,,,,,4598294
"Ireland","male","no.educ","p20",,,,,,,,4598294
"Ireland","male","no.educ","primary",,,,,,,,4598294
"Ireland","male","no.educ","rural",,,,,,,,4598294
"Ireland","male","no.educ","secondary",,,,,,,,4598294
"Ireland","male","no.educ","stunted",,,,,,,,4598294
"Ireland","male","no.educ","under5",,,,,,,,4598294
"Ireland","male","no.educ","urban",,,,,,,,4598294
"Ireland","male","no.skilled.attendant","non.p20",,,,,,,,4598294
"Ireland","male","no.skilled.attendant","p20",,,,,,,,4598294
"Ireland","male","no.skilled.attendant","primary",,,,,,,,4598294
"Ireland","male","no.skilled.attendant","rural",,,,,,,,4598294
"Ireland","male","no.skilled.attendant","secondary",,,,,,,,4598294
"Ireland","male","no.skilled.attendant","stunted",,,,,,,,4598294
"Ireland","male","no.skilled.attendant","under5",,,,,,,,4598294
"Ireland","male","no.skilled.attendant","urban",,,,,,,,4598294
"Ireland","male","non.p20","p20",,99,1,,0,,0,4598294
"Ireland","male","non.p20","primary",,,,,,,,4598294
"Ireland","male","non.p20","rural",,99,,,,,,4598294
"Ireland","male","non.p20","secondary",,,,,,,,4598294
"Ireland","male","non.p20","stunted",,,,,,,,4598294
"Ireland","male","non.p20","under5",,99,,,,,,4598294
"Ireland","male","non.p20","urban",,99,,,,,,4598294
"Ireland","male","p20","primary",,,,,,,,4598294
"Ireland","male","p20","rural",,1,,,,,,4598294
"Ireland","male","p20","secondary",,,,,,,,4598294
"Ireland","male","p20","stunted",,,,,,,,4598294
"Ireland","male","p20","under5",,1,,,,,,4598294
"Ireland","male","p20","urban",,1,,,,,,4598294
"Ireland","male","primary","rural",,,,,,,,4598294
"Ireland","male","primary","secondary",,,,,,,,4598294
"Ireland","male","primary","stunted",,,,,,,,4598294
"Ireland","male","primary","under5",,,,,,,,4598294
"Ireland","male","primary","urban",,,,,,,,4598294
"Ireland","male","rural","secondary",,,,,,,,4598294
"Ireland","male","rural","stunted",,,,,,,,4598294
"Ireland","male","rural","under5",,,,,,,,4598294
"Ireland","male","rural","urban",,,,,,,,4598294
"Ireland","male","secondary","stunted",,,,,,,,4598294
"Ireland","male","secondary","under5",,,,,,,,4598294
"Ireland","male","secondary","urban",,,,,,,,4598294
"Ireland","male","stunted","under5",,,,,,,,4598294
"Ireland","male","stunted","urban",,,,,,,,4598294
"Ireland","male","under5","urban",,,,,,,,4598294
"Ireland","no.birth.reg","no.educ","no.skilled.attendant",,,,,,,,4598294
"Ireland","no.birth.reg","no.educ","non.p20",,,,,,,,4598294
"Ireland","no.birth.reg","no.educ","p20",,,,,,,,4598294
"Ireland","no.birth.reg","no.educ","primary",,,,,,,,4598294
"Ireland","no.birth.reg","no.educ","rural",,,,,,,,4598294
"Ireland","no.birth.reg","no.educ","secondary",,,,,,,,4598294
"Ireland","no.birth.reg","no.educ","stunted",,,,,,,,4598294
"Ireland","no.birth.reg","no.educ","under5",,,,,,,,4598294
"Ireland","no.birth.reg","no.educ","urban",,,,,,,,4598294
"Ireland","no.birth.reg","no.skilled.attendant","non.p20",,,,,,,,4598294
"Ireland","no.birth.reg","no.skilled.attendant","p20",,,,,,,,4598294
"Ireland","no.birth.reg","no.skilled.attendant","primary",,,,,,,,4598294
"Ireland","no.birth.reg","no.skilled.attendant","rural",,,,,,,,4598294
"Ireland","no.birth.reg","no.skilled.attendant","secondary",,,,,,,,4598294
"Ireland","no.birth.reg","no.skilled.attendant","stunted",,,,,,,,4598294
"Ireland","no.birth.reg","no.skilled.attendant","under5",,,,,,,,4598294
"Ireland","no.birth.reg","no.skilled.attendant","urban",,,,,,,,4598294
"Ireland","no.birth.reg","non.p20","p20",,,,,0,,0,4598294
"Ireland","no.birth.reg","non.p20","primary",,,,,,,,4598294
"Ireland","no.birth.reg","non.p20","rural",,,,,,,,4598294
"Ireland","no.birth.reg","non.p20","secondary",,,,,,,,4598294
"Ireland","no.birth.reg","non.p20","stunted",,,,,,,,4598294
"Ireland","no.birth.reg","non.p20","under5",,,,,,,,4598294
"Ireland","no.birth.reg","non.p20","urban",,,,,,,,4598294
"Ireland","no.birth.reg","p20","primary",,,,,,,,4598294
"Ireland","no.birth.reg","p20","rural",,,,,,,,4598294
"Ireland","no.birth.reg","p20","secondary",,,,,,,,4598294
"Ireland","no.birth.reg","p20","stunted",,,,,,,,4598294
"Ireland","no.birth.reg","p20","under5",,,,,,,,4598294
"Ireland","no.birth.reg","p20","urban",,,,,,,,4598294
"Ireland","no.birth.reg","primary","rural",,,,,,,,4598294
"Ireland","no.birth.reg","primary","secondary",,,,,,,,4598294
"Ireland","no.birth.reg","primary","stunted",,,,,,,,4598294
"Ireland","no.birth.reg","primary","under5",,,,,,,,4598294
"Ireland","no.birth.reg","primary","urban",,,,,,,,4598294
"Ireland","no.birth.reg","rural","secondary",,,,,,,,4598294
"Ireland","no.birth.reg","rural","stunted",,,,,,,,4598294
"Ireland","no.birth.reg","rural","under5",,,,,,,,4598294
"Ireland","no.birth.reg","rural","urban",,,,,,,,4598294
"Ireland","no.birth.reg","secondary","stunted",,,,,,,,4598294
"Ireland","no.birth.reg","secondary","under5",,,,,,,,4598294
"Ireland","no.birth.reg","secondary","urban",,,,,,,,4598294
"Ireland","no.birth.reg","stunted","under5",,,,,,,,4598294
"Ireland","no.birth.reg","stunted","urban",,,,,,,,4598294
"Ireland","no.birth.reg","under5","urban",,,,,,,,4598294
"Ireland","no.educ","no.skilled.attendant","non.p20",,,,,,,,4598294
"Ireland","no.educ","no.skilled.attendant","p20",,,,,,,,4598294
"Ireland","no.educ","no.skilled.attendant","primary",,,,,,,,4598294
"Ireland","no.educ","no.skilled.attendant","rural",,,,,,,,4598294
"Ireland","no.educ","no.skilled.attendant","secondary",,,,,,,,4598294
"Ireland","no.educ","no.skilled.attendant","stunted",,,,,,,,4598294
"Ireland","no.educ","no.skilled.attendant","under5",,,,,,,,4598294
"Ireland","no.educ","no.skilled.attendant","urban",,,,,,,,4598294
"Ireland","no.educ","non.p20","p20",,,,,0,,0,4598294
"Ireland","no.educ","non.p20","primary",,,,,,,,4598294
"Ireland","no.educ","non.p20","rural",,,,,,,,4598294
"Ireland","no.educ","non.p20","secondary",,,,,,,,4598294
"Ireland","no.educ","non.p20","stunted",,,,,,,,4598294
"Ireland","no.educ","non.p20","under5",,,,,,,,4598294
"Ireland","no.educ","non.p20","urban",,,,,,,,4598294
"Ireland","no.educ","p20","primary",,,,,,,,4598294
"Ireland","no.educ","p20","rural",,,,,,,,4598294
"Ireland","no.educ","p20","secondary",,,,,,,,4598294
"Ireland","no.educ","p20","stunted",,,,,,,,4598294
"Ireland","no.educ","p20","under5",,,,,,,,4598294
"Ireland","no.educ","p20","urban",,,,,,,,4598294
"Ireland","no.educ","primary","rural",,,,,,,,4598294
"Ireland","no.educ","primary","secondary",,,,,,,,4598294
"Ireland","no.educ","primary","stunted",,,,,,,,4598294
"Ireland","no.educ","primary","under5",,,,,,,,4598294
"Ireland","no.educ","primary","urban",,,,,,,,4598294
"Ireland","no.educ","rural","secondary",,,,,,,,4598294
"Ireland","no.educ","rural","stunted",,,,,,,,4598294
"Ireland","no.educ","rural","under5",,,,,,,,4598294
"Ireland","no.educ","rural","urban",,,,,,,,4598294
"Ireland","no.educ","secondary","stunted",,,,,,,,4598294
"Ireland","no.educ","secondary","under5",,,,,,,,4598294
"Ireland","no.educ","secondary","urban",,,,,,,,4598294
"Ireland","no.educ","stunted","under5",,,,,,,,4598294
"Ireland","no.educ","stunted","urban",,,,,,,,4598294
"Ireland","no.educ","under5","urban",,,,,,,,4598294
"Ireland","no.skilled.attendant","non.p20","p20",,,,,0,,0,4598294
"Ireland","no.skilled.attendant","non.p20","primary",,,,,,,,4598294
"Ireland","no.skilled.attendant","non.p20","rural",,,,,,,,4598294
"Ireland","no.skilled.attendant","non.p20","secondary",,,,,,,,4598294
"Ireland","no.skilled.attendant","non.p20","stunted",,,,,,,,4598294
"Ireland","no.skilled.attendant","non.p20","under5",,,,,,,,4598294
"Ireland","no.skilled.attendant","non.p20","urban",,,,,,,,4598294
"Ireland","no.skilled.attendant","p20","primary",,,,,,,,4598294
"Ireland","no.skilled.attendant","p20","rural",,,,,,,,4598294
"Ireland","no.skilled.attendant","p20","secondary",,,,,,,,4598294
"Ireland","no.skilled.attendant","p20","stunted",,,,,,,,4598294
"Ireland","no.skilled.attendant","p20","under5",,,,,,,,4598294
"Ireland","no.skilled.attendant","p20","urban",,,,,,,,4598294
"Ireland","no.skilled.attendant","primary","rural",,,,,,,,4598294
"Ireland","no.skilled.attendant","primary","secondary",,,,,,,,4598294
"Ireland","no.skilled.attendant","primary","stunted",,,,,,,,4598294
"Ireland","no.skilled.attendant","primary","under5",,,,,,,,4598294
"Ireland","no.skilled.attendant","primary","urban",,,,,,,,4598294
"Ireland","no.skilled.attendant","rural","secondary",,,,,,,,4598294
"Ireland","no.skilled.attendant","rural","stunted",,,,,,,,4598294
"Ireland","no.skilled.attendant","rural","under5",,,,,,,,4598294
"Ireland","no.skilled.attendant","rural","urban",,,,,,,,4598294
"Ireland","no.skilled.attendant","secondary","stunted",,,,,,,,4598294
"Ireland","no.skilled.attendant","secondary","under5",,,,,,,,4598294
"Ireland","no.skilled.attendant","secondary","urban",,,,,,,,4598294
"Ireland","no.skilled.attendant","stunted","under5",,,,,,,,4598294
"Ireland","no.skilled.attendant","stunted","urban",,,,,,,,4598294
"Ireland","no.skilled.attendant","under5","urban",,,,,,,,4598294
"Ireland","non.p20","p20","primary",,,,0,,,0,4598294
"Ireland","non.p20","p20","rural",99,1,,0,,,0,4598294
"Ireland","non.p20","p20","secondary",,,,0,,,0,4598294
"Ireland","non.p20","p20","stunted",,,,0,,,0,4598294
"Ireland","non.p20","p20","under5",99,1,,0,,,0,4598294
"Ireland","non.p20","p20","urban",99,1,,0,,,0,4598294
"Ireland","non.p20","primary","rural",,,,,,,,4598294
"Ireland","non.p20","primary","secondary",,,,,,,,4598294
"Ireland","non.p20","primary","stunted",,,,,,,,4598294
"Ireland","non.p20","primary","under5",,,,,,,,4598294
"Ireland","non.p20","primary","urban",,,,,,,,4598294
"Ireland","non.p20","rural","secondary",,,,,,,,4598294
"Ireland","non.p20","rural","stunted",,,,,,,,4598294
"Ireland","non.p20","rural","under5",99,,,,,,,4598294
"Ireland","non.p20","rural","urban",99,,,,,,,4598294
"Ireland","non.p20","secondary","stunted",,,,,,,,4598294
"Ireland","non.p20","secondary","under5",,,,,,,,4598294
"Ireland","non.p20","secondary","urban",,,,,,,,4598294
"Ireland","non.p20","stunted","under5",,,,,,,,4598294
"Ireland","non.p20","stunted","urban",,,,,,,,4598294
"Ireland","non.p20","under5","urban",99,,,,,,,4598294
"Ireland","p20","primary","rural",,,,,,,,4598294
"Ireland","p20","primary","secondary",,,,,,,,4598294
"Ireland","p20","primary","stunted",,,,,,,,4598294
"Ireland","p20","primary","under5",,,,,,,,4598294
"Ireland","p20","primary","urban",,,,,,,,4598294
"Ireland","p20","rural","secondary",,,,,,,,4598294
"Ireland","p20","rural","stunted",,,,,,,,4598294
"Ireland","p20","rural","under5",1,,,,,,,4598294
"Ireland","p20","rural","urban",1,,,,,,,4598294
"Ireland","p20","secondary","stunted",,,,,,,,4598294
"Ireland","p20","secondary","under5",,,,,,,,4598294
"Ireland","p20","secondary","urban",,,,,,,,4598294
"Ireland","p20","stunted","under5",,,,,,,,4598294
"Ireland","p20","stunted","urban",,,,,,,,4598294
"Ireland","p20","under5","urban",1,,,,,,,4598294
"Ireland","primary","rural","secondary",,,,,,,,4598294
"Ireland","primary","rural","stunted",,,,,,,,4598294
"Ireland","primary","rural","under5",,,,,,,,4598294
"Ireland","primary","rural","urban",,,,,,,,4598294
"Ireland","primary","secondary","stunted",,,,,,,,4598294
"Ireland","primary","secondary","under5",,,,,,,,4598294
"Ireland","primary","secondary","urban",,,,,,,,4598294
"Ireland","primary","stunted","under5",,,,,,,,4598294
"Ireland","primary","stunted","urban",,,,,,,,4598294
"Ireland","primary","under5","urban",,,,,,,,4598294
"Ireland","rural","secondary","stunted",,,,,,,,4598294
"Ireland","rural","secondary","under5",,,,,,,,4598294
"Ireland","rural","secondary","urban",,,,,,,,4598294
"Ireland","rural","stunted","under5",,,,,,,,4598294
"Ireland","rural","stunted","urban",,,,,,,,4598294
"Ireland","rural","under5","urban",,,,,,,,4598294
"Ireland","secondary","stunted","under5",,,,,,,,4598294
"Ireland","secondary","stunted","urban",,,,,,,,4598294
"Ireland","secondary","under5","urban",,,,,,,,4598294
"Ireland","stunted","under5","urban",,,,,,,,4598294
