"filename","indicator1","indicator2","indicator3","X","Y","Z","X,Y","Y,Z","X,Z","X,Y,Z","pop"
"kehr70dt","blank1","blank2","ext",100,100,25,100,25,25,25,44828000
"kehr70dt","blank1","blank2","female",100,100,51,100,51,51,51,44828000
"kehr70dt","blank1","blank2","fifteento49",100,100,46,100,46,46,46,44828000
"kehr70dt","blank1","blank2","fiveto14",100,100,29,100,29,29,29,44828000
"kehr70dt","blank1","blank2","gt49",100,100,11,100,11,11,11,44828000
"kehr70dt","blank1","blank2","higher",100,100,12,100,12,12,12,16861000
"kehr70dt","blank1","blank2","male",100,100,49,100,49,49,49,44828000
"kehr70dt","blank1","blank2","no.birth.reg",100,100,31,100,31,31,31,6927000
"kehr70dt","blank1","blank2","no.educ",100,100,37,100,37,37,37,16861000
"kehr70dt","blank1","blank2","no.skilled.attendant",,,,,,,,11132000
"kehr70dt","blank1","blank2","non.p20",100,100,60,100,60,60,60,44828000
"kehr70dt","blank1","blank2","p20",100,100,40,100,40,40,40,44828000
"kehr70dt","blank1","blank2","primary",100,100,63,100,63,63,63,16861000
"kehr70dt","blank1","blank2","rural",100,100,66,100,66,66,66,44828000
"kehr70dt","blank1","blank2","secondary",100,100,30,100,30,30,30,16861000
"kehr70dt","blank1","blank2","stunted",100,100,26,100,26,26,26,6927000
"kehr70dt","blank1","blank2","under5",100,100,14,100,14,14,14,44828000
"kehr70dt","blank1","blank2","urban",100,100,34,100,34,34,34,44828000
"kehr70dt","blank1","ext","female",100,25,51,25,13,51,13,44828000
"kehr70dt","blank1","ext","fifteento49",100,25,46,25,9,46,9,44828000
"kehr70dt","blank1","ext","fiveto14",100,25,29,25,9,29,9,44828000
"kehr70dt","blank1","ext","gt49",100,25,11,25,3,11,3,44828000
"kehr70dt","blank1","ext","higher",100,21,12,21,0,12,0,16861000
"kehr70dt","blank1","ext","male",100,25,49,25,12,49,12,44828000
"kehr70dt","blank1","ext","no.birth.reg",100,30,31,30,14,31,14,6927000
"kehr70dt","blank1","ext","no.educ",100,21,37,21,15,37,15,16861000
"kehr70dt","blank1","ext","no.skilled.attendant",,,,,,,,11132000
"kehr70dt","blank1","ext","non.p20",100,25,60,25,0,60,0,44828000
"kehr70dt","blank1","ext","p20",100,25,40,25,25,40,25,44828000
"kehr70dt","blank1","ext","primary",100,21,63,21,6,63,6,16861000
"kehr70dt","blank1","ext","rural",100,25,66,25,22,66,22,44828000
"kehr70dt","blank1","ext","secondary",100,21,30,21,1,30,1,16861000
"kehr70dt","blank1","ext","stunted",100,30,26,30,10,26,10,6927000
"kehr70dt","blank1","ext","under5",100,25,14,25,4,14,4,44828000
"kehr70dt","blank1","ext","urban",100,25,34,25,3,34,3,44828000
"kehr70dt","blank1","female","fifteento49",100,51,46,51,24,46,24,44828000
"kehr70dt","blank1","female","fiveto14",100,51,29,51,14,29,14,44828000
"kehr70dt","blank1","female","gt49",100,51,11,51,6,11,6,44828000
"kehr70dt","blank1","female","higher",100,52,12,52,5,12,5,16861000
"kehr70dt","blank1","female","male",100,51,49,51,0,49,0,44828000
"kehr70dt","blank1","female","no.birth.reg",100,49,31,49,15,31,15,6927000
"kehr70dt","blank1","female","no.educ",100,52,37,52,23,37,23,16861000
"kehr70dt","blank1","female","no.skilled.attendant",,,,,,,,11132000
"kehr70dt","blank1","female","non.p20",100,51,60,51,31,60,31,44828000
"kehr70dt","blank1","female","p20",100,51,40,51,20,40,20,44828000
"kehr70dt","blank1","female","primary",100,52,63,52,29,63,29,16861000
"kehr70dt","blank1","female","rural",100,51,66,51,34,66,34,44828000
"kehr70dt","blank1","female","secondary",100,52,30,52,12,30,12,16861000
"kehr70dt","blank1","female","stunted",100,49,26,49,11,26,11,6927000
"kehr70dt","blank1","female","under5",100,51,14,51,7,14,7,44828000
"kehr70dt","blank1","female","urban",100,51,34,51,17,34,17,44828000
"kehr70dt","blank1","fifteento49","fiveto14",100,46,29,46,0,29,0,44828000
"kehr70dt","blank1","fifteento49","gt49",100,46,11,46,0,11,0,44828000
"kehr70dt","blank1","fifteento49","higher",100,71,12,71,10,12,10,16861000
"kehr70dt","blank1","fifteento49","male",100,46,49,46,23,49,23,44828000
"kehr70dt","blank1","fifteento49","no.birth.reg",100,0,31,0,0,31,0,6927000
"kehr70dt","blank1","fifteento49","no.educ",100,71,37,71,21,37,21,16861000
"kehr70dt","blank1","fifteento49","no.skilled.attendant",,,,,,,,11132000
"kehr70dt","blank1","fifteento49","non.p20",100,46,60,46,31,60,31,44828000
"kehr70dt","blank1","fifteento49","p20",100,46,40,46,15,40,15,44828000
"kehr70dt","blank1","fifteento49","primary",100,71,63,71,51,63,51,16861000
"kehr70dt","blank1","fifteento49","rural",100,46,66,46,27,66,27,44828000
"kehr70dt","blank1","fifteento49","secondary",100,71,30,71,25,30,25,16861000
"kehr70dt","blank1","fifteento49","stunted",100,0,26,0,0,26,0,6927000
"kehr70dt","blank1","fifteento49","under5",100,46,14,46,0,14,0,44828000
"kehr70dt","blank1","fifteento49","urban",100,46,34,46,19,34,19,44828000
"kehr70dt","blank1","fiveto14","gt49",100,29,11,29,0,11,0,44828000
"kehr70dt","blank1","fiveto14","higher",100,0,12,0,0,12,0,16861000
"kehr70dt","blank1","fiveto14","male",100,29,49,29,14,49,14,44828000
"kehr70dt","blank1","fiveto14","no.birth.reg",100,0,31,0,0,31,0,6927000
"kehr70dt","blank1","fiveto14","no.educ",100,0,37,0,0,37,0,16861000
"kehr70dt","blank1","fiveto14","no.skilled.attendant",,,,,,,,11132000
"kehr70dt","blank1","fiveto14","non.p20",100,29,60,29,15,60,15,44828000
"kehr70dt","blank1","fiveto14","p20",100,29,40,29,13,40,13,44828000
"kehr70dt","blank1","fiveto14","primary",100,0,63,0,0,63,0,16861000
"kehr70dt","blank1","fiveto14","rural",100,29,66,29,21,66,21,44828000
"kehr70dt","blank1","fiveto14","secondary",100,0,30,0,0,30,0,16861000
"kehr70dt","blank1","fiveto14","stunted",100,0,26,0,0,26,0,6927000
"kehr70dt","blank1","fiveto14","under5",100,29,14,29,0,14,0,44828000
"kehr70dt","blank1","fiveto14","urban",100,29,34,29,8,34,8,44828000
"kehr70dt","blank1","gt49","higher",100,29,12,29,2,12,2,16861000
"kehr70dt","blank1","gt49","male",100,11,49,11,5,49,5,44828000
"kehr70dt","blank1","gt49","no.birth.reg",100,0,31,0,0,31,0,6927000
"kehr70dt","blank1","gt49","no.educ",100,29,37,29,16,37,16,16861000
"kehr70dt","blank1","gt49","no.skilled.attendant",,,,,,,,11132000
"kehr70dt","blank1","gt49","non.p20",100,11,60,11,6,60,6,44828000
"kehr70dt","blank1","gt49","p20",100,11,40,11,5,40,5,44828000
"kehr70dt","blank1","gt49","primary",100,29,63,29,12,63,12,16861000
"kehr70dt","blank1","gt49","rural",100,11,66,11,8,66,8,44828000
"kehr70dt","blank1","gt49","secondary",100,29,30,29,5,30,5,16861000
"kehr70dt","blank1","gt49","stunted",100,0,26,0,0,26,0,6927000
"kehr70dt","blank1","gt49","under5",100,11,14,11,0,14,0,44828000
"kehr70dt","blank1","gt49","urban",100,11,34,11,3,34,3,44828000
"kehr70dt","blank1","higher","male",100,12,48,12,7,48,7,16861000
"kehr70dt","blank1","higher","no.birth.reg",,,,,,,,16861000
"kehr70dt","blank1","higher","no.educ",100,12,37,12,0,37,0,16861000
"kehr70dt","blank1","higher","no.skilled.attendant",,,,,,,,6619000
"kehr70dt","blank1","higher","non.p20",100,12,65,12,12,65,12,16861000
"kehr70dt","blank1","higher","p20",100,12,35,12,1,35,1,16861000
"kehr70dt","blank1","higher","primary",100,12,63,12,12,63,12,16861000
"kehr70dt","blank1","higher","rural",100,12,61,12,4,61,4,16861000
"kehr70dt","blank1","higher","secondary",100,12,30,12,12,30,12,16861000
"kehr70dt","blank1","higher","stunted",,,,,,,,16861000
"kehr70dt","blank1","higher","under5",100,12,0,12,0,0,0,16861000
"kehr70dt","blank1","higher","urban",100,12,39,12,8,39,8,16861000
"kehr70dt","blank1","male","no.birth.reg",100,51,31,51,15,31,15,6927000
"kehr70dt","blank1","male","no.educ",100,48,37,48,14,37,14,16861000
"kehr70dt","blank1","male","no.skilled.attendant",,,,,,,,11132000
"kehr70dt","blank1","male","non.p20",100,49,60,49,30,60,30,44828000
"kehr70dt","blank1","male","p20",100,49,40,49,20,40,20,44828000
"kehr70dt","blank1","male","primary",100,48,63,48,34,63,34,16861000
"kehr70dt","blank1","male","rural",100,49,66,49,32,66,32,44828000
"kehr70dt","blank1","male","secondary",100,48,30,48,17,30,17,16861000
"kehr70dt","blank1","male","stunted",100,51,26,51,15,26,15,6927000
"kehr70dt","blank1","male","under5",100,49,14,49,7,14,7,44828000
"kehr70dt","blank1","male","urban",100,49,34,49,17,34,17,44828000
"kehr70dt","blank1","no.birth.reg","no.educ",,,,,,,,16861000
"kehr70dt","blank1","no.birth.reg","no.skilled.attendant",,,,,,,,6927000
"kehr70dt","blank1","no.birth.reg","non.p20",100,31,54,31,11,54,11,6927000
"kehr70dt","blank1","no.birth.reg","p20",100,31,46,31,19,46,19,6927000
"kehr70dt","blank1","no.birth.reg","primary",,,,,,,,16861000
"kehr70dt","blank1","no.birth.reg","rural",100,31,67,31,24,67,24,6927000
"kehr70dt","blank1","no.birth.reg","secondary",,,,,,,,16861000
"kehr70dt","blank1","no.birth.reg","stunted",100,31,26,31,9,26,9,6927000
"kehr70dt","blank1","no.birth.reg","under5",100,31,100,31,31,100,31,6927000
"kehr70dt","blank1","no.birth.reg","urban",100,31,33,31,6,33,6,6927000
"kehr70dt","blank1","no.educ","no.skilled.attendant",,,,,,,,6619000
"kehr70dt","blank1","no.educ","non.p20",100,37,65,37,15,65,15,16861000
"kehr70dt","blank1","no.educ","p20",100,37,35,37,22,35,22,16861000
"kehr70dt","blank1","no.educ","primary",100,37,63,37,0,63,0,16861000
"kehr70dt","blank1","no.educ","rural",100,37,61,37,29,61,29,16861000
"kehr70dt","blank1","no.educ","secondary",100,37,30,37,0,30,0,16861000
"kehr70dt","blank1","no.educ","stunted",,,,,,,,16861000
"kehr70dt","blank1","no.educ","under5",100,37,0,37,0,0,0,16861000
"kehr70dt","blank1","no.educ","urban",100,37,39,37,8,39,8,16861000
"kehr70dt","blank1","no.skilled.attendant","non.p20",,,,,,,,11132000
"kehr70dt","blank1","no.skilled.attendant","p20",,,,,,,,11132000
"kehr70dt","blank1","no.skilled.attendant","primary",,,,,,,,6619000
"kehr70dt","blank1","no.skilled.attendant","rural",,,,,,,,11132000
"kehr70dt","blank1","no.skilled.attendant","secondary",,,,,,,,6619000
"kehr70dt","blank1","no.skilled.attendant","stunted",,,,,,,,6927000
"kehr70dt","blank1","no.skilled.attendant","under5",,,,,,,,11132000
"kehr70dt","blank1","no.skilled.attendant","urban",,,,,,,,11132000
"kehr70dt","blank1","non.p20","p20",100,60,40,60,0,40,0,44828000
"kehr70dt","blank1","non.p20","primary",100,65,63,65,50,63,50,16861000
"kehr70dt","blank1","non.p20","rural",100,60,66,60,31,66,31,44828000
"kehr70dt","blank1","non.p20","secondary",100,65,30,65,27,30,27,16861000
"kehr70dt","blank1","non.p20","stunted",100,54,26,54,11,26,11,6927000
"kehr70dt","blank1","non.p20","under5",100,60,14,60,8,14,8,44828000
"kehr70dt","blank1","non.p20","urban",100,60,34,60,29,34,29,44828000
"kehr70dt","blank1","p20","primary",100,35,63,35,12,63,12,16861000
"kehr70dt","blank1","p20","rural",100,40,66,40,35,66,35,44828000
"kehr70dt","blank1","p20","secondary",100,35,30,35,3,30,3,16861000
"kehr70dt","blank1","p20","stunted",100,46,26,46,15,26,15,6927000
"kehr70dt","blank1","p20","under5",100,40,14,40,6,14,6,44828000
"kehr70dt","blank1","p20","urban",100,40,34,40,5,34,5,44828000
"kehr70dt","blank1","primary","rural",100,63,61,63,32,61,32,16861000
"kehr70dt","blank1","primary","secondary",100,63,30,63,30,30,30,16861000
"kehr70dt","blank1","primary","stunted",,,,,,,,16861000
"kehr70dt","blank1","primary","under5",100,63,0,63,0,0,0,16861000
"kehr70dt","blank1","primary","urban",100,63,39,63,31,39,31,16861000
"kehr70dt","blank1","rural","secondary",100,61,30,61,11,30,11,16861000
"kehr70dt","blank1","rural","stunted",100,67,26,67,19,26,19,6927000
"kehr70dt","blank1","rural","under5",100,66,14,66,9,14,9,44828000
"kehr70dt","blank1","rural","urban",100,66,34,66,0,34,0,44828000
"kehr70dt","blank1","secondary","stunted",,,,,,,,16861000
"kehr70dt","blank1","secondary","under5",100,30,0,30,0,0,0,16861000
"kehr70dt","blank1","secondary","urban",100,30,39,30,18,39,18,16861000
"kehr70dt","blank1","stunted","under5",100,26,100,26,26,100,26,6927000
"kehr70dt","blank1","stunted","urban",100,26,33,26,6,33,6,6927000
"kehr70dt","blank1","under5","urban",100,14,34,14,5,34,5,44828000
"kehr70dt","blank2","ext","female",100,25,51,25,13,51,13,44828000
"kehr70dt","blank2","ext","fifteento49",100,25,46,25,9,46,9,44828000
"kehr70dt","blank2","ext","fiveto14",100,25,29,25,9,29,9,44828000
"kehr70dt","blank2","ext","gt49",100,25,11,25,3,11,3,44828000
"kehr70dt","blank2","ext","higher",100,21,12,21,0,12,0,16861000
"kehr70dt","blank2","ext","male",100,25,49,25,12,49,12,44828000
"kehr70dt","blank2","ext","no.birth.reg",100,30,31,30,14,31,14,6927000
"kehr70dt","blank2","ext","no.educ",100,21,37,21,15,37,15,16861000
"kehr70dt","blank2","ext","no.skilled.attendant",,,,,,,,11132000
"kehr70dt","blank2","ext","non.p20",100,25,60,25,0,60,0,44828000
"kehr70dt","blank2","ext","p20",100,25,40,25,25,40,25,44828000
"kehr70dt","blank2","ext","primary",100,21,63,21,6,63,6,16861000
"kehr70dt","blank2","ext","rural",100,25,66,25,22,66,22,44828000
"kehr70dt","blank2","ext","secondary",100,21,30,21,1,30,1,16861000
"kehr70dt","blank2","ext","stunted",100,30,26,30,10,26,10,6927000
"kehr70dt","blank2","ext","under5",100,25,14,25,4,14,4,44828000
"kehr70dt","blank2","ext","urban",100,25,34,25,3,34,3,44828000
"kehr70dt","blank2","female","fifteento49",100,51,46,51,24,46,24,44828000
"kehr70dt","blank2","female","fiveto14",100,51,29,51,14,29,14,44828000
"kehr70dt","blank2","female","gt49",100,51,11,51,6,11,6,44828000
"kehr70dt","blank2","female","higher",100,52,12,52,5,12,5,16861000
"kehr70dt","blank2","female","male",100,51,49,51,0,49,0,44828000
"kehr70dt","blank2","female","no.birth.reg",100,49,31,49,15,31,15,6927000
"kehr70dt","blank2","female","no.educ",100,52,37,52,23,37,23,16861000
"kehr70dt","blank2","female","no.skilled.attendant",,,,,,,,11132000
"kehr70dt","blank2","female","non.p20",100,51,60,51,31,60,31,44828000
"kehr70dt","blank2","female","p20",100,51,40,51,20,40,20,44828000
"kehr70dt","blank2","female","primary",100,52,63,52,29,63,29,16861000
"kehr70dt","blank2","female","rural",100,51,66,51,34,66,34,44828000
"kehr70dt","blank2","female","secondary",100,52,30,52,12,30,12,16861000
"kehr70dt","blank2","female","stunted",100,49,26,49,11,26,11,6927000
"kehr70dt","blank2","female","under5",100,51,14,51,7,14,7,44828000
"kehr70dt","blank2","female","urban",100,51,34,51,17,34,17,44828000
"kehr70dt","blank2","fifteento49","fiveto14",100,46,29,46,0,29,0,44828000
"kehr70dt","blank2","fifteento49","gt49",100,46,11,46,0,11,0,44828000
"kehr70dt","blank2","fifteento49","higher",100,71,12,71,10,12,10,16861000
"kehr70dt","blank2","fifteento49","male",100,46,49,46,23,49,23,44828000
"kehr70dt","blank2","fifteento49","no.birth.reg",100,0,31,0,0,31,0,6927000
"kehr70dt","blank2","fifteento49","no.educ",100,71,37,71,21,37,21,16861000
"kehr70dt","blank2","fifteento49","no.skilled.attendant",,,,,,,,11132000
"kehr70dt","blank2","fifteento49","non.p20",100,46,60,46,31,60,31,44828000
"kehr70dt","blank2","fifteento49","p20",100,46,40,46,15,40,15,44828000
"kehr70dt","blank2","fifteento49","primary",100,71,63,71,51,63,51,16861000
"kehr70dt","blank2","fifteento49","rural",100,46,66,46,27,66,27,44828000
"kehr70dt","blank2","fifteento49","secondary",100,71,30,71,25,30,25,16861000
"kehr70dt","blank2","fifteento49","stunted",100,0,26,0,0,26,0,6927000
"kehr70dt","blank2","fifteento49","under5",100,46,14,46,0,14,0,44828000
"kehr70dt","blank2","fifteento49","urban",100,46,34,46,19,34,19,44828000
"kehr70dt","blank2","fiveto14","gt49",100,29,11,29,0,11,0,44828000
"kehr70dt","blank2","fiveto14","higher",100,0,12,0,0,12,0,16861000
"kehr70dt","blank2","fiveto14","male",100,29,49,29,14,49,14,44828000
"kehr70dt","blank2","fiveto14","no.birth.reg",100,0,31,0,0,31,0,6927000
"kehr70dt","blank2","fiveto14","no.educ",100,0,37,0,0,37,0,16861000
"kehr70dt","blank2","fiveto14","no.skilled.attendant",,,,,,,,11132000
"kehr70dt","blank2","fiveto14","non.p20",100,29,60,29,15,60,15,44828000
"kehr70dt","blank2","fiveto14","p20",100,29,40,29,13,40,13,44828000
"kehr70dt","blank2","fiveto14","primary",100,0,63,0,0,63,0,16861000
"kehr70dt","blank2","fiveto14","rural",100,29,66,29,21,66,21,44828000
"kehr70dt","blank2","fiveto14","secondary",100,0,30,0,0,30,0,16861000
"kehr70dt","blank2","fiveto14","stunted",100,0,26,0,0,26,0,6927000
"kehr70dt","blank2","fiveto14","under5",100,29,14,29,0,14,0,44828000
"kehr70dt","blank2","fiveto14","urban",100,29,34,29,8,34,8,44828000
"kehr70dt","blank2","gt49","higher",100,29,12,29,2,12,2,16861000
"kehr70dt","blank2","gt49","male",100,11,49,11,5,49,5,44828000
"kehr70dt","blank2","gt49","no.birth.reg",100,0,31,0,0,31,0,6927000
"kehr70dt","blank2","gt49","no.educ",100,29,37,29,16,37,16,16861000
"kehr70dt","blank2","gt49","no.skilled.attendant",,,,,,,,11132000
"kehr70dt","blank2","gt49","non.p20",100,11,60,11,6,60,6,44828000
"kehr70dt","blank2","gt49","p20",100,11,40,11,5,40,5,44828000
"kehr70dt","blank2","gt49","primary",100,29,63,29,12,63,12,16861000
"kehr70dt","blank2","gt49","rural",100,11,66,11,8,66,8,44828000
"kehr70dt","blank2","gt49","secondary",100,29,30,29,5,30,5,16861000
"kehr70dt","blank2","gt49","stunted",100,0,26,0,0,26,0,6927000
"kehr70dt","blank2","gt49","under5",100,11,14,11,0,14,0,44828000
"kehr70dt","blank2","gt49","urban",100,11,34,11,3,34,3,44828000
"kehr70dt","blank2","higher","male",100,12,48,12,7,48,7,16861000
"kehr70dt","blank2","higher","no.birth.reg",,,,,,,,16861000
"kehr70dt","blank2","higher","no.educ",100,12,37,12,0,37,0,16861000
"kehr70dt","blank2","higher","no.skilled.attendant",,,,,,,,6619000
"kehr70dt","blank2","higher","non.p20",100,12,65,12,12,65,12,16861000
"kehr70dt","blank2","higher","p20",100,12,35,12,1,35,1,16861000
"kehr70dt","blank2","higher","primary",100,12,63,12,12,63,12,16861000
"kehr70dt","blank2","higher","rural",100,12,61,12,4,61,4,16861000
"kehr70dt","blank2","higher","secondary",100,12,30,12,12,30,12,16861000
"kehr70dt","blank2","higher","stunted",,,,,,,,16861000
"kehr70dt","blank2","higher","under5",100,12,0,12,0,0,0,16861000
"kehr70dt","blank2","higher","urban",100,12,39,12,8,39,8,16861000
"kehr70dt","blank2","male","no.birth.reg",100,51,31,51,15,31,15,6927000
"kehr70dt","blank2","male","no.educ",100,48,37,48,14,37,14,16861000
"kehr70dt","blank2","male","no.skilled.attendant",,,,,,,,11132000
"kehr70dt","blank2","male","non.p20",100,49,60,49,30,60,30,44828000
"kehr70dt","blank2","male","p20",100,49,40,49,20,40,20,44828000
"kehr70dt","blank2","male","primary",100,48,63,48,34,63,34,16861000
"kehr70dt","blank2","male","rural",100,49,66,49,32,66,32,44828000
"kehr70dt","blank2","male","secondary",100,48,30,48,17,30,17,16861000
"kehr70dt","blank2","male","stunted",100,51,26,51,15,26,15,6927000
"kehr70dt","blank2","male","under5",100,49,14,49,7,14,7,44828000
"kehr70dt","blank2","male","urban",100,49,34,49,17,34,17,44828000
"kehr70dt","blank2","no.birth.reg","no.educ",,,,,,,,16861000
"kehr70dt","blank2","no.birth.reg","no.skilled.attendant",,,,,,,,6927000
"kehr70dt","blank2","no.birth.reg","non.p20",100,31,54,31,11,54,11,6927000
"kehr70dt","blank2","no.birth.reg","p20",100,31,46,31,19,46,19,6927000
"kehr70dt","blank2","no.birth.reg","primary",,,,,,,,16861000
"kehr70dt","blank2","no.birth.reg","rural",100,31,67,31,24,67,24,6927000
"kehr70dt","blank2","no.birth.reg","secondary",,,,,,,,16861000
"kehr70dt","blank2","no.birth.reg","stunted",100,31,26,31,9,26,9,6927000
"kehr70dt","blank2","no.birth.reg","under5",100,31,100,31,31,100,31,6927000
"kehr70dt","blank2","no.birth.reg","urban",100,31,33,31,6,33,6,6927000
"kehr70dt","blank2","no.educ","no.skilled.attendant",,,,,,,,6619000
"kehr70dt","blank2","no.educ","non.p20",100,37,65,37,15,65,15,16861000
"kehr70dt","blank2","no.educ","p20",100,37,35,37,22,35,22,16861000
"kehr70dt","blank2","no.educ","primary",100,37,63,37,0,63,0,16861000
"kehr70dt","blank2","no.educ","rural",100,37,61,37,29,61,29,16861000
"kehr70dt","blank2","no.educ","secondary",100,37,30,37,0,30,0,16861000
"kehr70dt","blank2","no.educ","stunted",,,,,,,,16861000
"kehr70dt","blank2","no.educ","under5",100,37,0,37,0,0,0,16861000
"kehr70dt","blank2","no.educ","urban",100,37,39,37,8,39,8,16861000
"kehr70dt","blank2","no.skilled.attendant","non.p20",,,,,,,,11132000
"kehr70dt","blank2","no.skilled.attendant","p20",,,,,,,,11132000
"kehr70dt","blank2","no.skilled.attendant","primary",,,,,,,,6619000
"kehr70dt","blank2","no.skilled.attendant","rural",,,,,,,,11132000
"kehr70dt","blank2","no.skilled.attendant","secondary",,,,,,,,6619000
"kehr70dt","blank2","no.skilled.attendant","stunted",,,,,,,,6927000
"kehr70dt","blank2","no.skilled.attendant","under5",,,,,,,,11132000
"kehr70dt","blank2","no.skilled.attendant","urban",,,,,,,,11132000
"kehr70dt","blank2","non.p20","p20",100,60,40,60,0,40,0,44828000
"kehr70dt","blank2","non.p20","primary",100,65,63,65,50,63,50,16861000
"kehr70dt","blank2","non.p20","rural",100,60,66,60,31,66,31,44828000
"kehr70dt","blank2","non.p20","secondary",100,65,30,65,27,30,27,16861000
"kehr70dt","blank2","non.p20","stunted",100,54,26,54,11,26,11,6927000
"kehr70dt","blank2","non.p20","under5",100,60,14,60,8,14,8,44828000
"kehr70dt","blank2","non.p20","urban",100,60,34,60,29,34,29,44828000
"kehr70dt","blank2","p20","primary",100,35,63,35,12,63,12,16861000
"kehr70dt","blank2","p20","rural",100,40,66,40,35,66,35,44828000
"kehr70dt","blank2","p20","secondary",100,35,30,35,3,30,3,16861000
"kehr70dt","blank2","p20","stunted",100,46,26,46,15,26,15,6927000
"kehr70dt","blank2","p20","under5",100,40,14,40,6,14,6,44828000
"kehr70dt","blank2","p20","urban",100,40,34,40,5,34,5,44828000
"kehr70dt","blank2","primary","rural",100,63,61,63,32,61,32,16861000
"kehr70dt","blank2","primary","secondary",100,63,30,63,30,30,30,16861000
"kehr70dt","blank2","primary","stunted",,,,,,,,16861000
"kehr70dt","blank2","primary","under5",100,63,0,63,0,0,0,16861000
"kehr70dt","blank2","primary","urban",100,63,39,63,31,39,31,16861000
"kehr70dt","blank2","rural","secondary",100,61,30,61,11,30,11,16861000
"kehr70dt","blank2","rural","stunted",100,67,26,67,19,26,19,6927000
"kehr70dt","blank2","rural","under5",100,66,14,66,9,14,9,44828000
"kehr70dt","blank2","rural","urban",100,66,34,66,0,34,0,44828000
"kehr70dt","blank2","secondary","stunted",,,,,,,,16861000
"kehr70dt","blank2","secondary","under5",100,30,0,30,0,0,0,16861000
"kehr70dt","blank2","secondary","urban",100,30,39,30,18,39,18,16861000
"kehr70dt","blank2","stunted","under5",100,26,100,26,26,100,26,6927000
"kehr70dt","blank2","stunted","urban",100,26,33,26,6,33,6,6927000
"kehr70dt","blank2","under5","urban",100,14,34,14,5,34,5,44828000
"kehr70dt","ext","female","fifteento49",25,51,46,13,24,9,5,44828000
"kehr70dt","ext","female","fiveto14",25,51,29,13,14,9,4,44828000
"kehr70dt","ext","female","gt49",25,51,11,13,6,3,2,44828000
"kehr70dt","ext","female","higher",21,52,12,12,5,0,0,16861000
"kehr70dt","ext","female","male",25,51,49,13,0,12,0,44828000
"kehr70dt","ext","female","no.birth.reg",30,49,31,15,15,14,7,6927000
"kehr70dt","ext","female","no.educ",21,52,37,12,23,15,9,16861000
"kehr70dt","ext","female","no.skilled.attendant",,,,,,,,11132000
"kehr70dt","ext","female","non.p20",25,51,60,13,31,0,0,44828000
"kehr70dt","ext","female","p20",25,51,40,13,20,25,13,44828000
"kehr70dt","ext","female","primary",21,52,63,12,29,6,2,16861000
"kehr70dt","ext","female","rural",25,51,66,13,34,22,11,44828000
"kehr70dt","ext","female","secondary",21,52,30,12,12,1,0,16861000
"kehr70dt","ext","female","stunted",30,49,26,15,11,10,4,6927000
"kehr70dt","ext","female","under5",25,51,14,13,7,4,2,44828000
"kehr70dt","ext","female","urban",25,51,34,13,17,3,1,44828000
"kehr70dt","ext","fifteento49","fiveto14",25,46,29,9,0,9,0,44828000
"kehr70dt","ext","fifteento49","gt49",25,46,11,9,0,3,0,44828000
"kehr70dt","ext","fifteento49","higher",21,71,12,13,10,0,0,16861000
"kehr70dt","ext","fifteento49","male",25,46,49,9,23,12,4,44828000
"kehr70dt","ext","fifteento49","no.birth.reg",30,0,31,0,0,14,0,6927000
"kehr70dt","ext","fifteento49","no.educ",21,71,37,13,21,15,9,16861000
"kehr70dt","ext","fifteento49","no.skilled.attendant",,,,,,,,11132000
"kehr70dt","ext","fifteento49","non.p20",25,46,60,9,31,0,0,44828000
"kehr70dt","ext","fifteento49","p20",25,46,40,9,15,25,9,44828000
"kehr70dt","ext","fifteento49","primary",21,71,63,13,51,6,5,16861000
"kehr70dt","ext","fifteento49","rural",25,46,66,9,27,22,8,44828000
"kehr70dt","ext","fifteento49","secondary",21,71,30,13,25,1,1,16861000
"kehr70dt","ext","fifteento49","stunted",30,0,26,0,0,10,0,6927000
"kehr70dt","ext","fifteento49","under5",25,46,14,9,0,4,0,44828000
"kehr70dt","ext","fifteento49","urban",25,46,34,9,19,3,1,44828000
"kehr70dt","ext","fiveto14","gt49",25,29,11,9,0,3,0,44828000
"kehr70dt","ext","fiveto14","higher",21,0,12,0,0,0,0,16861000
"kehr70dt","ext","fiveto14","male",25,29,49,9,14,12,4,44828000
"kehr70dt","ext","fiveto14","no.birth.reg",30,0,31,0,0,14,0,6927000
"kehr70dt","ext","fiveto14","no.educ",21,0,37,0,0,15,0,16861000
"kehr70dt","ext","fiveto14","no.skilled.attendant",,,,,,,,11132000
"kehr70dt","ext","fiveto14","non.p20",25,29,60,9,15,0,0,44828000
"kehr70dt","ext","fiveto14","p20",25,29,40,9,13,25,9,44828000
"kehr70dt","ext","fiveto14","primary",21,0,63,0,0,6,0,16861000
"kehr70dt","ext","fiveto14","rural",25,29,66,9,21,22,8,44828000
"kehr70dt","ext","fiveto14","secondary",21,0,30,0,0,1,0,16861000
"kehr70dt","ext","fiveto14","stunted",30,0,26,0,0,10,0,6927000
"kehr70dt","ext","fiveto14","under5",25,29,14,9,0,4,0,44828000
"kehr70dt","ext","fiveto14","urban",25,29,34,9,8,3,1,44828000
"kehr70dt","ext","gt49","higher",21,29,12,8,2,0,0,16861000
"kehr70dt","ext","gt49","male",25,11,49,3,5,12,1,44828000
"kehr70dt","ext","gt49","no.birth.reg",30,0,31,0,0,14,0,6927000
"kehr70dt","ext","gt49","no.educ",21,29,37,8,16,15,7,16861000
"kehr70dt","ext","gt49","no.skilled.attendant",,,,,,,,11132000
"kehr70dt","ext","gt49","non.p20",25,11,60,3,6,0,0,44828000
"kehr70dt","ext","gt49","p20",25,11,40,3,5,25,3,44828000
"kehr70dt","ext","gt49","primary",21,29,63,8,12,6,1,16861000
"kehr70dt","ext","gt49","rural",25,11,66,3,8,22,3,44828000
"kehr70dt","ext","gt49","secondary",21,29,30,8,5,1,0,16861000
"kehr70dt","ext","gt49","stunted",30,0,26,0,0,10,0,6927000
"kehr70dt","ext","gt49","under5",25,11,14,3,0,4,0,44828000
"kehr70dt","ext","gt49","urban",25,11,34,3,3,3,0,44828000
"kehr70dt","ext","higher","male",21,12,48,0,7,10,0,16861000
"kehr70dt","ext","higher","no.birth.reg",,,,,,,,16861000
"kehr70dt","ext","higher","no.educ",21,12,37,0,0,15,0,16861000
"kehr70dt","ext","higher","no.skilled.attendant",,,,,,,,6619000
"kehr70dt","ext","higher","non.p20",21,12,65,0,12,0,0,16861000
"kehr70dt","ext","higher","p20",21,12,35,0,1,21,0,16861000
"kehr70dt","ext","higher","primary",21,12,63,0,12,6,0,16861000
"kehr70dt","ext","higher","rural",21,12,61,0,4,19,0,16861000
"kehr70dt","ext","higher","secondary",21,12,30,0,12,1,0,16861000
"kehr70dt","ext","higher","stunted",,,,,,,,16861000
"kehr70dt","ext","higher","under5",21,12,0,0,0,0,0,16861000
"kehr70dt","ext","higher","urban",21,12,39,0,8,3,0,16861000
"kehr70dt","ext","male","no.birth.reg",30,51,31,15,15,14,7,6927000
"kehr70dt","ext","male","no.educ",21,48,37,10,14,15,6,16861000
"kehr70dt","ext","male","no.skilled.attendant",,,,,,,,11132000
"kehr70dt","ext","male","non.p20",25,49,60,12,30,0,0,44828000
"kehr70dt","ext","male","p20",25,49,40,12,20,25,12,44828000
"kehr70dt","ext","male","primary",21,48,63,10,34,6,3,16861000
"kehr70dt","ext","male","rural",25,49,66,12,32,22,11,44828000
"kehr70dt","ext","male","secondary",21,48,30,10,17,1,1,16861000
"kehr70dt","ext","male","stunted",30,51,26,15,15,10,6,6927000
"kehr70dt","ext","male","under5",25,49,14,12,7,4,2,44828000
"kehr70dt","ext","male","urban",25,49,34,12,17,3,1,44828000
"kehr70dt","ext","no.birth.reg","no.educ",,,,,,,,16861000
"kehr70dt","ext","no.birth.reg","no.skilled.attendant",,,,,,,,6927000
"kehr70dt","ext","no.birth.reg","non.p20",30,31,54,14,11,0,0,6927000
"kehr70dt","ext","no.birth.reg","p20",30,31,46,14,19,30,14,6927000
"kehr70dt","ext","no.birth.reg","primary",,,,,,,,16861000
"kehr70dt","ext","no.birth.reg","rural",30,31,67,14,24,27,12,6927000
"kehr70dt","ext","no.birth.reg","secondary",,,,,,,,16861000
"kehr70dt","ext","no.birth.reg","stunted",30,31,26,14,9,10,4,6927000
"kehr70dt","ext","no.birth.reg","under5",30,31,100,14,31,30,14,6927000
"kehr70dt","ext","no.birth.reg","urban",30,31,33,14,6,3,1,6927000
"kehr70dt","ext","no.educ","no.skilled.attendant",,,,,,,,6619000
"kehr70dt","ext","no.educ","non.p20",21,37,65,15,15,0,0,16861000
"kehr70dt","ext","no.educ","p20",21,37,35,15,22,21,15,16861000
"kehr70dt","ext","no.educ","primary",21,37,63,15,0,6,0,16861000
"kehr70dt","ext","no.educ","rural",21,37,61,15,29,19,14,16861000
"kehr70dt","ext","no.educ","secondary",21,37,30,15,0,1,0,16861000
"kehr70dt","ext","no.educ","stunted",,,,,,,,16861000
"kehr70dt","ext","no.educ","under5",21,37,0,15,0,0,0,16861000
"kehr70dt","ext","no.educ","urban",21,37,39,15,8,3,2,16861000
"kehr70dt","ext","no.skilled.attendant","non.p20",,,,,,0,0,11132000
"kehr70dt","ext","no.skilled.attendant","p20",,,,,,,,11132000
"kehr70dt","ext","no.skilled.attendant","primary",,,,,,,,6619000
"kehr70dt","ext","no.skilled.attendant","rural",,,,,,,,11132000
"kehr70dt","ext","no.skilled.attendant","secondary",,,,,,,,6619000
"kehr70dt","ext","no.skilled.attendant","stunted",,,,,,,,6927000
"kehr70dt","ext","no.skilled.attendant","under5",,,,,,,,11132000
"kehr70dt","ext","no.skilled.attendant","urban",,,,,,,,11132000
"kehr70dt","ext","non.p20","p20",25,60,40,0,0,25,0,44828000
"kehr70dt","ext","non.p20","primary",21,65,63,0,50,6,0,16861000
"kehr70dt","ext","non.p20","rural",25,60,66,0,31,22,0,44828000
"kehr70dt","ext","non.p20","secondary",21,65,30,0,27,1,0,16861000
"kehr70dt","ext","non.p20","stunted",30,54,26,0,11,10,0,6927000
"kehr70dt","ext","non.p20","under5",25,60,14,0,8,4,0,44828000
"kehr70dt","ext","non.p20","urban",25,60,34,0,29,3,0,44828000
"kehr70dt","ext","p20","primary",21,35,63,21,12,6,6,16861000
"kehr70dt","ext","p20","rural",25,40,66,25,35,22,22,44828000
"kehr70dt","ext","p20","secondary",21,35,30,21,3,1,1,16861000
"kehr70dt","ext","p20","stunted",30,46,26,30,15,10,10,6927000
"kehr70dt","ext","p20","under5",25,40,14,25,6,4,4,44828000
"kehr70dt","ext","p20","urban",25,40,34,25,5,3,3,44828000
"kehr70dt","ext","primary","rural",21,63,61,6,32,19,5,16861000
"kehr70dt","ext","primary","secondary",21,63,30,6,30,1,1,16861000
"kehr70dt","ext","primary","stunted",,,,,,,,16861000
"kehr70dt","ext","primary","under5",21,63,0,6,0,0,0,16861000
"kehr70dt","ext","primary","urban",21,63,39,6,31,3,1,16861000
"kehr70dt","ext","rural","secondary",21,61,30,19,11,1,1,16861000
"kehr70dt","ext","rural","stunted",30,67,26,27,19,10,9,6927000
"kehr70dt","ext","rural","under5",25,66,14,22,9,4,4,44828000
"kehr70dt","ext","rural","urban",25,66,34,22,0,3,0,44828000
"kehr70dt","ext","secondary","stunted",,,,,,,,16861000
"kehr70dt","ext","secondary","under5",21,30,0,1,0,0,0,16861000
"kehr70dt","ext","secondary","urban",21,30,39,1,18,3,0,16861000
"kehr70dt","ext","stunted","under5",30,26,100,10,26,30,10,6927000
"kehr70dt","ext","stunted","urban",30,26,33,10,6,3,1,6927000
"kehr70dt","ext","under5","urban",25,14,34,4,5,3,0,44828000
"kehr70dt","female","fifteento49","fiveto14",51,46,29,24,0,14,0,44828000
"kehr70dt","female","fifteento49","gt49",51,46,11,24,0,6,0,44828000
"kehr70dt","female","fifteento49","higher",52,71,12,36,10,5,5,16861000
"kehr70dt","female","fifteento49","male",51,46,49,24,23,0,0,44828000
"kehr70dt","female","fifteento49","no.birth.reg",49,0,31,0,0,15,0,6927000
"kehr70dt","female","fifteento49","no.educ",52,71,37,36,21,23,12,16861000
"kehr70dt","female","fifteento49","no.skilled.attendant",,,,,,,,11132000
"kehr70dt","female","fifteento49","non.p20",51,46,60,24,31,31,16,44828000
"kehr70dt","female","fifteento49","p20",51,46,40,24,15,20,8,44828000
"kehr70dt","female","fifteento49","primary",52,71,63,36,51,29,24,16861000
"kehr70dt","female","fifteento49","rural",51,46,66,24,27,34,14,44828000
"kehr70dt","female","fifteento49","secondary",52,71,30,36,25,12,11,16861000
"kehr70dt","female","fifteento49","stunted",49,0,26,0,0,11,0,6927000
"kehr70dt","female","fifteento49","under5",51,46,14,24,0,7,0,44828000
"kehr70dt","female","fifteento49","urban",51,46,34,24,19,17,10,44828000
"kehr70dt","female","fiveto14","gt49",51,29,11,14,0,6,0,44828000
"kehr70dt","female","fiveto14","higher",52,0,12,0,0,5,0,16861000
"kehr70dt","female","fiveto14","male",51,29,49,14,14,0,0,44828000
"kehr70dt","female","fiveto14","no.birth.reg",49,0,31,0,0,15,0,6927000
"kehr70dt","female","fiveto14","no.educ",52,0,37,0,0,23,0,16861000
"kehr70dt","female","fiveto14","no.skilled.attendant",,,,,,,,11132000
"kehr70dt","female","fiveto14","non.p20",51,29,60,14,15,31,8,44828000
"kehr70dt","female","fiveto14","p20",51,29,40,14,13,20,7,44828000
"kehr70dt","female","fiveto14","primary",52,0,63,0,0,29,0,16861000
"kehr70dt","female","fiveto14","rural",51,29,66,14,21,34,10,44828000
"kehr70dt","female","fiveto14","secondary",52,0,30,0,0,12,0,16861000
"kehr70dt","female","fiveto14","stunted",49,0,26,0,0,11,0,6927000
"kehr70dt","female","fiveto14","under5",51,29,14,14,0,7,0,44828000
"kehr70dt","female","fiveto14","urban",51,29,34,14,8,17,4,44828000
"kehr70dt","female","gt49","higher",52,29,12,15,2,5,1,16861000
"kehr70dt","female","gt49","male",51,11,49,6,5,0,0,44828000
"kehr70dt","female","gt49","no.birth.reg",49,0,31,0,0,15,0,6927000
"kehr70dt","female","gt49","no.educ",52,29,37,15,16,23,11,16861000
"kehr70dt","female","gt49","no.skilled.attendant",,,,,,,,11132000
"kehr70dt","female","gt49","non.p20",51,11,60,6,6,31,3,44828000
"kehr70dt","female","gt49","p20",51,11,40,6,5,20,3,44828000
"kehr70dt","female","gt49","primary",52,29,63,15,12,29,5,16861000
"kehr70dt","female","gt49","rural",51,11,66,6,8,34,5,44828000
"kehr70dt","female","gt49","secondary",52,29,30,15,5,12,1,16861000
"kehr70dt","female","gt49","stunted",49,0,26,0,0,11,0,6927000
"kehr70dt","female","gt49","under5",51,11,14,6,0,7,0,44828000
"kehr70dt","female","gt49","urban",51,11,34,6,3,17,1,44828000
"kehr70dt","female","higher","male",52,12,48,5,7,0,0,16861000
"kehr70dt","female","higher","no.birth.reg",,,,,,,,16861000
"kehr70dt","female","higher","no.educ",52,12,37,5,0,23,0,16861000
"kehr70dt","female","higher","no.skilled.attendant",,,,,,,,6619000
"kehr70dt","female","higher","non.p20",52,12,65,5,12,33,5,16861000
"kehr70dt","female","higher","p20",52,12,35,5,1,19,0,16861000
"kehr70dt","female","higher","primary",52,12,63,5,12,29,5,16861000
"kehr70dt","female","higher","rural",52,12,61,5,4,33,2,16861000
"kehr70dt","female","higher","secondary",52,12,30,5,12,12,5,16861000
"kehr70dt","female","higher","stunted",,,,,,,,16861000
"kehr70dt","female","higher","under5",52,12,0,5,0,0,0,16861000
"kehr70dt","female","higher","urban",52,12,39,5,8,19,4,16861000
"kehr70dt","female","male","no.birth.reg",49,51,31,0,15,15,0,6927000
"kehr70dt","female","male","no.educ",52,48,37,0,14,23,0,16861000
"kehr70dt","female","male","no.skilled.attendant",,,,,,,,11132000
"kehr70dt","female","male","non.p20",51,49,60,0,30,31,0,44828000
"kehr70dt","female","male","p20",51,49,40,0,20,20,0,44828000
"kehr70dt","female","male","primary",52,48,63,0,34,29,0,16861000
"kehr70dt","female","male","rural",51,49,66,0,32,34,0,44828000
"kehr70dt","female","male","secondary",52,48,30,0,17,12,0,16861000
"kehr70dt","female","male","stunted",49,51,26,0,15,11,0,6927000
"kehr70dt","female","male","under5",51,49,14,0,7,7,0,44828000
"kehr70dt","female","male","urban",51,49,34,0,17,17,0,44828000
"kehr70dt","female","no.birth.reg","no.educ",,,,,,,,16861000
"kehr70dt","female","no.birth.reg","no.skilled.attendant",,,,,,,,6927000
"kehr70dt","female","no.birth.reg","non.p20",49,31,54,15,11,27,5,6927000
"kehr70dt","female","no.birth.reg","p20",49,31,46,15,19,23,10,6927000
"kehr70dt","female","no.birth.reg","primary",,,,,,,,16861000
"kehr70dt","female","no.birth.reg","rural",49,31,67,15,24,33,12,6927000
"kehr70dt","female","no.birth.reg","secondary",,,,,,,,16861000
"kehr70dt","female","no.birth.reg","stunted",49,31,26,15,9,11,4,6927000
"kehr70dt","female","no.birth.reg","under5",49,31,100,15,31,49,15,6927000
"kehr70dt","female","no.birth.reg","urban",49,31,33,15,6,17,3,6927000
"kehr70dt","female","no.educ","no.skilled.attendant",,,,,,,,6619000
"kehr70dt","female","no.educ","non.p20",52,37,65,23,15,33,9,16861000
"kehr70dt","female","no.educ","p20",52,37,35,23,22,19,14,16861000
"kehr70dt","female","no.educ","primary",52,37,63,23,0,29,0,16861000
"kehr70dt","female","no.educ","rural",52,37,61,23,29,33,18,16861000
"kehr70dt","female","no.educ","secondary",52,37,30,23,0,12,0,16861000
"kehr70dt","female","no.educ","stunted",,,,,,,,16861000
"kehr70dt","female","no.educ","under5",52,37,0,23,0,0,0,16861000
"kehr70dt","female","no.educ","urban",52,37,39,23,8,19,5,16861000
"kehr70dt","female","no.skilled.attendant","non.p20",,,,,,,,11132000
"kehr70dt","female","no.skilled.attendant","p20",,,,,,,,11132000
"kehr70dt","female","no.skilled.attendant","primary",,,,,,,,6619000
"kehr70dt","female","no.skilled.attendant","rural",,,,,,,,11132000
"kehr70dt","female","no.skilled.attendant","secondary",,,,,,,,6619000
"kehr70dt","female","no.skilled.attendant","stunted",,,,,,,,6927000
"kehr70dt","female","no.skilled.attendant","under5",,,,,,,,11132000
"kehr70dt","female","no.skilled.attendant","urban",,,,,,,,11132000
"kehr70dt","female","non.p20","p20",51,60,40,31,0,20,0,44828000
"kehr70dt","female","non.p20","primary",52,65,63,33,50,29,24,16861000
"kehr70dt","female","non.p20","rural",51,60,66,31,31,34,16,44828000
"kehr70dt","female","non.p20","secondary",52,65,30,33,27,12,11,16861000
"kehr70dt","female","non.p20","stunted",49,54,26,27,11,11,4,6927000
"kehr70dt","female","non.p20","under5",51,60,14,31,8,7,4,44828000
"kehr70dt","female","non.p20","urban",51,60,34,31,29,17,15,44828000
"kehr70dt","female","p20","primary",52,35,63,19,12,29,5,16861000
"kehr70dt","female","p20","rural",51,40,66,20,35,34,18,44828000
"kehr70dt","female","p20","secondary",52,35,30,19,3,12,1,16861000
"kehr70dt","female","p20","stunted",49,46,26,23,15,11,6,6927000
"kehr70dt","female","p20","under5",51,40,14,20,6,7,3,44828000
"kehr70dt","female","p20","urban",51,40,34,20,5,17,2,44828000
"kehr70dt","female","primary","rural",52,63,61,29,32,33,15,16861000
"kehr70dt","female","primary","secondary",52,63,30,29,30,12,12,16861000
"kehr70dt","female","primary","stunted",,,,,,,,16861000
"kehr70dt","female","primary","under5",52,63,0,29,0,0,0,16861000
"kehr70dt","female","primary","urban",52,63,39,29,31,19,14,16861000
"kehr70dt","female","rural","secondary",52,61,30,33,11,12,5,16861000
"kehr70dt","female","rural","stunted",49,67,26,33,19,11,8,6927000
"kehr70dt","female","rural","under5",51,66,14,34,9,7,5,44828000
"kehr70dt","female","rural","urban",51,66,34,34,0,17,0,44828000
"kehr70dt","female","secondary","stunted",,,,,,,,16861000
"kehr70dt","female","secondary","under5",52,30,0,12,0,0,0,16861000
"kehr70dt","female","secondary","urban",52,30,39,12,18,19,8,16861000
"kehr70dt","female","stunted","under5",49,26,100,11,26,49,11,6927000
"kehr70dt","female","stunted","urban",49,26,33,11,6,17,3,6927000
"kehr70dt","female","under5","urban",51,14,34,7,5,17,2,44828000
"kehr70dt","fifteento49","fiveto14","gt49",46,29,11,0,0,0,0,44828000
"kehr70dt","fifteento49","fiveto14","higher",71,0,12,0,0,10,0,16861000
"kehr70dt","fifteento49","fiveto14","male",46,29,49,0,14,23,0,44828000
"kehr70dt","fifteento49","fiveto14","no.birth.reg",0,0,31,0,0,0,0,6927000
"kehr70dt","fifteento49","fiveto14","no.educ",71,0,37,0,0,21,0,16861000
"kehr70dt","fifteento49","fiveto14","no.skilled.attendant",,,,,,,,11132000
"kehr70dt","fifteento49","fiveto14","non.p20",46,29,60,0,15,31,0,44828000
"kehr70dt","fifteento49","fiveto14","p20",46,29,40,0,13,15,0,44828000
"kehr70dt","fifteento49","fiveto14","primary",71,0,63,0,0,51,0,16861000
"kehr70dt","fifteento49","fiveto14","rural",46,29,66,0,21,27,0,44828000
"kehr70dt","fifteento49","fiveto14","secondary",71,0,30,0,0,25,0,16861000
"kehr70dt","fifteento49","fiveto14","stunted",0,0,26,0,0,0,0,6927000
"kehr70dt","fifteento49","fiveto14","under5",46,29,14,0,0,0,0,44828000
"kehr70dt","fifteento49","fiveto14","urban",46,29,34,0,8,19,0,44828000
"kehr70dt","fifteento49","gt49","higher",71,29,12,0,2,10,0,16861000
"kehr70dt","fifteento49","gt49","male",46,11,49,0,5,23,0,44828000
"kehr70dt","fifteento49","gt49","no.birth.reg",0,0,31,0,0,0,0,6927000
"kehr70dt","fifteento49","gt49","no.educ",71,29,37,0,16,21,0,16861000
"kehr70dt","fifteento49","gt49","no.skilled.attendant",,,,,,,,11132000
"kehr70dt","fifteento49","gt49","non.p20",46,11,60,0,6,31,0,44828000
"kehr70dt","fifteento49","gt49","p20",46,11,40,0,5,15,0,44828000
"kehr70dt","fifteento49","gt49","primary",71,29,63,0,12,51,0,16861000
"kehr70dt","fifteento49","gt49","rural",46,11,66,0,8,27,0,44828000
"kehr70dt","fifteento49","gt49","secondary",71,29,30,0,5,25,0,16861000
"kehr70dt","fifteento49","gt49","stunted",0,0,26,0,0,0,0,6927000
"kehr70dt","fifteento49","gt49","under5",46,11,14,0,0,0,0,44828000
"kehr70dt","fifteento49","gt49","urban",46,11,34,0,3,19,0,44828000
"kehr70dt","fifteento49","higher","male",71,12,48,10,7,35,6,16861000
"kehr70dt","fifteento49","higher","no.birth.reg",,,,,,,,16861000
"kehr70dt","fifteento49","higher","no.educ",71,12,37,10,0,21,0,16861000
"kehr70dt","fifteento49","higher","no.skilled.attendant",,,,,,,,6619000
"kehr70dt","fifteento49","higher","non.p20",71,12,65,10,12,49,10,16861000
"kehr70dt","fifteento49","higher","p20",71,12,35,10,1,22,0,16861000
"kehr70dt","fifteento49","higher","primary",71,12,63,10,12,51,10,16861000
"kehr70dt","fifteento49","higher","rural",71,12,61,10,4,40,3,16861000
"kehr70dt","fifteento49","higher","secondary",71,12,30,10,12,25,10,16861000
"kehr70dt","fifteento49","higher","stunted",,,,,,,,16861000
"kehr70dt","fifteento49","higher","under5",71,12,0,10,0,0,0,16861000
"kehr70dt","fifteento49","higher","urban",71,12,39,10,8,32,7,16861000
"kehr70dt","fifteento49","male","no.birth.reg",0,51,31,0,15,0,0,6927000
"kehr70dt","fifteento49","male","no.educ",71,48,37,35,14,21,9,16861000
"kehr70dt","fifteento49","male","no.skilled.attendant",,,,,,,,11132000
"kehr70dt","fifteento49","male","non.p20",46,49,60,23,30,31,15,44828000
"kehr70dt","fifteento49","male","p20",46,49,40,23,20,15,7,44828000
"kehr70dt","fifteento49","male","primary",71,48,63,35,34,51,26,16861000
"kehr70dt","fifteento49","male","rural",46,49,66,23,32,27,13,44828000
"kehr70dt","fifteento49","male","secondary",71,48,30,35,17,25,14,16861000
"kehr70dt","fifteento49","male","stunted",0,51,26,0,15,0,0,6927000
"kehr70dt","fifteento49","male","under5",46,49,14,23,7,0,0,44828000
"kehr70dt","fifteento49","male","urban",46,49,34,23,17,19,9,44828000
"kehr70dt","fifteento49","no.birth.reg","no.educ",,,,,,,,16861000
"kehr70dt","fifteento49","no.birth.reg","no.skilled.attendant",,,,,,,,6927000
"kehr70dt","fifteento49","no.birth.reg","non.p20",0,31,54,0,11,0,0,6927000
"kehr70dt","fifteento49","no.birth.reg","p20",0,31,46,0,19,0,0,6927000
"kehr70dt","fifteento49","no.birth.reg","primary",,,,,,,,16861000
"kehr70dt","fifteento49","no.birth.reg","rural",0,31,67,0,24,0,0,6927000
"kehr70dt","fifteento49","no.birth.reg","secondary",,,,,,,,16861000
"kehr70dt","fifteento49","no.birth.reg","stunted",0,31,26,0,9,0,0,6927000
"kehr70dt","fifteento49","no.birth.reg","under5",0,31,100,0,31,0,0,6927000
"kehr70dt","fifteento49","no.birth.reg","urban",0,31,33,0,6,0,0,6927000
"kehr70dt","fifteento49","no.educ","no.skilled.attendant",,,,,,,,6619000
"kehr70dt","fifteento49","no.educ","non.p20",71,37,65,21,15,49,8,16861000
"kehr70dt","fifteento49","no.educ","p20",71,37,35,21,22,22,13,16861000
"kehr70dt","fifteento49","no.educ","primary",71,37,63,21,0,51,0,16861000
"kehr70dt","fifteento49","no.educ","rural",71,37,61,21,29,40,16,16861000
"kehr70dt","fifteento49","no.educ","secondary",71,37,30,21,0,25,0,16861000
"kehr70dt","fifteento49","no.educ","stunted",,,,,,,,16861000
"kehr70dt","fifteento49","no.educ","under5",71,37,0,21,0,0,0,16861000
"kehr70dt","fifteento49","no.educ","urban",71,37,39,21,8,32,5,16861000
"kehr70dt","fifteento49","no.skilled.attendant","non.p20",,,,,,,,11132000
"kehr70dt","fifteento49","no.skilled.attendant","p20",,,,,,,,11132000
"kehr70dt","fifteento49","no.skilled.attendant","primary",,,,,,,,6619000
"kehr70dt","fifteento49","no.skilled.attendant","rural",,,,,,,,11132000
"kehr70dt","fifteento49","no.skilled.attendant","secondary",,,,,,,,6619000
"kehr70dt","fifteento49","no.skilled.attendant","stunted",,,,,,,,6927000
"kehr70dt","fifteento49","no.skilled.attendant","under5",,,,,,,,11132000
"kehr70dt","fifteento49","no.skilled.attendant","urban",,,,,,,,11132000
"kehr70dt","fifteento49","non.p20","p20",46,60,40,31,0,15,0,44828000
"kehr70dt","fifteento49","non.p20","primary",71,65,63,49,50,51,41,16861000
"kehr70dt","fifteento49","non.p20","rural",46,60,66,31,31,27,14,44828000
"kehr70dt","fifteento49","non.p20","secondary",71,65,30,49,27,25,22,16861000
"kehr70dt","fifteento49","non.p20","stunted",0,54,26,0,11,0,0,6927000
"kehr70dt","fifteento49","non.p20","under5",46,60,14,31,8,0,0,44828000
"kehr70dt","fifteento49","non.p20","urban",46,60,34,31,29,19,17,44828000
"kehr70dt","fifteento49","p20","primary",71,35,63,22,12,51,10,16861000
"kehr70dt","fifteento49","p20","rural",46,40,66,15,35,27,13,44828000
"kehr70dt","fifteento49","p20","secondary",71,35,30,22,3,25,2,16861000
"kehr70dt","fifteento49","p20","stunted",0,46,26,0,15,0,0,6927000
"kehr70dt","fifteento49","p20","under5",46,40,14,15,6,0,0,44828000
"kehr70dt","fifteento49","p20","urban",46,40,34,15,5,19,2,44828000
"kehr70dt","fifteento49","primary","rural",71,63,61,51,32,40,24,16861000
"kehr70dt","fifteento49","primary","secondary",71,63,30,51,30,25,25,16861000
"kehr70dt","fifteento49","primary","stunted",,,,,,,,16861000
"kehr70dt","fifteento49","primary","under5",71,63,0,51,0,0,0,16861000
"kehr70dt","fifteento49","primary","urban",71,63,39,51,31,32,27,16861000
"kehr70dt","fifteento49","rural","secondary",71,61,30,40,11,25,9,16861000
"kehr70dt","fifteento49","rural","stunted",0,67,26,0,19,0,0,6927000
"kehr70dt","fifteento49","rural","under5",46,66,14,27,9,0,0,44828000
"kehr70dt","fifteento49","rural","urban",46,66,34,27,0,19,0,44828000
"kehr70dt","fifteento49","secondary","stunted",,,,,,,,16861000
"kehr70dt","fifteento49","secondary","under5",71,30,0,25,0,0,0,16861000
"kehr70dt","fifteento49","secondary","urban",71,30,39,25,18,32,16,16861000
"kehr70dt","fifteento49","stunted","under5",0,26,100,0,26,0,0,6927000
"kehr70dt","fifteento49","stunted","urban",0,26,33,0,6,0,0,6927000
"kehr70dt","fifteento49","under5","urban",46,14,34,0,5,19,0,44828000
"kehr70dt","fiveto14","gt49","higher",0,29,12,0,2,0,0,16861000
"kehr70dt","fiveto14","gt49","male",29,11,49,0,5,14,0,44828000
"kehr70dt","fiveto14","gt49","no.birth.reg",0,0,31,0,0,0,0,6927000
"kehr70dt","fiveto14","gt49","no.educ",0,29,37,0,16,0,0,16861000
"kehr70dt","fiveto14","gt49","no.skilled.attendant",,,,,,,,11132000
"kehr70dt","fiveto14","gt49","non.p20",29,11,60,0,6,15,0,44828000
"kehr70dt","fiveto14","gt49","p20",29,11,40,0,5,13,0,44828000
"kehr70dt","fiveto14","gt49","primary",0,29,63,0,12,0,0,16861000
"kehr70dt","fiveto14","gt49","rural",29,11,66,0,8,21,0,44828000
"kehr70dt","fiveto14","gt49","secondary",0,29,30,0,5,0,0,16861000
"kehr70dt","fiveto14","gt49","stunted",0,0,26,0,0,0,0,6927000
"kehr70dt","fiveto14","gt49","under5",29,11,14,0,0,0,0,44828000
"kehr70dt","fiveto14","gt49","urban",29,11,34,0,3,8,0,44828000
"kehr70dt","fiveto14","higher","male",0,12,48,0,7,0,0,16861000
"kehr70dt","fiveto14","higher","no.birth.reg",,,,,,,,16861000
"kehr70dt","fiveto14","higher","no.educ",0,12,37,0,0,0,0,16861000
"kehr70dt","fiveto14","higher","no.skilled.attendant",,,,,,,,6619000
"kehr70dt","fiveto14","higher","non.p20",0,12,65,0,12,0,0,16861000
"kehr70dt","fiveto14","higher","p20",0,12,35,0,1,0,0,16861000
"kehr70dt","fiveto14","higher","primary",0,12,63,0,12,0,0,16861000
"kehr70dt","fiveto14","higher","rural",0,12,61,0,4,0,0,16861000
"kehr70dt","fiveto14","higher","secondary",0,12,30,0,12,0,0,16861000
"kehr70dt","fiveto14","higher","stunted",,,,,,,,16861000
"kehr70dt","fiveto14","higher","under5",0,12,0,0,0,0,0,16861000
"kehr70dt","fiveto14","higher","urban",0,12,39,0,8,0,0,16861000
"kehr70dt","fiveto14","male","no.birth.reg",0,51,31,0,15,0,0,6927000
"kehr70dt","fiveto14","male","no.educ",0,48,37,0,14,0,0,16861000
"kehr70dt","fiveto14","male","no.skilled.attendant",,,,,,,,11132000
"kehr70dt","fiveto14","male","non.p20",29,49,60,14,30,15,8,44828000
"kehr70dt","fiveto14","male","p20",29,49,40,14,20,13,7,44828000
"kehr70dt","fiveto14","male","primary",0,48,63,0,34,0,0,16861000
"kehr70dt","fiveto14","male","rural",29,49,66,14,32,21,10,44828000
"kehr70dt","fiveto14","male","secondary",0,48,30,0,17,0,0,16861000
"kehr70dt","fiveto14","male","stunted",0,51,26,0,15,0,0,6927000
"kehr70dt","fiveto14","male","under5",29,49,14,14,7,0,0,44828000
"kehr70dt","fiveto14","male","urban",29,49,34,14,17,8,4,44828000
"kehr70dt","fiveto14","no.birth.reg","no.educ",,,,,,,,16861000
"kehr70dt","fiveto14","no.birth.reg","no.skilled.attendant",,,,,,,,6927000
"kehr70dt","fiveto14","no.birth.reg","non.p20",0,31,54,0,11,0,0,6927000
"kehr70dt","fiveto14","no.birth.reg","p20",0,31,46,0,19,0,0,6927000
"kehr70dt","fiveto14","no.birth.reg","primary",,,,,,,,16861000
"kehr70dt","fiveto14","no.birth.reg","rural",0,31,67,0,24,0,0,6927000
"kehr70dt","fiveto14","no.birth.reg","secondary",,,,,,,,16861000
"kehr70dt","fiveto14","no.birth.reg","stunted",0,31,26,0,9,0,0,6927000
"kehr70dt","fiveto14","no.birth.reg","under5",0,31,100,0,31,0,0,6927000
"kehr70dt","fiveto14","no.birth.reg","urban",0,31,33,0,6,0,0,6927000
"kehr70dt","fiveto14","no.educ","no.skilled.attendant",,,,,,,,6619000
"kehr70dt","fiveto14","no.educ","non.p20",0,37,65,0,15,0,0,16861000
"kehr70dt","fiveto14","no.educ","p20",0,37,35,0,22,0,0,16861000
"kehr70dt","fiveto14","no.educ","primary",0,37,63,0,0,0,0,16861000
"kehr70dt","fiveto14","no.educ","rural",0,37,61,0,29,0,0,16861000
"kehr70dt","fiveto14","no.educ","secondary",0,37,30,0,0,0,0,16861000
"kehr70dt","fiveto14","no.educ","stunted",,,,,,,,16861000
"kehr70dt","fiveto14","no.educ","under5",0,37,0,0,0,0,0,16861000
"kehr70dt","fiveto14","no.educ","urban",0,37,39,0,8,0,0,16861000
"kehr70dt","fiveto14","no.skilled.attendant","non.p20",,,,,,,,11132000
"kehr70dt","fiveto14","no.skilled.attendant","p20",,,,,,,,11132000
"kehr70dt","fiveto14","no.skilled.attendant","primary",,,,,,,,6619000
"kehr70dt","fiveto14","no.skilled.attendant","rural",,,,,,,,11132000
"kehr70dt","fiveto14","no.skilled.attendant","secondary",,,,,,,,6619000
"kehr70dt","fiveto14","no.skilled.attendant","stunted",,,,,,,,6927000
"kehr70dt","fiveto14","no.skilled.attendant","under5",,,,,,,,11132000
"kehr70dt","fiveto14","no.skilled.attendant","urban",,,,,,,,11132000
"kehr70dt","fiveto14","non.p20","p20",29,60,40,15,0,13,0,44828000
"kehr70dt","fiveto14","non.p20","primary",0,65,63,0,50,0,0,16861000
"kehr70dt","fiveto14","non.p20","rural",29,60,66,15,31,21,9,44828000
"kehr70dt","fiveto14","non.p20","secondary",0,65,30,0,27,0,0,16861000
"kehr70dt","fiveto14","non.p20","stunted",0,54,26,0,11,0,0,6927000
"kehr70dt","fiveto14","non.p20","under5",29,60,14,15,8,0,0,44828000
"kehr70dt","fiveto14","non.p20","urban",29,60,34,15,29,8,6,44828000
"kehr70dt","fiveto14","p20","primary",0,35,63,0,12,0,0,16861000
"kehr70dt","fiveto14","p20","rural",29,40,66,13,35,21,12,44828000
"kehr70dt","fiveto14","p20","secondary",0,35,30,0,3,0,0,16861000
"kehr70dt","fiveto14","p20","stunted",0,46,26,0,15,0,0,6927000
"kehr70dt","fiveto14","p20","under5",29,40,14,13,6,0,0,44828000
"kehr70dt","fiveto14","p20","urban",29,40,34,13,5,8,2,44828000
"kehr70dt","fiveto14","primary","rural",0,63,61,0,32,0,0,16861000
"kehr70dt","fiveto14","primary","secondary",0,63,30,0,30,0,0,16861000
"kehr70dt","fiveto14","primary","stunted",,,,,,,,16861000
"kehr70dt","fiveto14","primary","under5",0,63,0,0,0,0,0,16861000
"kehr70dt","fiveto14","primary","urban",0,63,39,0,31,0,0,16861000
"kehr70dt","fiveto14","rural","secondary",0,61,30,0,11,0,0,16861000
"kehr70dt","fiveto14","rural","stunted",0,67,26,0,19,0,0,6927000
"kehr70dt","fiveto14","rural","under5",29,66,14,21,9,0,0,44828000
"kehr70dt","fiveto14","rural","urban",29,66,34,21,0,8,0,44828000
"kehr70dt","fiveto14","secondary","stunted",,,,,,,,16861000
"kehr70dt","fiveto14","secondary","under5",0,30,0,0,0,0,0,16861000
"kehr70dt","fiveto14","secondary","urban",0,30,39,0,18,0,0,16861000
"kehr70dt","fiveto14","stunted","under5",0,26,100,0,26,0,0,6927000
"kehr70dt","fiveto14","stunted","urban",0,26,33,0,6,0,0,6927000
"kehr70dt","fiveto14","under5","urban",29,14,34,0,5,8,0,44828000
"kehr70dt","gt49","higher","male",29,12,48,2,7,13,1,16861000
"kehr70dt","gt49","higher","no.birth.reg",,,,,,,,16861000
"kehr70dt","gt49","higher","no.educ",29,12,37,2,0,16,0,16861000
"kehr70dt","gt49","higher","no.skilled.attendant",,,,,,,,6619000
"kehr70dt","gt49","higher","non.p20",29,12,65,2,12,16,2,16861000
"kehr70dt","gt49","higher","p20",29,12,35,2,1,12,0,16861000
"kehr70dt","gt49","higher","primary",29,12,63,2,12,12,2,16861000
"kehr70dt","gt49","higher","rural",29,12,61,2,4,21,1,16861000
"kehr70dt","gt49","higher","secondary",29,12,30,2,12,5,2,16861000
"kehr70dt","gt49","higher","stunted",,,,,,,,16861000
"kehr70dt","gt49","higher","under5",29,12,0,2,0,0,0,16861000
"kehr70dt","gt49","higher","urban",29,12,39,2,8,7,1,16861000
"kehr70dt","gt49","male","no.birth.reg",0,51,31,0,15,0,0,6927000
"kehr70dt","gt49","male","no.educ",29,48,37,13,14,16,6,16861000
"kehr70dt","gt49","male","no.skilled.attendant",,,,,,,,11132000
"kehr70dt","gt49","male","non.p20",11,49,60,5,30,6,3,44828000
"kehr70dt","gt49","male","p20",11,49,40,5,20,5,2,44828000
"kehr70dt","gt49","male","primary",29,48,63,13,34,12,8,16861000
"kehr70dt","gt49","male","rural",11,49,66,5,32,8,4,44828000
"kehr70dt","gt49","male","secondary",29,48,30,13,17,5,3,16861000
"kehr70dt","gt49","male","stunted",0,51,26,0,15,0,0,6927000
"kehr70dt","gt49","male","under5",11,49,14,5,7,0,0,44828000
"kehr70dt","gt49","male","urban",11,49,34,5,17,3,1,44828000
"kehr70dt","gt49","no.birth.reg","no.educ",,,,,,,,16861000
"kehr70dt","gt49","no.birth.reg","no.skilled.attendant",,,,,,,,6927000
"kehr70dt","gt49","no.birth.reg","non.p20",0,31,54,0,11,0,0,6927000
"kehr70dt","gt49","no.birth.reg","p20",0,31,46,0,19,0,0,6927000
"kehr70dt","gt49","no.birth.reg","primary",,,,,,,,16861000
"kehr70dt","gt49","no.birth.reg","rural",0,31,67,0,24,0,0,6927000
"kehr70dt","gt49","no.birth.reg","secondary",,,,,,,,16861000
"kehr70dt","gt49","no.birth.reg","stunted",0,31,26,0,9,0,0,6927000
"kehr70dt","gt49","no.birth.reg","under5",0,31,100,0,31,0,0,6927000
"kehr70dt","gt49","no.birth.reg","urban",0,31,33,0,6,0,0,6927000
"kehr70dt","gt49","no.educ","no.skilled.attendant",,,,,,,,6619000
"kehr70dt","gt49","no.educ","non.p20",29,37,65,16,15,16,7,16861000
"kehr70dt","gt49","no.educ","p20",29,37,35,16,22,12,10,16861000
"kehr70dt","gt49","no.educ","primary",29,37,63,16,0,12,0,16861000
"kehr70dt","gt49","no.educ","rural",29,37,61,16,29,21,14,16861000
"kehr70dt","gt49","no.educ","secondary",29,37,30,16,0,5,0,16861000
"kehr70dt","gt49","no.educ","stunted",,,,,,,,16861000
"kehr70dt","gt49","no.educ","under5",29,37,0,16,0,0,0,16861000
"kehr70dt","gt49","no.educ","urban",29,37,39,16,8,7,3,16861000
"kehr70dt","gt49","no.skilled.attendant","non.p20",,,,,,,,11132000
"kehr70dt","gt49","no.skilled.attendant","p20",,,,,,,,11132000
"kehr70dt","gt49","no.skilled.attendant","primary",,,,,,,,6619000
"kehr70dt","gt49","no.skilled.attendant","rural",,,,,,,,11132000
"kehr70dt","gt49","no.skilled.attendant","secondary",,,,,,,,6619000
"kehr70dt","gt49","no.skilled.attendant","stunted",,,,,,,,6927000
"kehr70dt","gt49","no.skilled.attendant","under5",,,,,,,,11132000
"kehr70dt","gt49","no.skilled.attendant","urban",,,,,,,,11132000
"kehr70dt","gt49","non.p20","p20",11,60,40,6,0,5,0,44828000
"kehr70dt","gt49","non.p20","primary",29,65,63,16,50,12,10,16861000
"kehr70dt","gt49","non.p20","rural",11,60,66,6,31,8,4,44828000
"kehr70dt","gt49","non.p20","secondary",29,65,30,16,27,5,4,16861000
"kehr70dt","gt49","non.p20","stunted",0,54,26,0,11,0,0,6927000
"kehr70dt","gt49","non.p20","under5",11,60,14,6,8,0,0,44828000
"kehr70dt","gt49","non.p20","urban",11,60,34,6,29,3,2,44828000
"kehr70dt","gt49","p20","primary",29,35,63,12,12,12,3,16861000
"kehr70dt","gt49","p20","rural",11,40,66,5,35,8,4,44828000
"kehr70dt","gt49","p20","secondary",29,35,30,12,3,5,0,16861000
"kehr70dt","gt49","p20","stunted",0,46,26,0,15,0,0,6927000
"kehr70dt","gt49","p20","under5",11,40,14,5,6,0,0,44828000
"kehr70dt","gt49","p20","urban",11,40,34,5,5,3,1,44828000
"kehr70dt","gt49","primary","rural",29,63,61,12,32,21,8,16861000
"kehr70dt","gt49","primary","secondary",29,63,30,12,30,5,5,16861000
"kehr70dt","gt49","primary","stunted",,,,,,,,16861000
"kehr70dt","gt49","primary","under5",29,63,0,12,0,0,0,16861000
"kehr70dt","gt49","primary","urban",29,63,39,12,31,7,4,16861000
"kehr70dt","gt49","rural","secondary",29,61,30,21,11,5,2,16861000
"kehr70dt","gt49","rural","stunted",0,67,26,0,19,0,0,6927000
"kehr70dt","gt49","rural","under5",11,66,14,8,9,0,0,44828000
"kehr70dt","gt49","rural","urban",11,66,34,8,0,3,0,44828000
"kehr70dt","gt49","secondary","stunted",,,,,,,,16861000
"kehr70dt","gt49","secondary","under5",29,30,0,5,0,0,0,16861000
"kehr70dt","gt49","secondary","urban",29,30,39,5,18,7,2,16861000
"kehr70dt","gt49","stunted","under5",0,26,100,0,26,0,0,6927000
"kehr70dt","gt49","stunted","urban",0,26,33,0,6,0,0,6927000
"kehr70dt","gt49","under5","urban",11,14,34,0,5,3,0,44828000
"kehr70dt","higher","male","no.birth.reg",,,,,,,,16861000
"kehr70dt","higher","male","no.educ",12,48,37,7,14,0,0,16861000
"kehr70dt","higher","male","no.skilled.attendant",,,,,,,,6619000
"kehr70dt","higher","male","non.p20",12,48,65,7,32,12,6,16861000
"kehr70dt","higher","male","p20",12,48,35,7,16,1,0,16861000
"kehr70dt","higher","male","primary",12,48,63,7,34,12,7,16861000
"kehr70dt","higher","male","rural",12,48,61,7,28,4,2,16861000
"kehr70dt","higher","male","secondary",12,48,30,7,17,12,7,16861000
"kehr70dt","higher","male","stunted",,,,,,,,16861000
"kehr70dt","higher","male","under5",12,48,0,7,0,0,0,16861000
"kehr70dt","higher","male","urban",12,48,39,7,20,8,5,16861000
"kehr70dt","higher","no.birth.reg","no.educ",,,,,,,,16861000
"kehr70dt","higher","no.birth.reg","no.skilled.attendant",,,,,,,,6619000
"kehr70dt","higher","no.birth.reg","non.p20",,,,,,,,16861000
"kehr70dt","higher","no.birth.reg","p20",,,,,,,,16861000
"kehr70dt","higher","no.birth.reg","primary",,,,,,,,16861000
"kehr70dt","higher","no.birth.reg","rural",,,,,,,,16861000
"kehr70dt","higher","no.birth.reg","secondary",,,,,,,,16861000
"kehr70dt","higher","no.birth.reg","stunted",,,,,,,,16861000
"kehr70dt","higher","no.birth.reg","under5",,,,,,,,16861000
"kehr70dt","higher","no.birth.reg","urban",,,,,,,,16861000
"kehr70dt","higher","no.educ","no.skilled.attendant",,,,,,,,6619000
"kehr70dt","higher","no.educ","non.p20",12,37,65,0,15,12,0,16861000
"kehr70dt","higher","no.educ","p20",12,37,35,0,22,1,0,16861000
"kehr70dt","higher","no.educ","primary",12,37,63,0,0,12,0,16861000
"kehr70dt","higher","no.educ","rural",12,37,61,0,29,4,0,16861000
"kehr70dt","higher","no.educ","secondary",12,37,30,0,0,12,0,16861000
"kehr70dt","higher","no.educ","stunted",,,,,,,,16861000
"kehr70dt","higher","no.educ","under5",12,37,0,0,0,0,0,16861000
"kehr70dt","higher","no.educ","urban",12,37,39,0,8,8,0,16861000
"kehr70dt","higher","no.skilled.attendant","non.p20",,,,,,,,6619000
"kehr70dt","higher","no.skilled.attendant","p20",,,,,,,,6619000
"kehr70dt","higher","no.skilled.attendant","primary",,,,,,,,6619000
"kehr70dt","higher","no.skilled.attendant","rural",,,,,,,,6619000
"kehr70dt","higher","no.skilled.attendant","secondary",,,,,,,,6619000
"kehr70dt","higher","no.skilled.attendant","stunted",,,,,,,,6619000
"kehr70dt","higher","no.skilled.attendant","under5",,,,,,,,6619000
"kehr70dt","higher","no.skilled.attendant","urban",,,,,,,,6619000
"kehr70dt","higher","non.p20","p20",12,65,35,12,0,1,0,16861000
"kehr70dt","higher","non.p20","primary",12,65,63,12,50,12,12,16861000
"kehr70dt","higher","non.p20","rural",12,65,61,12,31,4,4,16861000
"kehr70dt","higher","non.p20","secondary",12,65,30,12,27,12,12,16861000
"kehr70dt","higher","non.p20","stunted",,,,,,,,16861000
"kehr70dt","higher","non.p20","under5",12,65,0,12,0,0,0,16861000
"kehr70dt","higher","non.p20","urban",12,65,39,12,34,8,8,16861000
"kehr70dt","higher","p20","primary",12,35,63,1,12,12,1,16861000
"kehr70dt","higher","p20","rural",12,35,61,1,30,4,0,16861000
"kehr70dt","higher","p20","secondary",12,35,30,1,3,12,1,16861000
"kehr70dt","higher","p20","stunted",,,,,,,,16861000
"kehr70dt","higher","p20","under5",12,35,0,1,0,0,0,16861000
"kehr70dt","higher","p20","urban",12,35,39,1,5,8,0,16861000
"kehr70dt","higher","primary","rural",12,63,61,12,32,4,4,16861000
"kehr70dt","higher","primary","secondary",12,63,30,12,30,12,12,16861000
"kehr70dt","higher","primary","stunted",,,,,,,,16861000
"kehr70dt","higher","primary","under5",12,63,0,12,0,0,0,16861000
"kehr70dt","higher","primary","urban",12,63,39,12,31,8,8,16861000
"kehr70dt","higher","rural","secondary",12,61,30,4,11,12,4,16861000
"kehr70dt","higher","rural","stunted",,,,,,,,16861000
"kehr70dt","higher","rural","under5",12,61,0,4,0,0,0,16861000
"kehr70dt","higher","rural","urban",12,61,39,4,0,8,0,16861000
"kehr70dt","higher","secondary","stunted",,,,,,,,16861000
"kehr70dt","higher","secondary","under5",12,30,0,12,0,0,0,16861000
"kehr70dt","higher","secondary","urban",12,30,39,12,18,8,8,16861000
"kehr70dt","higher","stunted","under5",,,,,,,,16861000
"kehr70dt","higher","stunted","urban",,,,,,,,16861000
"kehr70dt","higher","under5","urban",12,0,39,0,0,8,0,16861000
"kehr70dt","male","no.birth.reg","no.educ",,,,,,,,16861000
"kehr70dt","male","no.birth.reg","no.skilled.attendant",,,,,,,,6927000
"kehr70dt","male","no.birth.reg","non.p20",51,31,54,15,11,27,5,6927000
"kehr70dt","male","no.birth.reg","p20",51,31,46,15,19,23,10,6927000
"kehr70dt","male","no.birth.reg","primary",,,,,,,,16861000
"kehr70dt","male","no.birth.reg","rural",51,31,67,15,24,34,12,6927000
"kehr70dt","male","no.birth.reg","secondary",,,,,,,,16861000
"kehr70dt","male","no.birth.reg","stunted",51,31,26,15,9,15,5,6927000
"kehr70dt","male","no.birth.reg","under5",51,31,100,15,31,51,15,6927000
"kehr70dt","male","no.birth.reg","urban",51,31,33,15,6,16,3,6927000
"kehr70dt","male","no.educ","no.skilled.attendant",,,,,,,,6619000
"kehr70dt","male","no.educ","non.p20",48,37,65,14,15,32,6,16861000
"kehr70dt","male","no.educ","p20",48,37,35,14,22,16,9,16861000
"kehr70dt","male","no.educ","primary",48,37,63,14,0,34,0,16861000
"kehr70dt","male","no.educ","rural",48,37,61,14,29,28,11,16861000
"kehr70dt","male","no.educ","secondary",48,37,30,14,0,17,0,16861000
"kehr70dt","male","no.educ","stunted",,,,,,,,16861000
"kehr70dt","male","no.educ","under5",48,37,0,14,0,0,0,16861000
"kehr70dt","male","no.educ","urban",48,37,39,14,8,20,3,16861000
"kehr70dt","male","no.skilled.attendant","non.p20",,,,,,,,11132000
"kehr70dt","male","no.skilled.attendant","p20",,,,,,,,11132000
"kehr70dt","male","no.skilled.attendant","primary",,,,,,,,6619000
"kehr70dt","male","no.skilled.attendant","rural",,,,,,,,11132000
"kehr70dt","male","no.skilled.attendant","secondary",,,,,,,,6619000
"kehr70dt","male","no.skilled.attendant","stunted",,,,,,,,6927000
"kehr70dt","male","no.skilled.attendant","under5",,,,,,,,11132000
"kehr70dt","male","no.skilled.attendant","urban",,,,,,,,11132000
"kehr70dt","male","non.p20","p20",49,60,40,30,0,20,0,44828000
"kehr70dt","male","non.p20","primary",48,65,63,32,50,34,27,16861000
"kehr70dt","male","non.p20","rural",49,60,66,30,31,32,15,44828000
"kehr70dt","male","non.p20","secondary",48,65,30,32,27,17,15,16861000
"kehr70dt","male","non.p20","stunted",51,54,26,27,11,15,6,6927000
"kehr70dt","male","non.p20","under5",49,60,14,30,8,7,4,44828000
"kehr70dt","male","non.p20","urban",49,60,34,30,29,17,15,44828000
"kehr70dt","male","p20","primary",48,35,63,16,12,34,7,16861000
"kehr70dt","male","p20","rural",49,40,66,20,35,32,17,44828000
"kehr70dt","male","p20","secondary",48,35,30,16,3,17,2,16861000
"kehr70dt","male","p20","stunted",51,46,26,23,15,15,8,6927000
"kehr70dt","male","p20","under5",49,40,14,20,6,7,3,44828000
"kehr70dt","male","p20","urban",49,40,34,20,5,17,2,44828000
"kehr70dt","male","primary","rural",48,63,61,34,32,28,17,16861000
"kehr70dt","male","primary","secondary",48,63,30,34,30,17,17,16861000
"kehr70dt","male","primary","stunted",,,,,,,,16861000
"kehr70dt","male","primary","under5",48,63,0,34,0,0,0,16861000
"kehr70dt","male","primary","urban",48,63,39,34,31,20,17,16861000
"kehr70dt","male","rural","secondary",48,61,30,28,11,17,7,16861000
"kehr70dt","male","rural","stunted",51,67,26,34,19,15,11,6927000
"kehr70dt","male","rural","under5",49,66,14,32,9,7,5,44828000
"kehr70dt","male","rural","urban",49,66,34,32,0,17,0,44828000
"kehr70dt","male","secondary","stunted",,,,,,,,16861000
"kehr70dt","male","secondary","under5",48,30,0,17,0,0,0,16861000
"kehr70dt","male","secondary","urban",48,30,39,17,18,20,10,16861000
"kehr70dt","male","stunted","under5",51,26,100,15,26,51,15,6927000
"kehr70dt","male","stunted","urban",51,26,33,15,6,16,3,6927000
"kehr70dt","male","under5","urban",49,14,34,7,5,17,2,44828000
"kehr70dt","no.birth.reg","no.educ","no.skilled.attendant",,,,,,,,6619000
"kehr70dt","no.birth.reg","no.educ","non.p20",,,,,,,,16861000
"kehr70dt","no.birth.reg","no.educ","p20",,,,,,,,16861000
"kehr70dt","no.birth.reg","no.educ","primary",,,,,,,,16861000
"kehr70dt","no.birth.reg","no.educ","rural",,,,,,,,16861000
"kehr70dt","no.birth.reg","no.educ","secondary",,,,,,,,16861000
"kehr70dt","no.birth.reg","no.educ","stunted",,,,,,,,16861000
"kehr70dt","no.birth.reg","no.educ","under5",,,,,,,,16861000
"kehr70dt","no.birth.reg","no.educ","urban",,,,,,,,16861000
"kehr70dt","no.birth.reg","no.skilled.attendant","non.p20",,,,,,,,6927000
"kehr70dt","no.birth.reg","no.skilled.attendant","p20",,,,,,,,6927000
"kehr70dt","no.birth.reg","no.skilled.attendant","primary",,,,,,,,6619000
"kehr70dt","no.birth.reg","no.skilled.attendant","rural",,,,,,,,6927000
"kehr70dt","no.birth.reg","no.skilled.attendant","secondary",,,,,,,,6619000
"kehr70dt","no.birth.reg","no.skilled.attendant","stunted",,,,,,,,6927000
"kehr70dt","no.birth.reg","no.skilled.attendant","under5",,,,,,,,6927000
"kehr70dt","no.birth.reg","no.skilled.attendant","urban",,,,,,,,6927000
"kehr70dt","no.birth.reg","non.p20","p20",31,54,46,11,0,19,0,6927000
"kehr70dt","no.birth.reg","non.p20","primary",,,,,,,,16861000
"kehr70dt","no.birth.reg","non.p20","rural",31,54,67,11,26,24,7,6927000
"kehr70dt","no.birth.reg","non.p20","secondary",,,,,,,,16861000
"kehr70dt","no.birth.reg","non.p20","stunted",31,54,26,11,11,9,3,6927000
"kehr70dt","no.birth.reg","non.p20","under5",31,54,100,11,54,31,11,6927000
"kehr70dt","no.birth.reg","non.p20","urban",31,54,33,11,28,6,4,6927000
"kehr70dt","no.birth.reg","p20","primary",,,,,,,,16861000
"kehr70dt","no.birth.reg","p20","rural",31,46,67,19,41,24,18,6927000
"kehr70dt","no.birth.reg","p20","secondary",,,,,,,,16861000
"kehr70dt","no.birth.reg","p20","stunted",31,46,26,19,15,9,6,6927000
"kehr70dt","no.birth.reg","p20","under5",31,46,100,19,46,31,19,6927000
"kehr70dt","no.birth.reg","p20","urban",31,46,33,19,5,6,2,6927000
"kehr70dt","no.birth.reg","primary","rural",,,,,,,,16861000
"kehr70dt","no.birth.reg","primary","secondary",,,,,,,,16861000
"kehr70dt","no.birth.reg","primary","stunted",,,,,,,,16861000
"kehr70dt","no.birth.reg","primary","under5",,,,,,,,16861000
"kehr70dt","no.birth.reg","primary","urban",,,,,,,,16861000
"kehr70dt","no.birth.reg","rural","secondary",,,,,,,,16861000
"kehr70dt","no.birth.reg","rural","stunted",31,67,26,24,19,9,7,6927000
"kehr70dt","no.birth.reg","rural","under5",31,67,100,24,67,31,24,6927000
"kehr70dt","no.birth.reg","rural","urban",31,67,33,24,0,6,0,6927000
"kehr70dt","no.birth.reg","secondary","stunted",,,,,,,,16861000
"kehr70dt","no.birth.reg","secondary","under5",,,,,,,,16861000
"kehr70dt","no.birth.reg","secondary","urban",,,,,,,,16861000
"kehr70dt","no.birth.reg","stunted","under5",31,26,100,9,26,31,9,6927000
"kehr70dt","no.birth.reg","stunted","urban",31,26,33,9,6,6,2,6927000
"kehr70dt","no.birth.reg","under5","urban",31,100,33,31,33,6,6,6927000
"kehr70dt","no.educ","no.skilled.attendant","non.p20",,,,,,,,6619000
"kehr70dt","no.educ","no.skilled.attendant","p20",,,,,,,,6619000
"kehr70dt","no.educ","no.skilled.attendant","primary",,,,,,,,6619000
"kehr70dt","no.educ","no.skilled.attendant","rural",,,,,,,,6619000
"kehr70dt","no.educ","no.skilled.attendant","secondary",,,,,,,,6619000
"kehr70dt","no.educ","no.skilled.attendant","stunted",,,,,,,,6619000
"kehr70dt","no.educ","no.skilled.attendant","under5",,,,,,,,6619000
"kehr70dt","no.educ","no.skilled.attendant","urban",,,,,,,,6619000
"kehr70dt","no.educ","non.p20","p20",37,65,35,15,0,22,0,16861000
"kehr70dt","no.educ","non.p20","primary",37,65,63,15,50,0,0,16861000
"kehr70dt","no.educ","non.p20","rural",37,65,61,15,31,29,10,16861000
"kehr70dt","no.educ","non.p20","secondary",37,65,30,15,27,0,0,16861000
"kehr70dt","no.educ","non.p20","stunted",,,,,,,,16861000
"kehr70dt","no.educ","non.p20","under5",37,65,0,15,0,0,0,16861000
"kehr70dt","no.educ","non.p20","urban",37,65,39,15,34,8,5,16861000
"kehr70dt","no.educ","p20","primary",37,35,63,22,12,0,0,16861000
"kehr70dt","no.educ","p20","rural",37,35,61,22,30,29,20,16861000
"kehr70dt","no.educ","p20","secondary",37,35,30,22,3,0,0,16861000
"kehr70dt","no.educ","p20","stunted",,,,,,,,16861000
"kehr70dt","no.educ","p20","under5",37,35,0,22,0,0,0,16861000
"kehr70dt","no.educ","p20","urban",37,35,39,22,5,8,3,16861000
"kehr70dt","no.educ","primary","rural",37,63,61,0,32,29,0,16861000
"kehr70dt","no.educ","primary","secondary",37,63,30,0,30,0,0,16861000
"kehr70dt","no.educ","primary","stunted",,,,,,,,16861000
"kehr70dt","no.educ","primary","under5",37,63,0,0,0,0,0,16861000
"kehr70dt","no.educ","primary","urban",37,63,39,0,31,8,0,16861000
"kehr70dt","no.educ","rural","secondary",37,61,30,29,11,0,0,16861000
"kehr70dt","no.educ","rural","stunted",,,,,,,,16861000
"kehr70dt","no.educ","rural","under5",37,61,0,29,0,0,0,16861000
"kehr70dt","no.educ","rural","urban",37,61,39,29,0,8,0,16861000
"kehr70dt","no.educ","secondary","stunted",,,,,,,,16861000
"kehr70dt","no.educ","secondary","under5",37,30,0,0,0,0,0,16861000
"kehr70dt","no.educ","secondary","urban",37,30,39,0,18,8,0,16861000
"kehr70dt","no.educ","stunted","under5",,,,,,,,16861000
"kehr70dt","no.educ","stunted","urban",,,,,,,,16861000
"kehr70dt","no.educ","under5","urban",37,0,39,0,0,8,0,16861000
"kehr70dt","no.skilled.attendant","non.p20","p20",,,,,0,,0,11132000
"kehr70dt","no.skilled.attendant","non.p20","primary",,,,,,,,6619000
"kehr70dt","no.skilled.attendant","non.p20","rural",,,,,,,,11132000
"kehr70dt","no.skilled.attendant","non.p20","secondary",,,,,,,,6619000
"kehr70dt","no.skilled.attendant","non.p20","stunted",,,,,,,,6927000
"kehr70dt","no.skilled.attendant","non.p20","under5",,,,,,,,11132000
"kehr70dt","no.skilled.attendant","non.p20","urban",,,,,,,,11132000
"kehr70dt","no.skilled.attendant","p20","primary",,,,,,,,6619000
"kehr70dt","no.skilled.attendant","p20","rural",,,,,,,,11132000
"kehr70dt","no.skilled.attendant","p20","secondary",,,,,,,,6619000
"kehr70dt","no.skilled.attendant","p20","stunted",,,,,,,,6927000
"kehr70dt","no.skilled.attendant","p20","under5",,,,,,,,11132000
"kehr70dt","no.skilled.attendant","p20","urban",,,,,,,,11132000
"kehr70dt","no.skilled.attendant","primary","rural",,,,,,,,6619000
"kehr70dt","no.skilled.attendant","primary","secondary",,,,,,,,6619000
"kehr70dt","no.skilled.attendant","primary","stunted",,,,,,,,6619000
"kehr70dt","no.skilled.attendant","primary","under5",,,,,,,,6619000
"kehr70dt","no.skilled.attendant","primary","urban",,,,,,,,6619000
"kehr70dt","no.skilled.attendant","rural","secondary",,,,,,,,6619000
"kehr70dt","no.skilled.attendant","rural","stunted",,,,,,,,6927000
"kehr70dt","no.skilled.attendant","rural","under5",,,,,,,,11132000
"kehr70dt","no.skilled.attendant","rural","urban",,,,,,,,11132000
"kehr70dt","no.skilled.attendant","secondary","stunted",,,,,,,,6619000
"kehr70dt","no.skilled.attendant","secondary","under5",,,,,,,,6619000
"kehr70dt","no.skilled.attendant","secondary","urban",,,,,,,,6619000
"kehr70dt","no.skilled.attendant","stunted","under5",,,,,,,,6927000
"kehr70dt","no.skilled.attendant","stunted","urban",,,,,,,,6927000
"kehr70dt","no.skilled.attendant","under5","urban",,,,,,,,11132000
"kehr70dt","non.p20","p20","primary",65,35,63,0,12,50,0,16861000
"kehr70dt","non.p20","p20","rural",60,40,66,0,35,31,0,44828000
"kehr70dt","non.p20","p20","secondary",65,35,30,0,3,27,0,16861000
"kehr70dt","non.p20","p20","stunted",54,46,26,0,15,11,0,6927000
"kehr70dt","non.p20","p20","under5",60,40,14,0,6,8,0,44828000
"kehr70dt","non.p20","p20","urban",60,40,34,0,5,29,0,44828000
"kehr70dt","non.p20","primary","rural",65,63,61,50,32,31,22,16861000
"kehr70dt","non.p20","primary","secondary",65,63,30,50,30,27,27,16861000
"kehr70dt","non.p20","primary","stunted",,,,,,,,16861000
"kehr70dt","non.p20","primary","under5",65,63,0,50,0,0,0,16861000
"kehr70dt","non.p20","primary","urban",65,63,39,50,31,34,29,16861000
"kehr70dt","non.p20","rural","secondary",65,61,30,31,11,27,9,16861000
"kehr70dt","non.p20","rural","stunted",54,67,26,26,19,11,6,6927000
"kehr70dt","non.p20","rural","under5",60,66,14,31,9,8,4,44828000
"kehr70dt","non.p20","rural","urban",60,66,34,31,0,29,0,44828000
"kehr70dt","non.p20","secondary","stunted",,,,,,,,16861000
"kehr70dt","non.p20","secondary","under5",65,30,0,27,0,0,0,16861000
"kehr70dt","non.p20","secondary","urban",65,30,39,27,18,34,18,16861000
"kehr70dt","non.p20","stunted","under5",54,26,100,11,26,54,11,6927000
"kehr70dt","non.p20","stunted","urban",54,26,33,11,6,28,5,6927000
"kehr70dt","non.p20","under5","urban",60,14,34,8,5,29,4,44828000
"kehr70dt","p20","primary","rural",35,63,61,12,32,30,10,16861000
"kehr70dt","p20","primary","secondary",35,63,30,12,30,3,3,16861000
"kehr70dt","p20","primary","stunted",,,,,,,,16861000
"kehr70dt","p20","primary","under5",35,63,0,12,0,0,0,16861000
"kehr70dt","p20","primary","urban",35,63,39,12,31,5,2,16861000
"kehr70dt","p20","rural","secondary",35,61,30,30,11,3,2,16861000
"kehr70dt","p20","rural","stunted",46,67,26,41,19,15,13,6927000
"kehr70dt","p20","rural","under5",40,66,14,35,9,6,6,44828000
"kehr70dt","p20","rural","urban",40,66,34,35,0,5,0,44828000
"kehr70dt","p20","secondary","stunted",,,,,,,,16861000
"kehr70dt","p20","secondary","under5",35,30,0,3,0,0,0,16861000
"kehr70dt","p20","secondary","urban",35,30,39,3,18,5,1,16861000
"kehr70dt","p20","stunted","under5",46,26,100,15,26,46,15,6927000
"kehr70dt","p20","stunted","urban",46,26,33,15,6,5,2,6927000
"kehr70dt","p20","under5","urban",40,14,34,6,5,5,1,44828000
"kehr70dt","primary","rural","secondary",63,61,30,32,11,30,11,16861000
"kehr70dt","primary","rural","stunted",,,,,,,,16861000
"kehr70dt","primary","rural","under5",63,61,0,32,0,0,0,16861000
"kehr70dt","primary","rural","urban",63,61,39,32,0,31,0,16861000
"kehr70dt","primary","secondary","stunted",,,,,,,,16861000
"kehr70dt","primary","secondary","under5",63,30,0,30,0,0,0,16861000
"kehr70dt","primary","secondary","urban",63,30,39,30,18,31,18,16861000
"kehr70dt","primary","stunted","under5",,,,,,,,16861000
"kehr70dt","primary","stunted","urban",,,,,,,,16861000
"kehr70dt","primary","under5","urban",63,0,39,0,0,31,0,16861000
"kehr70dt","rural","secondary","stunted",,,,,,,,16861000
"kehr70dt","rural","secondary","under5",61,30,0,11,0,0,0,16861000
"kehr70dt","rural","secondary","urban",61,30,39,11,18,0,0,16861000
"kehr70dt","rural","stunted","under5",67,26,100,19,26,67,19,6927000
"kehr70dt","rural","stunted","urban",67,26,33,19,6,0,0,6927000
"kehr70dt","rural","under5","urban",66,14,34,9,5,0,0,44828000
"kehr70dt","secondary","stunted","under5",,,,,,,,16861000
"kehr70dt","secondary","stunted","urban",,,,,,,,16861000
"kehr70dt","secondary","under5","urban",30,0,39,0,0,18,0,16861000
"kehr70dt","stunted","under5","urban",26,100,33,26,33,6,6,6927000
