"filename","indicator1","indicator2","indicator3","X","Y","Z","X,Y","Y,Z","X,Z","X,Y,Z","pop"
"Luxembourg","blank1","blank2","ext",100,100,0,100,0,0,0,543360
"Luxembourg","blank1","blank2","female",100,100,,100,,,,543360
"Luxembourg","blank1","blank2","fifteento49",100,100,,100,,,,543360
"Luxembourg","blank1","blank2","fiveto14",100,100,,100,,,,543360
"Luxembourg","blank1","blank2","gt49",100,100,,100,,,,543360
"Luxembourg","blank1","blank2","higher",,,,,,,,543360
"Luxembourg","blank1","blank2","male",100,100,,100,,,,543360
"Luxembourg","blank1","blank2","no.birth.reg",,,,,,,,543360
"Luxembourg","blank1","blank2","no.educ",,,,,,,,543360
"Luxembourg","blank1","blank2","no.skilled.attendant",,,,,,,,543360
"Luxembourg","blank1","blank2","non.p20",100,100,100,100,100,100,100,543360
"Luxembourg","blank1","blank2","p20",100,100,0,100,0,0,0,543360
"Luxembourg","blank1","blank2","primary",,,,,,,,543360
"Luxembourg","blank1","blank2","rural",100,100,,100,,,,543360
"Luxembourg","blank1","blank2","secondary",,,,,,,,543360
"Luxembourg","blank1","blank2","stunted",,,,,,,,543360
"Luxembourg","blank1","blank2","under5",100,100,,100,,,,543360
"Luxembourg","blank1","blank2","urban",100,100,,100,,,,543360
"Luxembourg","blank1","ext","female",100,0,,0,,,,543360
"Luxembourg","blank1","ext","fifteento49",100,0,,0,,,,543360
"Luxembourg","blank1","ext","fiveto14",100,0,,0,,,,543360
"Luxembourg","blank1","ext","gt49",100,0,,0,,,,543360
"Luxembourg","blank1","ext","higher",,,,,,,,543360
"Luxembourg","blank1","ext","male",100,0,,0,,,,543360
"Luxembourg","blank1","ext","no.birth.reg",,,,,,,,543360
"Luxembourg","blank1","ext","no.educ",,,,,,,,543360
"Luxembourg","blank1","ext","no.skilled.attendant",,,,,,,,543360
"Luxembourg","blank1","ext","non.p20",100,0,100,0,0,100,0,543360
"Luxembourg","blank1","ext","p20",100,0,0,0,0,0,0,543360
"Luxembourg","blank1","ext","primary",,,,,,,,543360
"Luxembourg","blank1","ext","rural",100,0,,0,,,,543360
"Luxembourg","blank1","ext","secondary",,,,,,,,543360
"Luxembourg","blank1","ext","stunted",,,,,,,,543360
"Luxembourg","blank1","ext","under5",100,0,,0,,,,543360
"Luxembourg","blank1","ext","urban",100,0,,0,,,,543360
"Luxembourg","blank1","female","fifteento49",100,,,,,,,543360
"Luxembourg","blank1","female","fiveto14",100,,,,,,,543360
"Luxembourg","blank1","female","gt49",100,,,,,,,543360
"Luxembourg","blank1","female","higher",,,,,,,,543360
"Luxembourg","blank1","female","male",100,,,,,,,543360
"Luxembourg","blank1","female","no.birth.reg",,,,,,,,543360
"Luxembourg","blank1","female","no.educ",,,,,,,,543360
"Luxembourg","blank1","female","no.skilled.attendant",,,,,,,,543360
"Luxembourg","blank1","female","non.p20",100,,100,,,100,,543360
"Luxembourg","blank1","female","p20",100,,0,,,0,,543360
"Luxembourg","blank1","female","primary",,,,,,,,543360
"Luxembourg","blank1","female","rural",100,,,,,,,543360
"Luxembourg","blank1","female","secondary",,,,,,,,543360
"Luxembourg","blank1","female","stunted",,,,,,,,543360
"Luxembourg","blank1","female","under5",100,,,,,,,543360
"Luxembourg","blank1","female","urban",100,,,,,,,543360
"Luxembourg","blank1","fifteento49","fiveto14",100,,,,,,,543360
"Luxembourg","blank1","fifteento49","gt49",100,,,,,,,543360
"Luxembourg","blank1","fifteento49","higher",,,,,,,,543360
"Luxembourg","blank1","fifteento49","male",100,,,,,,,543360
"Luxembourg","blank1","fifteento49","no.birth.reg",,,,,,,,543360
"Luxembourg","blank1","fifteento49","no.educ",,,,,,,,543360
"Luxembourg","blank1","fifteento49","no.skilled.attendant",,,,,,,,543360
"Luxembourg","blank1","fifteento49","non.p20",100,,100,,,100,,543360
"Luxembourg","blank1","fifteento49","p20",100,,0,,,0,,543360
"Luxembourg","blank1","fifteento49","primary",,,,,,,,543360
"Luxembourg","blank1","fifteento49","rural",100,,,,,,,543360
"Luxembourg","blank1","fifteento49","secondary",,,,,,,,543360
"Luxembourg","blank1","fifteento49","stunted",,,,,,,,543360
"Luxembourg","blank1","fifteento49","under5",100,,,,,,,543360
"Luxembourg","blank1","fifteento49","urban",100,,,,,,,543360
"Luxembourg","blank1","fiveto14","gt49",100,,,,,,,543360
"Luxembourg","blank1","fiveto14","higher",,,,,,,,543360
"Luxembourg","blank1","fiveto14","male",100,,,,,,,543360
"Luxembourg","blank1","fiveto14","no.birth.reg",,,,,,,,543360
"Luxembourg","blank1","fiveto14","no.educ",,,,,,,,543360
"Luxembourg","blank1","fiveto14","no.skilled.attendant",,,,,,,,543360
"Luxembourg","blank1","fiveto14","non.p20",100,,100,,,100,,543360
"Luxembourg","blank1","fiveto14","p20",100,,0,,,0,,543360
"Luxembourg","blank1","fiveto14","primary",,,,,,,,543360
"Luxembourg","blank1","fiveto14","rural",100,,,,,,,543360
"Luxembourg","blank1","fiveto14","secondary",,,,,,,,543360
"Luxembourg","blank1","fiveto14","stunted",,,,,,,,543360
"Luxembourg","blank1","fiveto14","under5",100,,,,,,,543360
"Luxembourg","blank1","fiveto14","urban",100,,,,,,,543360
"Luxembourg","blank1","gt49","higher",,,,,,,,543360
"Luxembourg","blank1","gt49","male",100,,,,,,,543360
"Luxembourg","blank1","gt49","no.birth.reg",,,,,,,,543360
"Luxembourg","blank1","gt49","no.educ",,,,,,,,543360
"Luxembourg","blank1","gt49","no.skilled.attendant",,,,,,,,543360
"Luxembourg","blank1","gt49","non.p20",100,,100,,,100,,543360
"Luxembourg","blank1","gt49","p20",100,,0,,,0,,543360
"Luxembourg","blank1","gt49","primary",,,,,,,,543360
"Luxembourg","blank1","gt49","rural",100,,,,,,,543360
"Luxembourg","blank1","gt49","secondary",,,,,,,,543360
"Luxembourg","blank1","gt49","stunted",,,,,,,,543360
"Luxembourg","blank1","gt49","under5",100,,,,,,,543360
"Luxembourg","blank1","gt49","urban",100,,,,,,,543360
"Luxembourg","blank1","higher","male",,,,,,,,543360
"Luxembourg","blank1","higher","no.birth.reg",,,,,,,,543360
"Luxembourg","blank1","higher","no.educ",,,,,,,,543360
"Luxembourg","blank1","higher","no.skilled.attendant",,,,,,,,543360
"Luxembourg","blank1","higher","non.p20",,,,,,,,543360
"Luxembourg","blank1","higher","p20",,,,,,,,543360
"Luxembourg","blank1","higher","primary",,,,,,,,543360
"Luxembourg","blank1","higher","rural",,,,,,,,543360
"Luxembourg","blank1","higher","secondary",,,,,,,,543360
"Luxembourg","blank1","higher","stunted",,,,,,,,543360
"Luxembourg","blank1","higher","under5",,,,,,,,543360
"Luxembourg","blank1","higher","urban",,,,,,,,543360
"Luxembourg","blank1","male","no.birth.reg",,,,,,,,543360
"Luxembourg","blank1","male","no.educ",,,,,,,,543360
"Luxembourg","blank1","male","no.skilled.attendant",,,,,,,,543360
"Luxembourg","blank1","male","non.p20",100,,100,,,100,,543360
"Luxembourg","blank1","male","p20",100,,0,,,0,,543360
"Luxembourg","blank1","male","primary",,,,,,,,543360
"Luxembourg","blank1","male","rural",100,,,,,,,543360
"Luxembourg","blank1","male","secondary",,,,,,,,543360
"Luxembourg","blank1","male","stunted",,,,,,,,543360
"Luxembourg","blank1","male","under5",100,,,,,,,543360
"Luxembourg","blank1","male","urban",100,,,,,,,543360
"Luxembourg","blank1","no.birth.reg","no.educ",,,,,,,,543360
"Luxembourg","blank1","no.birth.reg","no.skilled.attendant",,,,,,,,543360
"Luxembourg","blank1","no.birth.reg","non.p20",,,,,,,,543360
"Luxembourg","blank1","no.birth.reg","p20",,,,,,,,543360
"Luxembourg","blank1","no.birth.reg","primary",,,,,,,,543360
"Luxembourg","blank1","no.birth.reg","rural",,,,,,,,543360
"Luxembourg","blank1","no.birth.reg","secondary",,,,,,,,543360
"Luxembourg","blank1","no.birth.reg","stunted",,,,,,,,543360
"Luxembourg","blank1","no.birth.reg","under5",,,,,,,,543360
"Luxembourg","blank1","no.birth.reg","urban",,,,,,,,543360
"Luxembourg","blank1","no.educ","no.skilled.attendant",,,,,,,,543360
"Luxembourg","blank1","no.educ","non.p20",,,,,,,,543360
"Luxembourg","blank1","no.educ","p20",,,,,,,,543360
"Luxembourg","blank1","no.educ","primary",,,,,,,,543360
"Luxembourg","blank1","no.educ","rural",,,,,,,,543360
"Luxembourg","blank1","no.educ","secondary",,,,,,,,543360
"Luxembourg","blank1","no.educ","stunted",,,,,,,,543360
"Luxembourg","blank1","no.educ","under5",,,,,,,,543360
"Luxembourg","blank1","no.educ","urban",,,,,,,,543360
"Luxembourg","blank1","no.skilled.attendant","non.p20",,,,,,,,543360
"Luxembourg","blank1","no.skilled.attendant","p20",,,,,,,,543360
"Luxembourg","blank1","no.skilled.attendant","primary",,,,,,,,543360
"Luxembourg","blank1","no.skilled.attendant","rural",,,,,,,,543360
"Luxembourg","blank1","no.skilled.attendant","secondary",,,,,,,,543360
"Luxembourg","blank1","no.skilled.attendant","stunted",,,,,,,,543360
"Luxembourg","blank1","no.skilled.attendant","under5",,,,,,,,543360
"Luxembourg","blank1","no.skilled.attendant","urban",,,,,,,,543360
"Luxembourg","blank1","non.p20","p20",100,100,0,100,0,0,0,543360
"Luxembourg","blank1","non.p20","primary",,,,,,,,543360
"Luxembourg","blank1","non.p20","rural",100,100,,100,,,,543360
"Luxembourg","blank1","non.p20","secondary",,,,,,,,543360
"Luxembourg","blank1","non.p20","stunted",,,,,,,,543360
"Luxembourg","blank1","non.p20","under5",100,100,,100,,,,543360
"Luxembourg","blank1","non.p20","urban",100,100,,100,,,,543360
"Luxembourg","blank1","p20","primary",,,,,,,,543360
"Luxembourg","blank1","p20","rural",100,0,,0,,,,543360
"Luxembourg","blank1","p20","secondary",,,,,,,,543360
"Luxembourg","blank1","p20","stunted",,,,,,,,543360
"Luxembourg","blank1","p20","under5",100,0,,0,,,,543360
"Luxembourg","blank1","p20","urban",100,0,,0,,,,543360
"Luxembourg","blank1","primary","rural",,,,,,,,543360
"Luxembourg","blank1","primary","secondary",,,,,,,,543360
"Luxembourg","blank1","primary","stunted",,,,,,,,543360
"Luxembourg","blank1","primary","under5",,,,,,,,543360
"Luxembourg","blank1","primary","urban",,,,,,,,543360
"Luxembourg","blank1","rural","secondary",,,,,,,,543360
"Luxembourg","blank1","rural","stunted",,,,,,,,543360
"Luxembourg","blank1","rural","under5",100,,,,,,,543360
"Luxembourg","blank1","rural","urban",100,,,,,,,543360
"Luxembourg","blank1","secondary","stunted",,,,,,,,543360
"Luxembourg","blank1","secondary","under5",,,,,,,,543360
"Luxembourg","blank1","secondary","urban",,,,,,,,543360
"Luxembourg","blank1","stunted","under5",,,,,,,,543360
"Luxembourg","blank1","stunted","urban",,,,,,,,543360
"Luxembourg","blank1","under5","urban",100,,,,,,,543360
"Luxembourg","blank2","ext","female",100,0,,0,,,,543360
"Luxembourg","blank2","ext","fifteento49",100,0,,0,,,,543360
"Luxembourg","blank2","ext","fiveto14",100,0,,0,,,,543360
"Luxembourg","blank2","ext","gt49",100,0,,0,,,,543360
"Luxembourg","blank2","ext","higher",,,,,,,,543360
"Luxembourg","blank2","ext","male",100,0,,0,,,,543360
"Luxembourg","blank2","ext","no.birth.reg",,,,,,,,543360
"Luxembourg","blank2","ext","no.educ",,,,,,,,543360
"Luxembourg","blank2","ext","no.skilled.attendant",,,,,,,,543360
"Luxembourg","blank2","ext","non.p20",100,0,100,0,0,100,0,543360
"Luxembourg","blank2","ext","p20",100,0,0,0,0,0,0,543360
"Luxembourg","blank2","ext","primary",,,,,,,,543360
"Luxembourg","blank2","ext","rural",100,0,,0,,,,543360
"Luxembourg","blank2","ext","secondary",,,,,,,,543360
"Luxembourg","blank2","ext","stunted",,,,,,,,543360
"Luxembourg","blank2","ext","under5",100,0,,0,,,,543360
"Luxembourg","blank2","ext","urban",100,0,,0,,,,543360
"Luxembourg","blank2","female","fifteento49",100,,,,,,,543360
"Luxembourg","blank2","female","fiveto14",100,,,,,,,543360
"Luxembourg","blank2","female","gt49",100,,,,,,,543360
"Luxembourg","blank2","female","higher",,,,,,,,543360
"Luxembourg","blank2","female","male",100,,,,,,,543360
"Luxembourg","blank2","female","no.birth.reg",,,,,,,,543360
"Luxembourg","blank2","female","no.educ",,,,,,,,543360
"Luxembourg","blank2","female","no.skilled.attendant",,,,,,,,543360
"Luxembourg","blank2","female","non.p20",100,,100,,,100,,543360
"Luxembourg","blank2","female","p20",100,,0,,,0,,543360
"Luxembourg","blank2","female","primary",,,,,,,,543360
"Luxembourg","blank2","female","rural",100,,,,,,,543360
"Luxembourg","blank2","female","secondary",,,,,,,,543360
"Luxembourg","blank2","female","stunted",,,,,,,,543360
"Luxembourg","blank2","female","under5",100,,,,,,,543360
"Luxembourg","blank2","female","urban",100,,,,,,,543360
"Luxembourg","blank2","fifteento49","fiveto14",100,,,,,,,543360
"Luxembourg","blank2","fifteento49","gt49",100,,,,,,,543360
"Luxembourg","blank2","fifteento49","higher",,,,,,,,543360
"Luxembourg","blank2","fifteento49","male",100,,,,,,,543360
"Luxembourg","blank2","fifteento49","no.birth.reg",,,,,,,,543360
"Luxembourg","blank2","fifteento49","no.educ",,,,,,,,543360
"Luxembourg","blank2","fifteento49","no.skilled.attendant",,,,,,,,543360
"Luxembourg","blank2","fifteento49","non.p20",100,,100,,,100,,543360
"Luxembourg","blank2","fifteento49","p20",100,,0,,,0,,543360
"Luxembourg","blank2","fifteento49","primary",,,,,,,,543360
"Luxembourg","blank2","fifteento49","rural",100,,,,,,,543360
"Luxembourg","blank2","fifteento49","secondary",,,,,,,,543360
"Luxembourg","blank2","fifteento49","stunted",,,,,,,,543360
"Luxembourg","blank2","fifteento49","under5",100,,,,,,,543360
"Luxembourg","blank2","fifteento49","urban",100,,,,,,,543360
"Luxembourg","blank2","fiveto14","gt49",100,,,,,,,543360
"Luxembourg","blank2","fiveto14","higher",,,,,,,,543360
"Luxembourg","blank2","fiveto14","male",100,,,,,,,543360
"Luxembourg","blank2","fiveto14","no.birth.reg",,,,,,,,543360
"Luxembourg","blank2","fiveto14","no.educ",,,,,,,,543360
"Luxembourg","blank2","fiveto14","no.skilled.attendant",,,,,,,,543360
"Luxembourg","blank2","fiveto14","non.p20",100,,100,,,100,,543360
"Luxembourg","blank2","fiveto14","p20",100,,0,,,0,,543360
"Luxembourg","blank2","fiveto14","primary",,,,,,,,543360
"Luxembourg","blank2","fiveto14","rural",100,,,,,,,543360
"Luxembourg","blank2","fiveto14","secondary",,,,,,,,543360
"Luxembourg","blank2","fiveto14","stunted",,,,,,,,543360
"Luxembourg","blank2","fiveto14","under5",100,,,,,,,543360
"Luxembourg","blank2","fiveto14","urban",100,,,,,,,543360
"Luxembourg","blank2","gt49","higher",,,,,,,,543360
"Luxembourg","blank2","gt49","male",100,,,,,,,543360
"Luxembourg","blank2","gt49","no.birth.reg",,,,,,,,543360
"Luxembourg","blank2","gt49","no.educ",,,,,,,,543360
"Luxembourg","blank2","gt49","no.skilled.attendant",,,,,,,,543360
"Luxembourg","blank2","gt49","non.p20",100,,100,,,100,,543360
"Luxembourg","blank2","gt49","p20",100,,0,,,0,,543360
"Luxembourg","blank2","gt49","primary",,,,,,,,543360
"Luxembourg","blank2","gt49","rural",100,,,,,,,543360
"Luxembourg","blank2","gt49","secondary",,,,,,,,543360
"Luxembourg","blank2","gt49","stunted",,,,,,,,543360
"Luxembourg","blank2","gt49","under5",100,,,,,,,543360
"Luxembourg","blank2","gt49","urban",100,,,,,,,543360
"Luxembourg","blank2","higher","male",,,,,,,,543360
"Luxembourg","blank2","higher","no.birth.reg",,,,,,,,543360
"Luxembourg","blank2","higher","no.educ",,,,,,,,543360
"Luxembourg","blank2","higher","no.skilled.attendant",,,,,,,,543360
"Luxembourg","blank2","higher","non.p20",,,,,,,,543360
"Luxembourg","blank2","higher","p20",,,,,,,,543360
"Luxembourg","blank2","higher","primary",,,,,,,,543360
"Luxembourg","blank2","higher","rural",,,,,,,,543360
"Luxembourg","blank2","higher","secondary",,,,,,,,543360
"Luxembourg","blank2","higher","stunted",,,,,,,,543360
"Luxembourg","blank2","higher","under5",,,,,,,,543360
"Luxembourg","blank2","higher","urban",,,,,,,,543360
"Luxembourg","blank2","male","no.birth.reg",,,,,,,,543360
"Luxembourg","blank2","male","no.educ",,,,,,,,543360
"Luxembourg","blank2","male","no.skilled.attendant",,,,,,,,543360
"Luxembourg","blank2","male","non.p20",100,,100,,,100,,543360
"Luxembourg","blank2","male","p20",100,,0,,,0,,543360
"Luxembourg","blank2","male","primary",,,,,,,,543360
"Luxembourg","blank2","male","rural",100,,,,,,,543360
"Luxembourg","blank2","male","secondary",,,,,,,,543360
"Luxembourg","blank2","male","stunted",,,,,,,,543360
"Luxembourg","blank2","male","under5",100,,,,,,,543360
"Luxembourg","blank2","male","urban",100,,,,,,,543360
"Luxembourg","blank2","no.birth.reg","no.educ",,,,,,,,543360
"Luxembourg","blank2","no.birth.reg","no.skilled.attendant",,,,,,,,543360
"Luxembourg","blank2","no.birth.reg","non.p20",,,,,,,,543360
"Luxembourg","blank2","no.birth.reg","p20",,,,,,,,543360
"Luxembourg","blank2","no.birth.reg","primary",,,,,,,,543360
"Luxembourg","blank2","no.birth.reg","rural",,,,,,,,543360
"Luxembourg","blank2","no.birth.reg","secondary",,,,,,,,543360
"Luxembourg","blank2","no.birth.reg","stunted",,,,,,,,543360
"Luxembourg","blank2","no.birth.reg","under5",,,,,,,,543360
"Luxembourg","blank2","no.birth.reg","urban",,,,,,,,543360
"Luxembourg","blank2","no.educ","no.skilled.attendant",,,,,,,,543360
"Luxembourg","blank2","no.educ","non.p20",,,,,,,,543360
"Luxembourg","blank2","no.educ","p20",,,,,,,,543360
"Luxembourg","blank2","no.educ","primary",,,,,,,,543360
"Luxembourg","blank2","no.educ","rural",,,,,,,,543360
"Luxembourg","blank2","no.educ","secondary",,,,,,,,543360
"Luxembourg","blank2","no.educ","stunted",,,,,,,,543360
"Luxembourg","blank2","no.educ","under5",,,,,,,,543360
"Luxembourg","blank2","no.educ","urban",,,,,,,,543360
"Luxembourg","blank2","no.skilled.attendant","non.p20",,,,,,,,543360
"Luxembourg","blank2","no.skilled.attendant","p20",,,,,,,,543360
"Luxembourg","blank2","no.skilled.attendant","primary",,,,,,,,543360
"Luxembourg","blank2","no.skilled.attendant","rural",,,,,,,,543360
"Luxembourg","blank2","no.skilled.attendant","secondary",,,,,,,,543360
"Luxembourg","blank2","no.skilled.attendant","stunted",,,,,,,,543360
"Luxembourg","blank2","no.skilled.attendant","under5",,,,,,,,543360
"Luxembourg","blank2","no.skilled.attendant","urban",,,,,,,,543360
"Luxembourg","blank2","non.p20","p20",100,100,0,100,0,0,0,543360
"Luxembourg","blank2","non.p20","primary",,,,,,,,543360
"Luxembourg","blank2","non.p20","rural",100,100,,100,,,,543360
"Luxembourg","blank2","non.p20","secondary",,,,,,,,543360
"Luxembourg","blank2","non.p20","stunted",,,,,,,,543360
"Luxembourg","blank2","non.p20","under5",100,100,,100,,,,543360
"Luxembourg","blank2","non.p20","urban",100,100,,100,,,,543360
"Luxembourg","blank2","p20","primary",,,,,,,,543360
"Luxembourg","blank2","p20","rural",100,0,,0,,,,543360
"Luxembourg","blank2","p20","secondary",,,,,,,,543360
"Luxembourg","blank2","p20","stunted",,,,,,,,543360
"Luxembourg","blank2","p20","under5",100,0,,0,,,,543360
"Luxembourg","blank2","p20","urban",100,0,,0,,,,543360
"Luxembourg","blank2","primary","rural",,,,,,,,543360
"Luxembourg","blank2","primary","secondary",,,,,,,,543360
"Luxembourg","blank2","primary","stunted",,,,,,,,543360
"Luxembourg","blank2","primary","under5",,,,,,,,543360
"Luxembourg","blank2","primary","urban",,,,,,,,543360
"Luxembourg","blank2","rural","secondary",,,,,,,,543360
"Luxembourg","blank2","rural","stunted",,,,,,,,543360
"Luxembourg","blank2","rural","under5",100,,,,,,,543360
"Luxembourg","blank2","rural","urban",100,,,,,,,543360
"Luxembourg","blank2","secondary","stunted",,,,,,,,543360
"Luxembourg","blank2","secondary","under5",,,,,,,,543360
"Luxembourg","blank2","secondary","urban",,,,,,,,543360
"Luxembourg","blank2","stunted","under5",,,,,,,,543360
"Luxembourg","blank2","stunted","urban",,,,,,,,543360
"Luxembourg","blank2","under5","urban",100,,,,,,,543360
"Luxembourg","ext","female","fifteento49",0,,,,,,,543360
"Luxembourg","ext","female","fiveto14",0,,,,,,,543360
"Luxembourg","ext","female","gt49",0,,,,,,,543360
"Luxembourg","ext","female","higher",,,,,,,,543360
"Luxembourg","ext","female","male",0,,,,,,,543360
"Luxembourg","ext","female","no.birth.reg",,,,,,,,543360
"Luxembourg","ext","female","no.educ",,,,,,,,543360
"Luxembourg","ext","female","no.skilled.attendant",,,,,,,,543360
"Luxembourg","ext","female","non.p20",0,,100,,,0,0,543360
"Luxembourg","ext","female","p20",0,,0,,,0,,543360
"Luxembourg","ext","female","primary",,,,,,,,543360
"Luxembourg","ext","female","rural",0,,,,,,,543360
"Luxembourg","ext","female","secondary",,,,,,,,543360
"Luxembourg","ext","female","stunted",,,,,,,,543360
"Luxembourg","ext","female","under5",0,,,,,,,543360
"Luxembourg","ext","female","urban",0,,,,,,,543360
"Luxembourg","ext","fifteento49","fiveto14",0,,,,,,,543360
"Luxembourg","ext","fifteento49","gt49",0,,,,,,,543360
"Luxembourg","ext","fifteento49","higher",,,,,,,,543360
"Luxembourg","ext","fifteento49","male",0,,,,,,,543360
"Luxembourg","ext","fifteento49","no.birth.reg",,,,,,,,543360
"Luxembourg","ext","fifteento49","no.educ",,,,,,,,543360
"Luxembourg","ext","fifteento49","no.skilled.attendant",,,,,,,,543360
"Luxembourg","ext","fifteento49","non.p20",0,,100,,,0,0,543360
"Luxembourg","ext","fifteento49","p20",0,,0,,,0,,543360
"Luxembourg","ext","fifteento49","primary",,,,,,,,543360
"Luxembourg","ext","fifteento49","rural",0,,,,,,,543360
"Luxembourg","ext","fifteento49","secondary",,,,,,,,543360
"Luxembourg","ext","fifteento49","stunted",,,,,,,,543360
"Luxembourg","ext","fifteento49","under5",0,,,,,,,543360
"Luxembourg","ext","fifteento49","urban",0,,,,,,,543360
"Luxembourg","ext","fiveto14","gt49",0,,,,,,,543360
"Luxembourg","ext","fiveto14","higher",,,,,,,,543360
"Luxembourg","ext","fiveto14","male",0,,,,,,,543360
"Luxembourg","ext","fiveto14","no.birth.reg",,,,,,,,543360
"Luxembourg","ext","fiveto14","no.educ",,,,,,,,543360
"Luxembourg","ext","fiveto14","no.skilled.attendant",,,,,,,,543360
"Luxembourg","ext","fiveto14","non.p20",0,,100,,,0,0,543360
"Luxembourg","ext","fiveto14","p20",0,,0,,,0,,543360
"Luxembourg","ext","fiveto14","primary",,,,,,,,543360
"Luxembourg","ext","fiveto14","rural",0,,,,,,,543360
"Luxembourg","ext","fiveto14","secondary",,,,,,,,543360
"Luxembourg","ext","fiveto14","stunted",,,,,,,,543360
"Luxembourg","ext","fiveto14","under5",0,,,,,,,543360
"Luxembourg","ext","fiveto14","urban",0,,,,,,,543360
"Luxembourg","ext","gt49","higher",,,,,,,,543360
"Luxembourg","ext","gt49","male",0,,,,,,,543360
"Luxembourg","ext","gt49","no.birth.reg",,,,,,,,543360
"Luxembourg","ext","gt49","no.educ",,,,,,,,543360
"Luxembourg","ext","gt49","no.skilled.attendant",,,,,,,,543360
"Luxembourg","ext","gt49","non.p20",0,,100,,,0,0,543360
"Luxembourg","ext","gt49","p20",0,,0,,,0,,543360
"Luxembourg","ext","gt49","primary",,,,,,,,543360
"Luxembourg","ext","gt49","rural",0,,,,,,,543360
"Luxembourg","ext","gt49","secondary",,,,,,,,543360
"Luxembourg","ext","gt49","stunted",,,,,,,,543360
"Luxembourg","ext","gt49","under5",0,,,,,,,543360
"Luxembourg","ext","gt49","urban",0,,,,,,,543360
"Luxembourg","ext","higher","male",,,,,,,,543360
"Luxembourg","ext","higher","no.birth.reg",,,,,,,,543360
"Luxembourg","ext","higher","no.educ",,,,,,,,543360
"Luxembourg","ext","higher","no.skilled.attendant",,,,,,,,543360
"Luxembourg","ext","higher","non.p20",,,,,,0,0,543360
"Luxembourg","ext","higher","p20",,,,,,,,543360
"Luxembourg","ext","higher","primary",,,,,,,,543360
"Luxembourg","ext","higher","rural",,,,,,,,543360
"Luxembourg","ext","higher","secondary",,,,,,,,543360
"Luxembourg","ext","higher","stunted",,,,,,,,543360
"Luxembourg","ext","higher","under5",,,,,,,,543360
"Luxembourg","ext","higher","urban",,,,,,,,543360
"Luxembourg","ext","male","no.birth.reg",,,,,,,,543360
"Luxembourg","ext","male","no.educ",,,,,,,,543360
"Luxembourg","ext","male","no.skilled.attendant",,,,,,,,543360
"Luxembourg","ext","male","non.p20",0,,100,,,0,0,543360
"Luxembourg","ext","male","p20",0,,0,,,0,,543360
"Luxembourg","ext","male","primary",,,,,,,,543360
"Luxembourg","ext","male","rural",0,,,,,,,543360
"Luxembourg","ext","male","secondary",,,,,,,,543360
"Luxembourg","ext","male","stunted",,,,,,,,543360
"Luxembourg","ext","male","under5",0,,,,,,,543360
"Luxembourg","ext","male","urban",0,,,,,,,543360
"Luxembourg","ext","no.birth.reg","no.educ",,,,,,,,543360
"Luxembourg","ext","no.birth.reg","no.skilled.attendant",,,,,,,,543360
"Luxembourg","ext","no.birth.reg","non.p20",,,,,,0,0,543360
"Luxembourg","ext","no.birth.reg","p20",,,,,,,,543360
"Luxembourg","ext","no.birth.reg","primary",,,,,,,,543360
"Luxembourg","ext","no.birth.reg","rural",,,,,,,,543360
"Luxembourg","ext","no.birth.reg","secondary",,,,,,,,543360
"Luxembourg","ext","no.birth.reg","stunted",,,,,,,,543360
"Luxembourg","ext","no.birth.reg","under5",,,,,,,,543360
"Luxembourg","ext","no.birth.reg","urban",,,,,,,,543360
"Luxembourg","ext","no.educ","no.skilled.attendant",,,,,,,,543360
"Luxembourg","ext","no.educ","non.p20",,,,,,0,0,543360
"Luxembourg","ext","no.educ","p20",,,,,,,,543360
"Luxembourg","ext","no.educ","primary",,,,,,,,543360
"Luxembourg","ext","no.educ","rural",,,,,,,,543360
"Luxembourg","ext","no.educ","secondary",,,,,,,,543360
"Luxembourg","ext","no.educ","stunted",,,,,,,,543360
"Luxembourg","ext","no.educ","under5",,,,,,,,543360
"Luxembourg","ext","no.educ","urban",,,,,,,,543360
"Luxembourg","ext","no.skilled.attendant","non.p20",,,,,,0,0,543360
"Luxembourg","ext","no.skilled.attendant","p20",,,,,,,,543360
"Luxembourg","ext","no.skilled.attendant","primary",,,,,,,,543360
"Luxembourg","ext","no.skilled.attendant","rural",,,,,,,,543360
"Luxembourg","ext","no.skilled.attendant","secondary",,,,,,,,543360
"Luxembourg","ext","no.skilled.attendant","stunted",,,,,,,,543360
"Luxembourg","ext","no.skilled.attendant","under5",,,,,,,,543360
"Luxembourg","ext","no.skilled.attendant","urban",,,,,,,,543360
"Luxembourg","ext","non.p20","p20",0,100,0,0,0,0,0,543360
"Luxembourg","ext","non.p20","primary",,,,0,,,0,543360
"Luxembourg","ext","non.p20","rural",0,100,,0,,,0,543360
"Luxembourg","ext","non.p20","secondary",,,,0,,,0,543360
"Luxembourg","ext","non.p20","stunted",,,,0,,,0,543360
"Luxembourg","ext","non.p20","under5",0,100,,0,,,0,543360
"Luxembourg","ext","non.p20","urban",0,100,,0,,,0,543360
"Luxembourg","ext","p20","primary",,,,,,,,543360
"Luxembourg","ext","p20","rural",0,0,,0,,,,543360
"Luxembourg","ext","p20","secondary",,,,,,,,543360
"Luxembourg","ext","p20","stunted",,,,,,,,543360
"Luxembourg","ext","p20","under5",0,0,,0,,,,543360
"Luxembourg","ext","p20","urban",0,0,,0,,,,543360
"Luxembourg","ext","primary","rural",,,,,,,,543360
"Luxembourg","ext","primary","secondary",,,,,,,,543360
"Luxembourg","ext","primary","stunted",,,,,,,,543360
"Luxembourg","ext","primary","under5",,,,,,,,543360
"Luxembourg","ext","primary","urban",,,,,,,,543360
"Luxembourg","ext","rural","secondary",,,,,,,,543360
"Luxembourg","ext","rural","stunted",,,,,,,,543360
"Luxembourg","ext","rural","under5",0,,,,,,,543360
"Luxembourg","ext","rural","urban",0,,,,,,,543360
"Luxembourg","ext","secondary","stunted",,,,,,,,543360
"Luxembourg","ext","secondary","under5",,,,,,,,543360
"Luxembourg","ext","secondary","urban",,,,,,,,543360
"Luxembourg","ext","stunted","under5",,,,,,,,543360
"Luxembourg","ext","stunted","urban",,,,,,,,543360
"Luxembourg","ext","under5","urban",0,,,,,,,543360
"Luxembourg","female","fifteento49","fiveto14",,,,,,,,543360
"Luxembourg","female","fifteento49","gt49",,,,,,,,543360
"Luxembourg","female","fifteento49","higher",,,,,,,,543360
"Luxembourg","female","fifteento49","male",,,,,,,,543360
"Luxembourg","female","fifteento49","no.birth.reg",,,,,,,,543360
"Luxembourg","female","fifteento49","no.educ",,,,,,,,543360
"Luxembourg","female","fifteento49","no.skilled.attendant",,,,,,,,543360
"Luxembourg","female","fifteento49","non.p20",,,100,,,,,543360
"Luxembourg","female","fifteento49","p20",,,0,,,,,543360
"Luxembourg","female","fifteento49","primary",,,,,,,,543360
"Luxembourg","female","fifteento49","rural",,,,,,,,543360
"Luxembourg","female","fifteento49","secondary",,,,,,,,543360
"Luxembourg","female","fifteento49","stunted",,,,,,,,543360
"Luxembourg","female","fifteento49","under5",,,,,,,,543360
"Luxembourg","female","fifteento49","urban",,,,,,,,543360
"Luxembourg","female","fiveto14","gt49",,,,,,,,543360
"Luxembourg","female","fiveto14","higher",,,,,,,,543360
"Luxembourg","female","fiveto14","male",,,,,,,,543360
"Luxembourg","female","fiveto14","no.birth.reg",,,,,,,,543360
"Luxembourg","female","fiveto14","no.educ",,,,,,,,543360
"Luxembourg","female","fiveto14","no.skilled.attendant",,,,,,,,543360
"Luxembourg","female","fiveto14","non.p20",,,100,,,,,543360
"Luxembourg","female","fiveto14","p20",,,0,,,,,543360
"Luxembourg","female","fiveto14","primary",,,,,,,,543360
"Luxembourg","female","fiveto14","rural",,,,,,,,543360
"Luxembourg","female","fiveto14","secondary",,,,,,,,543360
"Luxembourg","female","fiveto14","stunted",,,,,,,,543360
"Luxembourg","female","fiveto14","under5",,,,,,,,543360
"Luxembourg","female","fiveto14","urban",,,,,,,,543360
"Luxembourg","female","gt49","higher",,,,,,,,543360
"Luxembourg","female","gt49","male",,,,,,,,543360
"Luxembourg","female","gt49","no.birth.reg",,,,,,,,543360
"Luxembourg","female","gt49","no.educ",,,,,,,,543360
"Luxembourg","female","gt49","no.skilled.attendant",,,,,,,,543360
"Luxembourg","female","gt49","non.p20",,,100,,,,,543360
"Luxembourg","female","gt49","p20",,,0,,,,,543360
"Luxembourg","female","gt49","primary",,,,,,,,543360
"Luxembourg","female","gt49","rural",,,,,,,,543360
"Luxembourg","female","gt49","secondary",,,,,,,,543360
"Luxembourg","female","gt49","stunted",,,,,,,,543360
"Luxembourg","female","gt49","under5",,,,,,,,543360
"Luxembourg","female","gt49","urban",,,,,,,,543360
"Luxembourg","female","higher","male",,,,,,,,543360
"Luxembourg","female","higher","no.birth.reg",,,,,,,,543360
"Luxembourg","female","higher","no.educ",,,,,,,,543360
"Luxembourg","female","higher","no.skilled.attendant",,,,,,,,543360
"Luxembourg","female","higher","non.p20",,,,,,,,543360
"Luxembourg","female","higher","p20",,,,,,,,543360
"Luxembourg","female","higher","primary",,,,,,,,543360
"Luxembourg","female","higher","rural",,,,,,,,543360
"Luxembourg","female","higher","secondary",,,,,,,,543360
"Luxembourg","female","higher","stunted",,,,,,,,543360
"Luxembourg","female","higher","under5",,,,,,,,543360
"Luxembourg","female","higher","urban",,,,,,,,543360
"Luxembourg","female","male","no.birth.reg",,,,,,,,543360
"Luxembourg","female","male","no.educ",,,,,,,,543360
"Luxembourg","female","male","no.skilled.attendant",,,,,,,,543360
"Luxembourg","female","male","non.p20",,,100,,,,,543360
"Luxembourg","female","male","p20",,,0,,,,,543360
"Luxembourg","female","male","primary",,,,,,,,543360
"Luxembourg","female","male","rural",,,,,,,,543360
"Luxembourg","female","male","secondary",,,,,,,,543360
"Luxembourg","female","male","stunted",,,,,,,,543360
"Luxembourg","female","male","under5",,,,,,,,543360
"Luxembourg","female","male","urban",,,,,,,,543360
"Luxembourg","female","no.birth.reg","no.educ",,,,,,,,543360
"Luxembourg","female","no.birth.reg","no.skilled.attendant",,,,,,,,543360
"Luxembourg","female","no.birth.reg","non.p20",,,,,,,,543360
"Luxembourg","female","no.birth.reg","p20",,,,,,,,543360
"Luxembourg","female","no.birth.reg","primary",,,,,,,,543360
"Luxembourg","female","no.birth.reg","rural",,,,,,,,543360
"Luxembourg","female","no.birth.reg","secondary",,,,,,,,543360
"Luxembourg","female","no.birth.reg","stunted",,,,,,,,543360
"Luxembourg","female","no.birth.reg","under5",,,,,,,,543360
"Luxembourg","female","no.birth.reg","urban",,,,,,,,543360
"Luxembourg","female","no.educ","no.skilled.attendant",,,,,,,,543360
"Luxembourg","female","no.educ","non.p20",,,,,,,,543360
"Luxembourg","female","no.educ","p20",,,,,,,,543360
"Luxembourg","female","no.educ","primary",,,,,,,,543360
"Luxembourg","female","no.educ","rural",,,,,,,,543360
"Luxembourg","female","no.educ","secondary",,,,,,,,543360
"Luxembourg","female","no.educ","stunted",,,,,,,,543360
"Luxembourg","female","no.educ","under5",,,,,,,,543360
"Luxembourg","female","no.educ","urban",,,,,,,,543360
"Luxembourg","female","no.skilled.attendant","non.p20",,,,,,,,543360
"Luxembourg","female","no.skilled.attendant","p20",,,,,,,,543360
"Luxembourg","female","no.skilled.attendant","primary",,,,,,,,543360
"Luxembourg","female","no.skilled.attendant","rural",,,,,,,,543360
"Luxembourg","female","no.skilled.attendant","secondary",,,,,,,,543360
"Luxembourg","female","no.skilled.attendant","stunted",,,,,,,,543360
"Luxembourg","female","no.skilled.attendant","under5",,,,,,,,543360
"Luxembourg","female","no.skilled.attendant","urban",,,,,,,,543360
"Luxembourg","female","non.p20","p20",,100,0,,0,,0,543360
"Luxembourg","female","non.p20","primary",,,,,,,,543360
"Luxembourg","female","non.p20","rural",,100,,,,,,543360
"Luxembourg","female","non.p20","secondary",,,,,,,,543360
"Luxembourg","female","non.p20","stunted",,,,,,,,543360
"Luxembourg","female","non.p20","under5",,100,,,,,,543360
"Luxembourg","female","non.p20","urban",,100,,,,,,543360
"Luxembourg","female","p20","primary",,,,,,,,543360
"Luxembourg","female","p20","rural",,0,,,,,,543360
"Luxembourg","female","p20","secondary",,,,,,,,543360
"Luxembourg","female","p20","stunted",,,,,,,,543360
"Luxembourg","female","p20","under5",,0,,,,,,543360
"Luxembourg","female","p20","urban",,0,,,,,,543360
"Luxembourg","female","primary","rural",,,,,,,,543360
"Luxembourg","female","primary","secondary",,,,,,,,543360
"Luxembourg","female","primary","stunted",,,,,,,,543360
"Luxembourg","female","primary","under5",,,,,,,,543360
"Luxembourg","female","primary","urban",,,,,,,,543360
"Luxembourg","female","rural","secondary",,,,,,,,543360
"Luxembourg","female","rural","stunted",,,,,,,,543360
"Luxembourg","female","rural","under5",,,,,,,,543360
"Luxembourg","female","rural","urban",,,,,,,,543360
"Luxembourg","female","secondary","stunted",,,,,,,,543360
"Luxembourg","female","secondary","under5",,,,,,,,543360
"Luxembourg","female","secondary","urban",,,,,,,,543360
"Luxembourg","female","stunted","under5",,,,,,,,543360
"Luxembourg","female","stunted","urban",,,,,,,,543360
"Luxembourg","female","under5","urban",,,,,,,,543360
"Luxembourg","fifteento49","fiveto14","gt49",,,,,,,,543360
"Luxembourg","fifteento49","fiveto14","higher",,,,,,,,543360
"Luxembourg","fifteento49","fiveto14","male",,,,,,,,543360
"Luxembourg","fifteento49","fiveto14","no.birth.reg",,,,,,,,543360
"Luxembourg","fifteento49","fiveto14","no.educ",,,,,,,,543360
"Luxembourg","fifteento49","fiveto14","no.skilled.attendant",,,,,,,,543360
"Luxembourg","fifteento49","fiveto14","non.p20",,,100,,,,,543360
"Luxembourg","fifteento49","fiveto14","p20",,,0,,,,,543360
"Luxembourg","fifteento49","fiveto14","primary",,,,,,,,543360
"Luxembourg","fifteento49","fiveto14","rural",,,,,,,,543360
"Luxembourg","fifteento49","fiveto14","secondary",,,,,,,,543360
"Luxembourg","fifteento49","fiveto14","stunted",,,,,,,,543360
"Luxembourg","fifteento49","fiveto14","under5",,,,,,,,543360
"Luxembourg","fifteento49","fiveto14","urban",,,,,,,,543360
"Luxembourg","fifteento49","gt49","higher",,,,,,,,543360
"Luxembourg","fifteento49","gt49","male",,,,,,,,543360
"Luxembourg","fifteento49","gt49","no.birth.reg",,,,,,,,543360
"Luxembourg","fifteento49","gt49","no.educ",,,,,,,,543360
"Luxembourg","fifteento49","gt49","no.skilled.attendant",,,,,,,,543360
"Luxembourg","fifteento49","gt49","non.p20",,,100,,,,,543360
"Luxembourg","fifteento49","gt49","p20",,,0,,,,,543360
"Luxembourg","fifteento49","gt49","primary",,,,,,,,543360
"Luxembourg","fifteento49","gt49","rural",,,,,,,,543360
"Luxembourg","fifteento49","gt49","secondary",,,,,,,,543360
"Luxembourg","fifteento49","gt49","stunted",,,,,,,,543360
"Luxembourg","fifteento49","gt49","under5",,,,,,,,543360
"Luxembourg","fifteento49","gt49","urban",,,,,,,,543360
"Luxembourg","fifteento49","higher","male",,,,,,,,543360
"Luxembourg","fifteento49","higher","no.birth.reg",,,,,,,,543360
"Luxembourg","fifteento49","higher","no.educ",,,,,,,,543360
"Luxembourg","fifteento49","higher","no.skilled.attendant",,,,,,,,543360
"Luxembourg","fifteento49","higher","non.p20",,,,,,,,543360
"Luxembourg","fifteento49","higher","p20",,,,,,,,543360
"Luxembourg","fifteento49","higher","primary",,,,,,,,543360
"Luxembourg","fifteento49","higher","rural",,,,,,,,543360
"Luxembourg","fifteento49","higher","secondary",,,,,,,,543360
"Luxembourg","fifteento49","higher","stunted",,,,,,,,543360
"Luxembourg","fifteento49","higher","under5",,,,,,,,543360
"Luxembourg","fifteento49","higher","urban",,,,,,,,543360
"Luxembourg","fifteento49","male","no.birth.reg",,,,,,,,543360
"Luxembourg","fifteento49","male","no.educ",,,,,,,,543360
"Luxembourg","fifteento49","male","no.skilled.attendant",,,,,,,,543360
"Luxembourg","fifteento49","male","non.p20",,,100,,,,,543360
"Luxembourg","fifteento49","male","p20",,,0,,,,,543360
"Luxembourg","fifteento49","male","primary",,,,,,,,543360
"Luxembourg","fifteento49","male","rural",,,,,,,,543360
"Luxembourg","fifteento49","male","secondary",,,,,,,,543360
"Luxembourg","fifteento49","male","stunted",,,,,,,,543360
"Luxembourg","fifteento49","male","under5",,,,,,,,543360
"Luxembourg","fifteento49","male","urban",,,,,,,,543360
"Luxembourg","fifteento49","no.birth.reg","no.educ",,,,,,,,543360
"Luxembourg","fifteento49","no.birth.reg","no.skilled.attendant",,,,,,,,543360
"Luxembourg","fifteento49","no.birth.reg","non.p20",,,,,,,,543360
"Luxembourg","fifteento49","no.birth.reg","p20",,,,,,,,543360
"Luxembourg","fifteento49","no.birth.reg","primary",,,,,,,,543360
"Luxembourg","fifteento49","no.birth.reg","rural",,,,,,,,543360
"Luxembourg","fifteento49","no.birth.reg","secondary",,,,,,,,543360
"Luxembourg","fifteento49","no.birth.reg","stunted",,,,,,,,543360
"Luxembourg","fifteento49","no.birth.reg","under5",,,,,,,,543360
"Luxembourg","fifteento49","no.birth.reg","urban",,,,,,,,543360
"Luxembourg","fifteento49","no.educ","no.skilled.attendant",,,,,,,,543360
"Luxembourg","fifteento49","no.educ","non.p20",,,,,,,,543360
"Luxembourg","fifteento49","no.educ","p20",,,,,,,,543360
"Luxembourg","fifteento49","no.educ","primary",,,,,,,,543360
"Luxembourg","fifteento49","no.educ","rural",,,,,,,,543360
"Luxembourg","fifteento49","no.educ","secondary",,,,,,,,543360
"Luxembourg","fifteento49","no.educ","stunted",,,,,,,,543360
"Luxembourg","fifteento49","no.educ","under5",,,,,,,,543360
"Luxembourg","fifteento49","no.educ","urban",,,,,,,,543360
"Luxembourg","fifteento49","no.skilled.attendant","non.p20",,,,,,,,543360
"Luxembourg","fifteento49","no.skilled.attendant","p20",,,,,,,,543360
"Luxembourg","fifteento49","no.skilled.attendant","primary",,,,,,,,543360
"Luxembourg","fifteento49","no.skilled.attendant","rural",,,,,,,,543360
"Luxembourg","fifteento49","no.skilled.attendant","secondary",,,,,,,,543360
"Luxembourg","fifteento49","no.skilled.attendant","stunted",,,,,,,,543360
"Luxembourg","fifteento49","no.skilled.attendant","under5",,,,,,,,543360
"Luxembourg","fifteento49","no.skilled.attendant","urban",,,,,,,,543360
"Luxembourg","fifteento49","non.p20","p20",,100,0,,0,,0,543360
"Luxembourg","fifteento49","non.p20","primary",,,,,,,,543360
"Luxembourg","fifteento49","non.p20","rural",,100,,,,,,543360
"Luxembourg","fifteento49","non.p20","secondary",,,,,,,,543360
"Luxembourg","fifteento49","non.p20","stunted",,,,,,,,543360
"Luxembourg","fifteento49","non.p20","under5",,100,,,,,,543360
"Luxembourg","fifteento49","non.p20","urban",,100,,,,,,543360
"Luxembourg","fifteento49","p20","primary",,,,,,,,543360
"Luxembourg","fifteento49","p20","rural",,0,,,,,,543360
"Luxembourg","fifteento49","p20","secondary",,,,,,,,543360
"Luxembourg","fifteento49","p20","stunted",,,,,,,,543360
"Luxembourg","fifteento49","p20","under5",,0,,,,,,543360
"Luxembourg","fifteento49","p20","urban",,0,,,,,,543360
"Luxembourg","fifteento49","primary","rural",,,,,,,,543360
"Luxembourg","fifteento49","primary","secondary",,,,,,,,543360
"Luxembourg","fifteento49","primary","stunted",,,,,,,,543360
"Luxembourg","fifteento49","primary","under5",,,,,,,,543360
"Luxembourg","fifteento49","primary","urban",,,,,,,,543360
"Luxembourg","fifteento49","rural","secondary",,,,,,,,543360
"Luxembourg","fifteento49","rural","stunted",,,,,,,,543360
"Luxembourg","fifteento49","rural","under5",,,,,,,,543360
"Luxembourg","fifteento49","rural","urban",,,,,,,,543360
"Luxembourg","fifteento49","secondary","stunted",,,,,,,,543360
"Luxembourg","fifteento49","secondary","under5",,,,,,,,543360
"Luxembourg","fifteento49","secondary","urban",,,,,,,,543360
"Luxembourg","fifteento49","stunted","under5",,,,,,,,543360
"Luxembourg","fifteento49","stunted","urban",,,,,,,,543360
"Luxembourg","fifteento49","under5","urban",,,,,,,,543360
"Luxembourg","fiveto14","gt49","higher",,,,,,,,543360
"Luxembourg","fiveto14","gt49","male",,,,,,,,543360
"Luxembourg","fiveto14","gt49","no.birth.reg",,,,,,,,543360
"Luxembourg","fiveto14","gt49","no.educ",,,,,,,,543360
"Luxembourg","fiveto14","gt49","no.skilled.attendant",,,,,,,,543360
"Luxembourg","fiveto14","gt49","non.p20",,,100,,,,,543360
"Luxembourg","fiveto14","gt49","p20",,,0,,,,,543360
"Luxembourg","fiveto14","gt49","primary",,,,,,,,543360
"Luxembourg","fiveto14","gt49","rural",,,,,,,,543360
"Luxembourg","fiveto14","gt49","secondary",,,,,,,,543360
"Luxembourg","fiveto14","gt49","stunted",,,,,,,,543360
"Luxembourg","fiveto14","gt49","under5",,,,,,,,543360
"Luxembourg","fiveto14","gt49","urban",,,,,,,,543360
"Luxembourg","fiveto14","higher","male",,,,,,,,543360
"Luxembourg","fiveto14","higher","no.birth.reg",,,,,,,,543360
"Luxembourg","fiveto14","higher","no.educ",,,,,,,,543360
"Luxembourg","fiveto14","higher","no.skilled.attendant",,,,,,,,543360
"Luxembourg","fiveto14","higher","non.p20",,,,,,,,543360
"Luxembourg","fiveto14","higher","p20",,,,,,,,543360
"Luxembourg","fiveto14","higher","primary",,,,,,,,543360
"Luxembourg","fiveto14","higher","rural",,,,,,,,543360
"Luxembourg","fiveto14","higher","secondary",,,,,,,,543360
"Luxembourg","fiveto14","higher","stunted",,,,,,,,543360
"Luxembourg","fiveto14","higher","under5",,,,,,,,543360
"Luxembourg","fiveto14","higher","urban",,,,,,,,543360
"Luxembourg","fiveto14","male","no.birth.reg",,,,,,,,543360
"Luxembourg","fiveto14","male","no.educ",,,,,,,,543360
"Luxembourg","fiveto14","male","no.skilled.attendant",,,,,,,,543360
"Luxembourg","fiveto14","male","non.p20",,,100,,,,,543360
"Luxembourg","fiveto14","male","p20",,,0,,,,,543360
"Luxembourg","fiveto14","male","primary",,,,,,,,543360
"Luxembourg","fiveto14","male","rural",,,,,,,,543360
"Luxembourg","fiveto14","male","secondary",,,,,,,,543360
"Luxembourg","fiveto14","male","stunted",,,,,,,,543360
"Luxembourg","fiveto14","male","under5",,,,,,,,543360
"Luxembourg","fiveto14","male","urban",,,,,,,,543360
"Luxembourg","fiveto14","no.birth.reg","no.educ",,,,,,,,543360
"Luxembourg","fiveto14","no.birth.reg","no.skilled.attendant",,,,,,,,543360
"Luxembourg","fiveto14","no.birth.reg","non.p20",,,,,,,,543360
"Luxembourg","fiveto14","no.birth.reg","p20",,,,,,,,543360
"Luxembourg","fiveto14","no.birth.reg","primary",,,,,,,,543360
"Luxembourg","fiveto14","no.birth.reg","rural",,,,,,,,543360
"Luxembourg","fiveto14","no.birth.reg","secondary",,,,,,,,543360
"Luxembourg","fiveto14","no.birth.reg","stunted",,,,,,,,543360
"Luxembourg","fiveto14","no.birth.reg","under5",,,,,,,,543360
"Luxembourg","fiveto14","no.birth.reg","urban",,,,,,,,543360
"Luxembourg","fiveto14","no.educ","no.skilled.attendant",,,,,,,,543360
"Luxembourg","fiveto14","no.educ","non.p20",,,,,,,,543360
"Luxembourg","fiveto14","no.educ","p20",,,,,,,,543360
"Luxembourg","fiveto14","no.educ","primary",,,,,,,,543360
"Luxembourg","fiveto14","no.educ","rural",,,,,,,,543360
"Luxembourg","fiveto14","no.educ","secondary",,,,,,,,543360
"Luxembourg","fiveto14","no.educ","stunted",,,,,,,,543360
"Luxembourg","fiveto14","no.educ","under5",,,,,,,,543360
"Luxembourg","fiveto14","no.educ","urban",,,,,,,,543360
"Luxembourg","fiveto14","no.skilled.attendant","non.p20",,,,,,,,543360
"Luxembourg","fiveto14","no.skilled.attendant","p20",,,,,,,,543360
"Luxembourg","fiveto14","no.skilled.attendant","primary",,,,,,,,543360
"Luxembourg","fiveto14","no.skilled.attendant","rural",,,,,,,,543360
"Luxembourg","fiveto14","no.skilled.attendant","secondary",,,,,,,,543360
"Luxembourg","fiveto14","no.skilled.attendant","stunted",,,,,,,,543360
"Luxembourg","fiveto14","no.skilled.attendant","under5",,,,,,,,543360
"Luxembourg","fiveto14","no.skilled.attendant","urban",,,,,,,,543360
"Luxembourg","fiveto14","non.p20","p20",,100,0,,0,,0,543360
"Luxembourg","fiveto14","non.p20","primary",,,,,,,,543360
"Luxembourg","fiveto14","non.p20","rural",,100,,,,,,543360
"Luxembourg","fiveto14","non.p20","secondary",,,,,,,,543360
"Luxembourg","fiveto14","non.p20","stunted",,,,,,,,543360
"Luxembourg","fiveto14","non.p20","under5",,100,,,,,,543360
"Luxembourg","fiveto14","non.p20","urban",,100,,,,,,543360
"Luxembourg","fiveto14","p20","primary",,,,,,,,543360
"Luxembourg","fiveto14","p20","rural",,0,,,,,,543360
"Luxembourg","fiveto14","p20","secondary",,,,,,,,543360
"Luxembourg","fiveto14","p20","stunted",,,,,,,,543360
"Luxembourg","fiveto14","p20","under5",,0,,,,,,543360
"Luxembourg","fiveto14","p20","urban",,0,,,,,,543360
"Luxembourg","fiveto14","primary","rural",,,,,,,,543360
"Luxembourg","fiveto14","primary","secondary",,,,,,,,543360
"Luxembourg","fiveto14","primary","stunted",,,,,,,,543360
"Luxembourg","fiveto14","primary","under5",,,,,,,,543360
"Luxembourg","fiveto14","primary","urban",,,,,,,,543360
"Luxembourg","fiveto14","rural","secondary",,,,,,,,543360
"Luxembourg","fiveto14","rural","stunted",,,,,,,,543360
"Luxembourg","fiveto14","rural","under5",,,,,,,,543360
"Luxembourg","fiveto14","rural","urban",,,,,,,,543360
"Luxembourg","fiveto14","secondary","stunted",,,,,,,,543360
"Luxembourg","fiveto14","secondary","under5",,,,,,,,543360
"Luxembourg","fiveto14","secondary","urban",,,,,,,,543360
"Luxembourg","fiveto14","stunted","under5",,,,,,,,543360
"Luxembourg","fiveto14","stunted","urban",,,,,,,,543360
"Luxembourg","fiveto14","under5","urban",,,,,,,,543360
"Luxembourg","gt49","higher","male",,,,,,,,543360
"Luxembourg","gt49","higher","no.birth.reg",,,,,,,,543360
"Luxembourg","gt49","higher","no.educ",,,,,,,,543360
"Luxembourg","gt49","higher","no.skilled.attendant",,,,,,,,543360
"Luxembourg","gt49","higher","non.p20",,,,,,,,543360
"Luxembourg","gt49","higher","p20",,,,,,,,543360
"Luxembourg","gt49","higher","primary",,,,,,,,543360
"Luxembourg","gt49","higher","rural",,,,,,,,543360
"Luxembourg","gt49","higher","secondary",,,,,,,,543360
"Luxembourg","gt49","higher","stunted",,,,,,,,543360
"Luxembourg","gt49","higher","under5",,,,,,,,543360
"Luxembourg","gt49","higher","urban",,,,,,,,543360
"Luxembourg","gt49","male","no.birth.reg",,,,,,,,543360
"Luxembourg","gt49","male","no.educ",,,,,,,,543360
"Luxembourg","gt49","male","no.skilled.attendant",,,,,,,,543360
"Luxembourg","gt49","male","non.p20",,,100,,,,,543360
"Luxembourg","gt49","male","p20",,,0,,,,,543360
"Luxembourg","gt49","male","primary",,,,,,,,543360
"Luxembourg","gt49","male","rural",,,,,,,,543360
"Luxembourg","gt49","male","secondary",,,,,,,,543360
"Luxembourg","gt49","male","stunted",,,,,,,,543360
"Luxembourg","gt49","male","under5",,,,,,,,543360
"Luxembourg","gt49","male","urban",,,,,,,,543360
"Luxembourg","gt49","no.birth.reg","no.educ",,,,,,,,543360
"Luxembourg","gt49","no.birth.reg","no.skilled.attendant",,,,,,,,543360
"Luxembourg","gt49","no.birth.reg","non.p20",,,,,,,,543360
"Luxembourg","gt49","no.birth.reg","p20",,,,,,,,543360
"Luxembourg","gt49","no.birth.reg","primary",,,,,,,,543360
"Luxembourg","gt49","no.birth.reg","rural",,,,,,,,543360
"Luxembourg","gt49","no.birth.reg","secondary",,,,,,,,543360
"Luxembourg","gt49","no.birth.reg","stunted",,,,,,,,543360
"Luxembourg","gt49","no.birth.reg","under5",,,,,,,,543360
"Luxembourg","gt49","no.birth.reg","urban",,,,,,,,543360
"Luxembourg","gt49","no.educ","no.skilled.attendant",,,,,,,,543360
"Luxembourg","gt49","no.educ","non.p20",,,,,,,,543360
"Luxembourg","gt49","no.educ","p20",,,,,,,,543360
"Luxembourg","gt49","no.educ","primary",,,,,,,,543360
"Luxembourg","gt49","no.educ","rural",,,,,,,,543360
"Luxembourg","gt49","no.educ","secondary",,,,,,,,543360
"Luxembourg","gt49","no.educ","stunted",,,,,,,,543360
"Luxembourg","gt49","no.educ","under5",,,,,,,,543360
"Luxembourg","gt49","no.educ","urban",,,,,,,,543360
"Luxembourg","gt49","no.skilled.attendant","non.p20",,,,,,,,543360
"Luxembourg","gt49","no.skilled.attendant","p20",,,,,,,,543360
"Luxembourg","gt49","no.skilled.attendant","primary",,,,,,,,543360
"Luxembourg","gt49","no.skilled.attendant","rural",,,,,,,,543360
"Luxembourg","gt49","no.skilled.attendant","secondary",,,,,,,,543360
"Luxembourg","gt49","no.skilled.attendant","stunted",,,,,,,,543360
"Luxembourg","gt49","no.skilled.attendant","under5",,,,,,,,543360
"Luxembourg","gt49","no.skilled.attendant","urban",,,,,,,,543360
"Luxembourg","gt49","non.p20","p20",,100,0,,0,,0,543360
"Luxembourg","gt49","non.p20","primary",,,,,,,,543360
"Luxembourg","gt49","non.p20","rural",,100,,,,,,543360
"Luxembourg","gt49","non.p20","secondary",,,,,,,,543360
"Luxembourg","gt49","non.p20","stunted",,,,,,,,543360
"Luxembourg","gt49","non.p20","under5",,100,,,,,,543360
"Luxembourg","gt49","non.p20","urban",,100,,,,,,543360
"Luxembourg","gt49","p20","primary",,,,,,,,543360
"Luxembourg","gt49","p20","rural",,0,,,,,,543360
"Luxembourg","gt49","p20","secondary",,,,,,,,543360
"Luxembourg","gt49","p20","stunted",,,,,,,,543360
"Luxembourg","gt49","p20","under5",,0,,,,,,543360
"Luxembourg","gt49","p20","urban",,0,,,,,,543360
"Luxembourg","gt49","primary","rural",,,,,,,,543360
"Luxembourg","gt49","primary","secondary",,,,,,,,543360
"Luxembourg","gt49","primary","stunted",,,,,,,,543360
"Luxembourg","gt49","primary","under5",,,,,,,,543360
"Luxembourg","gt49","primary","urban",,,,,,,,543360
"Luxembourg","gt49","rural","secondary",,,,,,,,543360
"Luxembourg","gt49","rural","stunted",,,,,,,,543360
"Luxembourg","gt49","rural","under5",,,,,,,,543360
"Luxembourg","gt49","rural","urban",,,,,,,,543360
"Luxembourg","gt49","secondary","stunted",,,,,,,,543360
"Luxembourg","gt49","secondary","under5",,,,,,,,543360
"Luxembourg","gt49","secondary","urban",,,,,,,,543360
"Luxembourg","gt49","stunted","under5",,,,,,,,543360
"Luxembourg","gt49","stunted","urban",,,,,,,,543360
"Luxembourg","gt49","under5","urban",,,,,,,,543360
"Luxembourg","higher","male","no.birth.reg",,,,,,,,543360
"Luxembourg","higher","male","no.educ",,,,,,,,543360
"Luxembourg","higher","male","no.skilled.attendant",,,,,,,,543360
"Luxembourg","higher","male","non.p20",,,,,,,,543360
"Luxembourg","higher","male","p20",,,,,,,,543360
"Luxembourg","higher","male","primary",,,,,,,,543360
"Luxembourg","higher","male","rural",,,,,,,,543360
"Luxembourg","higher","male","secondary",,,,,,,,543360
"Luxembourg","higher","male","stunted",,,,,,,,543360
"Luxembourg","higher","male","under5",,,,,,,,543360
"Luxembourg","higher","male","urban",,,,,,,,543360
"Luxembourg","higher","no.birth.reg","no.educ",,,,,,,,543360
"Luxembourg","higher","no.birth.reg","no.skilled.attendant",,,,,,,,543360
"Luxembourg","higher","no.birth.reg","non.p20",,,,,,,,543360
"Luxembourg","higher","no.birth.reg","p20",,,,,,,,543360
"Luxembourg","higher","no.birth.reg","primary",,,,,,,,543360
"Luxembourg","higher","no.birth.reg","rural",,,,,,,,543360
"Luxembourg","higher","no.birth.reg","secondary",,,,,,,,543360
"Luxembourg","higher","no.birth.reg","stunted",,,,,,,,543360
"Luxembourg","higher","no.birth.reg","under5",,,,,,,,543360
"Luxembourg","higher","no.birth.reg","urban",,,,,,,,543360
"Luxembourg","higher","no.educ","no.skilled.attendant",,,,,,,,543360
"Luxembourg","higher","no.educ","non.p20",,,,,,,,543360
"Luxembourg","higher","no.educ","p20",,,,,,,,543360
"Luxembourg","higher","no.educ","primary",,,,,,,,543360
"Luxembourg","higher","no.educ","rural",,,,,,,,543360
"Luxembourg","higher","no.educ","secondary",,,,,,,,543360
"Luxembourg","higher","no.educ","stunted",,,,,,,,543360
"Luxembourg","higher","no.educ","under5",,,,,,,,543360
"Luxembourg","higher","no.educ","urban",,,,,,,,543360
"Luxembourg","higher","no.skilled.attendant","non.p20",,,,,,,,543360
"Luxembourg","higher","no.skilled.attendant","p20",,,,,,,,543360
"Luxembourg","higher","no.skilled.attendant","primary",,,,,,,,543360
"Luxembourg","higher","no.skilled.attendant","rural",,,,,,,,543360
"Luxembourg","higher","no.skilled.attendant","secondary",,,,,,,,543360
"Luxembourg","higher","no.skilled.attendant","stunted",,,,,,,,543360
"Luxembourg","higher","no.skilled.attendant","under5",,,,,,,,543360
"Luxembourg","higher","no.skilled.attendant","urban",,,,,,,,543360
"Luxembourg","higher","non.p20","p20",,,,,0,,0,543360
"Luxembourg","higher","non.p20","primary",,,,,,,,543360
"Luxembourg","higher","non.p20","rural",,,,,,,,543360
"Luxembourg","higher","non.p20","secondary",,,,,,,,543360
"Luxembourg","higher","non.p20","stunted",,,,,,,,543360
"Luxembourg","higher","non.p20","under5",,,,,,,,543360
"Luxembourg","higher","non.p20","urban",,,,,,,,543360
"Luxembourg","higher","p20","primary",,,,,,,,543360
"Luxembourg","higher","p20","rural",,,,,,,,543360
"Luxembourg","higher","p20","secondary",,,,,,,,543360
"Luxembourg","higher","p20","stunted",,,,,,,,543360
"Luxembourg","higher","p20","under5",,,,,,,,543360
"Luxembourg","higher","p20","urban",,,,,,,,543360
"Luxembourg","higher","primary","rural",,,,,,,,543360
"Luxembourg","higher","primary","secondary",,,,,,,,543360
"Luxembourg","higher","primary","stunted",,,,,,,,543360
"Luxembourg","higher","primary","under5",,,,,,,,543360
"Luxembourg","higher","primary","urban",,,,,,,,543360
"Luxembourg","higher","rural","secondary",,,,,,,,543360
"Luxembourg","higher","rural","stunted",,,,,,,,543360
"Luxembourg","higher","rural","under5",,,,,,,,543360
"Luxembourg","higher","rural","urban",,,,,,,,543360
"Luxembourg","higher","secondary","stunted",,,,,,,,543360
"Luxembourg","higher","secondary","under5",,,,,,,,543360
"Luxembourg","higher","secondary","urban",,,,,,,,543360
"Luxembourg","higher","stunted","under5",,,,,,,,543360
"Luxembourg","higher","stunted","urban",,,,,,,,543360
"Luxembourg","higher","under5","urban",,,,,,,,543360
"Luxembourg","male","no.birth.reg","no.educ",,,,,,,,543360
"Luxembourg","male","no.birth.reg","no.skilled.attendant",,,,,,,,543360
"Luxembourg","male","no.birth.reg","non.p20",,,,,,,,543360
"Luxembourg","male","no.birth.reg","p20",,,,,,,,543360
"Luxembourg","male","no.birth.reg","primary",,,,,,,,543360
"Luxembourg","male","no.birth.reg","rural",,,,,,,,543360
"Luxembourg","male","no.birth.reg","secondary",,,,,,,,543360
"Luxembourg","male","no.birth.reg","stunted",,,,,,,,543360
"Luxembourg","male","no.birth.reg","under5",,,,,,,,543360
"Luxembourg","male","no.birth.reg","urban",,,,,,,,543360
"Luxembourg","male","no.educ","no.skilled.attendant",,,,,,,,543360
"Luxembourg","male","no.educ","non.p20",,,,,,,,543360
"Luxembourg","male","no.educ","p20",,,,,,,,543360
"Luxembourg","male","no.educ","primary",,,,,,,,543360
"Luxembourg","male","no.educ","rural",,,,,,,,543360
"Luxembourg","male","no.educ","secondary",,,,,,,,543360
"Luxembourg","male","no.educ","stunted",,,,,,,,543360
"Luxembourg","male","no.educ","under5",,,,,,,,543360
"Luxembourg","male","no.educ","urban",,,,,,,,543360
"Luxembourg","male","no.skilled.attendant","non.p20",,,,,,,,543360
"Luxembourg","male","no.skilled.attendant","p20",,,,,,,,543360
"Luxembourg","male","no.skilled.attendant","primary",,,,,,,,543360
"Luxembourg","male","no.skilled.attendant","rural",,,,,,,,543360
"Luxembourg","male","no.skilled.attendant","secondary",,,,,,,,543360
"Luxembourg","male","no.skilled.attendant","stunted",,,,,,,,543360
"Luxembourg","male","no.skilled.attendant","under5",,,,,,,,543360
"Luxembourg","male","no.skilled.attendant","urban",,,,,,,,543360
"Luxembourg","male","non.p20","p20",,100,0,,0,,0,543360
"Luxembourg","male","non.p20","primary",,,,,,,,543360
"Luxembourg","male","non.p20","rural",,100,,,,,,543360
"Luxembourg","male","non.p20","secondary",,,,,,,,543360
"Luxembourg","male","non.p20","stunted",,,,,,,,543360
"Luxembourg","male","non.p20","under5",,100,,,,,,543360
"Luxembourg","male","non.p20","urban",,100,,,,,,543360
"Luxembourg","male","p20","primary",,,,,,,,543360
"Luxembourg","male","p20","rural",,0,,,,,,543360
"Luxembourg","male","p20","secondary",,,,,,,,543360
"Luxembourg","male","p20","stunted",,,,,,,,543360
"Luxembourg","male","p20","under5",,0,,,,,,543360
"Luxembourg","male","p20","urban",,0,,,,,,543360
"Luxembourg","male","primary","rural",,,,,,,,543360
"Luxembourg","male","primary","secondary",,,,,,,,543360
"Luxembourg","male","primary","stunted",,,,,,,,543360
"Luxembourg","male","primary","under5",,,,,,,,543360
"Luxembourg","male","primary","urban",,,,,,,,543360
"Luxembourg","male","rural","secondary",,,,,,,,543360
"Luxembourg","male","rural","stunted",,,,,,,,543360
"Luxembourg","male","rural","under5",,,,,,,,543360
"Luxembourg","male","rural","urban",,,,,,,,543360
"Luxembourg","male","secondary","stunted",,,,,,,,543360
"Luxembourg","male","secondary","under5",,,,,,,,543360
"Luxembourg","male","secondary","urban",,,,,,,,543360
"Luxembourg","male","stunted","under5",,,,,,,,543360
"Luxembourg","male","stunted","urban",,,,,,,,543360
"Luxembourg","male","under5","urban",,,,,,,,543360
"Luxembourg","no.birth.reg","no.educ","no.skilled.attendant",,,,,,,,543360
"Luxembourg","no.birth.reg","no.educ","non.p20",,,,,,,,543360
"Luxembourg","no.birth.reg","no.educ","p20",,,,,,,,543360
"Luxembourg","no.birth.reg","no.educ","primary",,,,,,,,543360
"Luxembourg","no.birth.reg","no.educ","rural",,,,,,,,543360
"Luxembourg","no.birth.reg","no.educ","secondary",,,,,,,,543360
"Luxembourg","no.birth.reg","no.educ","stunted",,,,,,,,543360
"Luxembourg","no.birth.reg","no.educ","under5",,,,,,,,543360
"Luxembourg","no.birth.reg","no.educ","urban",,,,,,,,543360
"Luxembourg","no.birth.reg","no.skilled.attendant","non.p20",,,,,,,,543360
"Luxembourg","no.birth.reg","no.skilled.attendant","p20",,,,,,,,543360
"Luxembourg","no.birth.reg","no.skilled.attendant","primary",,,,,,,,543360
"Luxembourg","no.birth.reg","no.skilled.attendant","rural",,,,,,,,543360
"Luxembourg","no.birth.reg","no.skilled.attendant","secondary",,,,,,,,543360
"Luxembourg","no.birth.reg","no.skilled.attendant","stunted",,,,,,,,543360
"Luxembourg","no.birth.reg","no.skilled.attendant","under5",,,,,,,,543360
"Luxembourg","no.birth.reg","no.skilled.attendant","urban",,,,,,,,543360
"Luxembourg","no.birth.reg","non.p20","p20",,,,,0,,0,543360
"Luxembourg","no.birth.reg","non.p20","primary",,,,,,,,543360
"Luxembourg","no.birth.reg","non.p20","rural",,,,,,,,543360
"Luxembourg","no.birth.reg","non.p20","secondary",,,,,,,,543360
"Luxembourg","no.birth.reg","non.p20","stunted",,,,,,,,543360
"Luxembourg","no.birth.reg","non.p20","under5",,,,,,,,543360
"Luxembourg","no.birth.reg","non.p20","urban",,,,,,,,543360
"Luxembourg","no.birth.reg","p20","primary",,,,,,,,543360
"Luxembourg","no.birth.reg","p20","rural",,,,,,,,543360
"Luxembourg","no.birth.reg","p20","secondary",,,,,,,,543360
"Luxembourg","no.birth.reg","p20","stunted",,,,,,,,543360
"Luxembourg","no.birth.reg","p20","under5",,,,,,,,543360
"Luxembourg","no.birth.reg","p20","urban",,,,,,,,543360
"Luxembourg","no.birth.reg","primary","rural",,,,,,,,543360
"Luxembourg","no.birth.reg","primary","secondary",,,,,,,,543360
"Luxembourg","no.birth.reg","primary","stunted",,,,,,,,543360
"Luxembourg","no.birth.reg","primary","under5",,,,,,,,543360
"Luxembourg","no.birth.reg","primary","urban",,,,,,,,543360
"Luxembourg","no.birth.reg","rural","secondary",,,,,,,,543360
"Luxembourg","no.birth.reg","rural","stunted",,,,,,,,543360
"Luxembourg","no.birth.reg","rural","under5",,,,,,,,543360
"Luxembourg","no.birth.reg","rural","urban",,,,,,,,543360
"Luxembourg","no.birth.reg","secondary","stunted",,,,,,,,543360
"Luxembourg","no.birth.reg","secondary","under5",,,,,,,,543360
"Luxembourg","no.birth.reg","secondary","urban",,,,,,,,543360
"Luxembourg","no.birth.reg","stunted","under5",,,,,,,,543360
"Luxembourg","no.birth.reg","stunted","urban",,,,,,,,543360
"Luxembourg","no.birth.reg","under5","urban",,,,,,,,543360
"Luxembourg","no.educ","no.skilled.attendant","non.p20",,,,,,,,543360
"Luxembourg","no.educ","no.skilled.attendant","p20",,,,,,,,543360
"Luxembourg","no.educ","no.skilled.attendant","primary",,,,,,,,543360
"Luxembourg","no.educ","no.skilled.attendant","rural",,,,,,,,543360
"Luxembourg","no.educ","no.skilled.attendant","secondary",,,,,,,,543360
"Luxembourg","no.educ","no.skilled.attendant","stunted",,,,,,,,543360
"Luxembourg","no.educ","no.skilled.attendant","under5",,,,,,,,543360
"Luxembourg","no.educ","no.skilled.attendant","urban",,,,,,,,543360
"Luxembourg","no.educ","non.p20","p20",,,,,0,,0,543360
"Luxembourg","no.educ","non.p20","primary",,,,,,,,543360
"Luxembourg","no.educ","non.p20","rural",,,,,,,,543360
"Luxembourg","no.educ","non.p20","secondary",,,,,,,,543360
"Luxembourg","no.educ","non.p20","stunted",,,,,,,,543360
"Luxembourg","no.educ","non.p20","under5",,,,,,,,543360
"Luxembourg","no.educ","non.p20","urban",,,,,,,,543360
"Luxembourg","no.educ","p20","primary",,,,,,,,543360
"Luxembourg","no.educ","p20","rural",,,,,,,,543360
"Luxembourg","no.educ","p20","secondary",,,,,,,,543360
"Luxembourg","no.educ","p20","stunted",,,,,,,,543360
"Luxembourg","no.educ","p20","under5",,,,,,,,543360
"Luxembourg","no.educ","p20","urban",,,,,,,,543360
"Luxembourg","no.educ","primary","rural",,,,,,,,543360
"Luxembourg","no.educ","primary","secondary",,,,,,,,543360
"Luxembourg","no.educ","primary","stunted",,,,,,,,543360
"Luxembourg","no.educ","primary","under5",,,,,,,,543360
"Luxembourg","no.educ","primary","urban",,,,,,,,543360
"Luxembourg","no.educ","rural","secondary",,,,,,,,543360
"Luxembourg","no.educ","rural","stunted",,,,,,,,543360
"Luxembourg","no.educ","rural","under5",,,,,,,,543360
"Luxembourg","no.educ","rural","urban",,,,,,,,543360
"Luxembourg","no.educ","secondary","stunted",,,,,,,,543360
"Luxembourg","no.educ","secondary","under5",,,,,,,,543360
"Luxembourg","no.educ","secondary","urban",,,,,,,,543360
"Luxembourg","no.educ","stunted","under5",,,,,,,,543360
"Luxembourg","no.educ","stunted","urban",,,,,,,,543360
"Luxembourg","no.educ","under5","urban",,,,,,,,543360
"Luxembourg","no.skilled.attendant","non.p20","p20",,,,,0,,0,543360
"Luxembourg","no.skilled.attendant","non.p20","primary",,,,,,,,543360
"Luxembourg","no.skilled.attendant","non.p20","rural",,,,,,,,543360
"Luxembourg","no.skilled.attendant","non.p20","secondary",,,,,,,,543360
"Luxembourg","no.skilled.attendant","non.p20","stunted",,,,,,,,543360
"Luxembourg","no.skilled.attendant","non.p20","under5",,,,,,,,543360
"Luxembourg","no.skilled.attendant","non.p20","urban",,,,,,,,543360
"Luxembourg","no.skilled.attendant","p20","primary",,,,,,,,543360
"Luxembourg","no.skilled.attendant","p20","rural",,,,,,,,543360
"Luxembourg","no.skilled.attendant","p20","secondary",,,,,,,,543360
"Luxembourg","no.skilled.attendant","p20","stunted",,,,,,,,543360
"Luxembourg","no.skilled.attendant","p20","under5",,,,,,,,543360
"Luxembourg","no.skilled.attendant","p20","urban",,,,,,,,543360
"Luxembourg","no.skilled.attendant","primary","rural",,,,,,,,543360
"Luxembourg","no.skilled.attendant","primary","secondary",,,,,,,,543360
"Luxembourg","no.skilled.attendant","primary","stunted",,,,,,,,543360
"Luxembourg","no.skilled.attendant","primary","under5",,,,,,,,543360
"Luxembourg","no.skilled.attendant","primary","urban",,,,,,,,543360
"Luxembourg","no.skilled.attendant","rural","secondary",,,,,,,,543360
"Luxembourg","no.skilled.attendant","rural","stunted",,,,,,,,543360
"Luxembourg","no.skilled.attendant","rural","under5",,,,,,,,543360
"Luxembourg","no.skilled.attendant","rural","urban",,,,,,,,543360
"Luxembourg","no.skilled.attendant","secondary","stunted",,,,,,,,543360
"Luxembourg","no.skilled.attendant","secondary","under5",,,,,,,,543360
"Luxembourg","no.skilled.attendant","secondary","urban",,,,,,,,543360
"Luxembourg","no.skilled.attendant","stunted","under5",,,,,,,,543360
"Luxembourg","no.skilled.attendant","stunted","urban",,,,,,,,543360
"Luxembourg","no.skilled.attendant","under5","urban",,,,,,,,543360
"Luxembourg","non.p20","p20","primary",,,,0,,,0,543360
"Luxembourg","non.p20","p20","rural",100,0,,0,,,0,543360
"Luxembourg","non.p20","p20","secondary",,,,0,,,0,543360
"Luxembourg","non.p20","p20","stunted",,,,0,,,0,543360
"Luxembourg","non.p20","p20","under5",100,0,,0,,,0,543360
"Luxembourg","non.p20","p20","urban",100,0,,0,,,0,543360
"Luxembourg","non.p20","primary","rural",,,,,,,,543360
"Luxembourg","non.p20","primary","secondary",,,,,,,,543360
"Luxembourg","non.p20","primary","stunted",,,,,,,,543360
"Luxembourg","non.p20","primary","under5",,,,,,,,543360
"Luxembourg","non.p20","primary","urban",,,,,,,,543360
"Luxembourg","non.p20","rural","secondary",,,,,,,,543360
"Luxembourg","non.p20","rural","stunted",,,,,,,,543360
"Luxembourg","non.p20","rural","under5",100,,,,,,,543360
"Luxembourg","non.p20","rural","urban",100,,,,,,,543360
"Luxembourg","non.p20","secondary","stunted",,,,,,,,543360
"Luxembourg","non.p20","secondary","under5",,,,,,,,543360
"Luxembourg","non.p20","secondary","urban",,,,,,,,543360
"Luxembourg","non.p20","stunted","under5",,,,,,,,543360
"Luxembourg","non.p20","stunted","urban",,,,,,,,543360
"Luxembourg","non.p20","under5","urban",100,,,,,,,543360
"Luxembourg","p20","primary","rural",,,,,,,,543360
"Luxembourg","p20","primary","secondary",,,,,,,,543360
"Luxembourg","p20","primary","stunted",,,,,,,,543360
"Luxembourg","p20","primary","under5",,,,,,,,543360
"Luxembourg","p20","primary","urban",,,,,,,,543360
"Luxembourg","p20","rural","secondary",,,,,,,,543360
"Luxembourg","p20","rural","stunted",,,,,,,,543360
"Luxembourg","p20","rural","under5",0,,,,,,,543360
"Luxembourg","p20","rural","urban",0,,,,,,,543360
"Luxembourg","p20","secondary","stunted",,,,,,,,543360
"Luxembourg","p20","secondary","under5",,,,,,,,543360
"Luxembourg","p20","secondary","urban",,,,,,,,543360
"Luxembourg","p20","stunted","under5",,,,,,,,543360
"Luxembourg","p20","stunted","urban",,,,,,,,543360
"Luxembourg","p20","under5","urban",0,,,,,,,543360
"Luxembourg","primary","rural","secondary",,,,,,,,543360
"Luxembourg","primary","rural","stunted",,,,,,,,543360
"Luxembourg","primary","rural","under5",,,,,,,,543360
"Luxembourg","primary","rural","urban",,,,,,,,543360
"Luxembourg","primary","secondary","stunted",,,,,,,,543360
"Luxembourg","primary","secondary","under5",,,,,,,,543360
"Luxembourg","primary","secondary","urban",,,,,,,,543360
"Luxembourg","primary","stunted","under5",,,,,,,,543360
"Luxembourg","primary","stunted","urban",,,,,,,,543360
"Luxembourg","primary","under5","urban",,,,,,,,543360
"Luxembourg","rural","secondary","stunted",,,,,,,,543360
"Luxembourg","rural","secondary","under5",,,,,,,,543360
"Luxembourg","rural","secondary","urban",,,,,,,,543360
"Luxembourg","rural","stunted","under5",,,,,,,,543360
"Luxembourg","rural","stunted","urban",,,,,,,,543360
"Luxembourg","rural","under5","urban",,,,,,,,543360
"Luxembourg","secondary","stunted","under5",,,,,,,,543360
"Luxembourg","secondary","stunted","urban",,,,,,,,543360
"Luxembourg","secondary","under5","urban",,,,,,,,543360
"Luxembourg","stunted","under5","urban",,,,,,,,543360
