"filename","indicator1","indicator2","indicator3","X","Y","Z","X,Y","Y,Z","X,Z","X,Y,Z","pop"
"Malaysia","blank1","blank2","ext",100,100,0,100,0,0,0,29470000
"Malaysia","blank1","blank2","female",100,100,,100,,,,29470000
"Malaysia","blank1","blank2","fifteento49",100,100,,100,,,,29470000
"Malaysia","blank1","blank2","fiveto14",100,100,,100,,,,29470000
"Malaysia","blank1","blank2","gt49",100,100,,100,,,,29470000
"Malaysia","blank1","blank2","higher",,,,,,,,29470000
"Malaysia","blank1","blank2","male",100,100,,100,,,,29470000
"Malaysia","blank1","blank2","no.birth.reg",,,,,,,,29470000
"Malaysia","blank1","blank2","no.educ",,,,,,,,29470000
"Malaysia","blank1","blank2","no.skilled.attendant",,,,,,,,29470000
"Malaysia","blank1","blank2","non.p20",100,100,100,100,100,100,100,29470000
"Malaysia","blank1","blank2","p20",100,100,0,100,0,0,0,29470000
"Malaysia","blank1","blank2","primary",,,,,,,,29470000
"Malaysia","blank1","blank2","rural",100,100,,100,,,,29470000
"Malaysia","blank1","blank2","secondary",,,,,,,,29470000
"Malaysia","blank1","blank2","stunted",,,,,,,,29470000
"Malaysia","blank1","blank2","under5",100,100,,100,,,,29470000
"Malaysia","blank1","blank2","urban",100,100,,100,,,,29470000
"Malaysia","blank1","ext","female",100,0,,0,,,,29470000
"Malaysia","blank1","ext","fifteento49",100,0,,0,,,,29470000
"Malaysia","blank1","ext","fiveto14",100,0,,0,,,,29470000
"Malaysia","blank1","ext","gt49",100,0,,0,,,,29470000
"Malaysia","blank1","ext","higher",,,,,,,,29470000
"Malaysia","blank1","ext","male",100,0,,0,,,,29470000
"Malaysia","blank1","ext","no.birth.reg",,,,,,,,29470000
"Malaysia","blank1","ext","no.educ",,,,,,,,29470000
"Malaysia","blank1","ext","no.skilled.attendant",,,,,,,,29470000
"Malaysia","blank1","ext","non.p20",100,0,100,0,0,100,0,29470000
"Malaysia","blank1","ext","p20",100,0,0,0,0,0,0,29470000
"Malaysia","blank1","ext","primary",,,,,,,,29470000
"Malaysia","blank1","ext","rural",100,0,,0,,,,29470000
"Malaysia","blank1","ext","secondary",,,,,,,,29470000
"Malaysia","blank1","ext","stunted",,,,,,,,29470000
"Malaysia","blank1","ext","under5",100,0,,0,,,,29470000
"Malaysia","blank1","ext","urban",100,0,,0,,,,29470000
"Malaysia","blank1","female","fifteento49",100,,,,,,,29470000
"Malaysia","blank1","female","fiveto14",100,,,,,,,29470000
"Malaysia","blank1","female","gt49",100,,,,,,,29470000
"Malaysia","blank1","female","higher",,,,,,,,29470000
"Malaysia","blank1","female","male",100,,,,,,,29470000
"Malaysia","blank1","female","no.birth.reg",,,,,,,,29470000
"Malaysia","blank1","female","no.educ",,,,,,,,29470000
"Malaysia","blank1","female","no.skilled.attendant",,,,,,,,29470000
"Malaysia","blank1","female","non.p20",100,,100,,,100,,29470000
"Malaysia","blank1","female","p20",100,,0,,,0,,29470000
"Malaysia","blank1","female","primary",,,,,,,,29470000
"Malaysia","blank1","female","rural",100,,,,,,,29470000
"Malaysia","blank1","female","secondary",,,,,,,,29470000
"Malaysia","blank1","female","stunted",,,,,,,,29470000
"Malaysia","blank1","female","under5",100,,,,,,,29470000
"Malaysia","blank1","female","urban",100,,,,,,,29470000
"Malaysia","blank1","fifteento49","fiveto14",100,,,,,,,29470000
"Malaysia","blank1","fifteento49","gt49",100,,,,,,,29470000
"Malaysia","blank1","fifteento49","higher",,,,,,,,29470000
"Malaysia","blank1","fifteento49","male",100,,,,,,,29470000
"Malaysia","blank1","fifteento49","no.birth.reg",,,,,,,,29470000
"Malaysia","blank1","fifteento49","no.educ",,,,,,,,29470000
"Malaysia","blank1","fifteento49","no.skilled.attendant",,,,,,,,29470000
"Malaysia","blank1","fifteento49","non.p20",100,,100,,,100,,29470000
"Malaysia","blank1","fifteento49","p20",100,,0,,,0,,29470000
"Malaysia","blank1","fifteento49","primary",,,,,,,,29470000
"Malaysia","blank1","fifteento49","rural",100,,,,,,,29470000
"Malaysia","blank1","fifteento49","secondary",,,,,,,,29470000
"Malaysia","blank1","fifteento49","stunted",,,,,,,,29470000
"Malaysia","blank1","fifteento49","under5",100,,,,,,,29470000
"Malaysia","blank1","fifteento49","urban",100,,,,,,,29470000
"Malaysia","blank1","fiveto14","gt49",100,,,,,,,29470000
"Malaysia","blank1","fiveto14","higher",,,,,,,,29470000
"Malaysia","blank1","fiveto14","male",100,,,,,,,29470000
"Malaysia","blank1","fiveto14","no.birth.reg",,,,,,,,29470000
"Malaysia","blank1","fiveto14","no.educ",,,,,,,,29470000
"Malaysia","blank1","fiveto14","no.skilled.attendant",,,,,,,,29470000
"Malaysia","blank1","fiveto14","non.p20",100,,100,,,100,,29470000
"Malaysia","blank1","fiveto14","p20",100,,0,,,0,,29470000
"Malaysia","blank1","fiveto14","primary",,,,,,,,29470000
"Malaysia","blank1","fiveto14","rural",100,,,,,,,29470000
"Malaysia","blank1","fiveto14","secondary",,,,,,,,29470000
"Malaysia","blank1","fiveto14","stunted",,,,,,,,29470000
"Malaysia","blank1","fiveto14","under5",100,,,,,,,29470000
"Malaysia","blank1","fiveto14","urban",100,,,,,,,29470000
"Malaysia","blank1","gt49","higher",,,,,,,,29470000
"Malaysia","blank1","gt49","male",100,,,,,,,29470000
"Malaysia","blank1","gt49","no.birth.reg",,,,,,,,29470000
"Malaysia","blank1","gt49","no.educ",,,,,,,,29470000
"Malaysia","blank1","gt49","no.skilled.attendant",,,,,,,,29470000
"Malaysia","blank1","gt49","non.p20",100,,100,,,100,,29470000
"Malaysia","blank1","gt49","p20",100,,0,,,0,,29470000
"Malaysia","blank1","gt49","primary",,,,,,,,29470000
"Malaysia","blank1","gt49","rural",100,,,,,,,29470000
"Malaysia","blank1","gt49","secondary",,,,,,,,29470000
"Malaysia","blank1","gt49","stunted",,,,,,,,29470000
"Malaysia","blank1","gt49","under5",100,,,,,,,29470000
"Malaysia","blank1","gt49","urban",100,,,,,,,29470000
"Malaysia","blank1","higher","male",,,,,,,,29470000
"Malaysia","blank1","higher","no.birth.reg",,,,,,,,29470000
"Malaysia","blank1","higher","no.educ",,,,,,,,29470000
"Malaysia","blank1","higher","no.skilled.attendant",,,,,,,,29470000
"Malaysia","blank1","higher","non.p20",,,,,,,,29470000
"Malaysia","blank1","higher","p20",,,,,,,,29470000
"Malaysia","blank1","higher","primary",,,,,,,,29470000
"Malaysia","blank1","higher","rural",,,,,,,,29470000
"Malaysia","blank1","higher","secondary",,,,,,,,29470000
"Malaysia","blank1","higher","stunted",,,,,,,,29470000
"Malaysia","blank1","higher","under5",,,,,,,,29470000
"Malaysia","blank1","higher","urban",,,,,,,,29470000
"Malaysia","blank1","male","no.birth.reg",,,,,,,,29470000
"Malaysia","blank1","male","no.educ",,,,,,,,29470000
"Malaysia","blank1","male","no.skilled.attendant",,,,,,,,29470000
"Malaysia","blank1","male","non.p20",100,,100,,,100,,29470000
"Malaysia","blank1","male","p20",100,,0,,,0,,29470000
"Malaysia","blank1","male","primary",,,,,,,,29470000
"Malaysia","blank1","male","rural",100,,,,,,,29470000
"Malaysia","blank1","male","secondary",,,,,,,,29470000
"Malaysia","blank1","male","stunted",,,,,,,,29470000
"Malaysia","blank1","male","under5",100,,,,,,,29470000
"Malaysia","blank1","male","urban",100,,,,,,,29470000
"Malaysia","blank1","no.birth.reg","no.educ",,,,,,,,29470000
"Malaysia","blank1","no.birth.reg","no.skilled.attendant",,,,,,,,29470000
"Malaysia","blank1","no.birth.reg","non.p20",,,,,,,,29470000
"Malaysia","blank1","no.birth.reg","p20",,,,,,,,29470000
"Malaysia","blank1","no.birth.reg","primary",,,,,,,,29470000
"Malaysia","blank1","no.birth.reg","rural",,,,,,,,29470000
"Malaysia","blank1","no.birth.reg","secondary",,,,,,,,29470000
"Malaysia","blank1","no.birth.reg","stunted",,,,,,,,29470000
"Malaysia","blank1","no.birth.reg","under5",,,,,,,,29470000
"Malaysia","blank1","no.birth.reg","urban",,,,,,,,29470000
"Malaysia","blank1","no.educ","no.skilled.attendant",,,,,,,,29470000
"Malaysia","blank1","no.educ","non.p20",,,,,,,,29470000
"Malaysia","blank1","no.educ","p20",,,,,,,,29470000
"Malaysia","blank1","no.educ","primary",,,,,,,,29470000
"Malaysia","blank1","no.educ","rural",,,,,,,,29470000
"Malaysia","blank1","no.educ","secondary",,,,,,,,29470000
"Malaysia","blank1","no.educ","stunted",,,,,,,,29470000
"Malaysia","blank1","no.educ","under5",,,,,,,,29470000
"Malaysia","blank1","no.educ","urban",,,,,,,,29470000
"Malaysia","blank1","no.skilled.attendant","non.p20",,,,,,,,29470000
"Malaysia","blank1","no.skilled.attendant","p20",,,,,,,,29470000
"Malaysia","blank1","no.skilled.attendant","primary",,,,,,,,29470000
"Malaysia","blank1","no.skilled.attendant","rural",,,,,,,,29470000
"Malaysia","blank1","no.skilled.attendant","secondary",,,,,,,,29470000
"Malaysia","blank1","no.skilled.attendant","stunted",,,,,,,,29470000
"Malaysia","blank1","no.skilled.attendant","under5",,,,,,,,29470000
"Malaysia","blank1","no.skilled.attendant","urban",,,,,,,,29470000
"Malaysia","blank1","non.p20","p20",100,100,0,100,0,0,0,29470000
"Malaysia","blank1","non.p20","primary",,,,,,,,29470000
"Malaysia","blank1","non.p20","rural",100,100,,100,,,,29470000
"Malaysia","blank1","non.p20","secondary",,,,,,,,29470000
"Malaysia","blank1","non.p20","stunted",,,,,,,,29470000
"Malaysia","blank1","non.p20","under5",100,100,,100,,,,29470000
"Malaysia","blank1","non.p20","urban",100,100,,100,,,,29470000
"Malaysia","blank1","p20","primary",,,,,,,,29470000
"Malaysia","blank1","p20","rural",100,0,,0,,,,29470000
"Malaysia","blank1","p20","secondary",,,,,,,,29470000
"Malaysia","blank1","p20","stunted",,,,,,,,29470000
"Malaysia","blank1","p20","under5",100,0,,0,,,,29470000
"Malaysia","blank1","p20","urban",100,0,,0,,,,29470000
"Malaysia","blank1","primary","rural",,,,,,,,29470000
"Malaysia","blank1","primary","secondary",,,,,,,,29470000
"Malaysia","blank1","primary","stunted",,,,,,,,29470000
"Malaysia","blank1","primary","under5",,,,,,,,29470000
"Malaysia","blank1","primary","urban",,,,,,,,29470000
"Malaysia","blank1","rural","secondary",,,,,,,,29470000
"Malaysia","blank1","rural","stunted",,,,,,,,29470000
"Malaysia","blank1","rural","under5",100,,,,,,,29470000
"Malaysia","blank1","rural","urban",100,,,,,,,29470000
"Malaysia","blank1","secondary","stunted",,,,,,,,29470000
"Malaysia","blank1","secondary","under5",,,,,,,,29470000
"Malaysia","blank1","secondary","urban",,,,,,,,29470000
"Malaysia","blank1","stunted","under5",,,,,,,,29470000
"Malaysia","blank1","stunted","urban",,,,,,,,29470000
"Malaysia","blank1","under5","urban",100,,,,,,,29470000
"Malaysia","blank2","ext","female",100,0,,0,,,,29470000
"Malaysia","blank2","ext","fifteento49",100,0,,0,,,,29470000
"Malaysia","blank2","ext","fiveto14",100,0,,0,,,,29470000
"Malaysia","blank2","ext","gt49",100,0,,0,,,,29470000
"Malaysia","blank2","ext","higher",,,,,,,,29470000
"Malaysia","blank2","ext","male",100,0,,0,,,,29470000
"Malaysia","blank2","ext","no.birth.reg",,,,,,,,29470000
"Malaysia","blank2","ext","no.educ",,,,,,,,29470000
"Malaysia","blank2","ext","no.skilled.attendant",,,,,,,,29470000
"Malaysia","blank2","ext","non.p20",100,0,100,0,0,100,0,29470000
"Malaysia","blank2","ext","p20",100,0,0,0,0,0,0,29470000
"Malaysia","blank2","ext","primary",,,,,,,,29470000
"Malaysia","blank2","ext","rural",100,0,,0,,,,29470000
"Malaysia","blank2","ext","secondary",,,,,,,,29470000
"Malaysia","blank2","ext","stunted",,,,,,,,29470000
"Malaysia","blank2","ext","under5",100,0,,0,,,,29470000
"Malaysia","blank2","ext","urban",100,0,,0,,,,29470000
"Malaysia","blank2","female","fifteento49",100,,,,,,,29470000
"Malaysia","blank2","female","fiveto14",100,,,,,,,29470000
"Malaysia","blank2","female","gt49",100,,,,,,,29470000
"Malaysia","blank2","female","higher",,,,,,,,29470000
"Malaysia","blank2","female","male",100,,,,,,,29470000
"Malaysia","blank2","female","no.birth.reg",,,,,,,,29470000
"Malaysia","blank2","female","no.educ",,,,,,,,29470000
"Malaysia","blank2","female","no.skilled.attendant",,,,,,,,29470000
"Malaysia","blank2","female","non.p20",100,,100,,,100,,29470000
"Malaysia","blank2","female","p20",100,,0,,,0,,29470000
"Malaysia","blank2","female","primary",,,,,,,,29470000
"Malaysia","blank2","female","rural",100,,,,,,,29470000
"Malaysia","blank2","female","secondary",,,,,,,,29470000
"Malaysia","blank2","female","stunted",,,,,,,,29470000
"Malaysia","blank2","female","under5",100,,,,,,,29470000
"Malaysia","blank2","female","urban",100,,,,,,,29470000
"Malaysia","blank2","fifteento49","fiveto14",100,,,,,,,29470000
"Malaysia","blank2","fifteento49","gt49",100,,,,,,,29470000
"Malaysia","blank2","fifteento49","higher",,,,,,,,29470000
"Malaysia","blank2","fifteento49","male",100,,,,,,,29470000
"Malaysia","blank2","fifteento49","no.birth.reg",,,,,,,,29470000
"Malaysia","blank2","fifteento49","no.educ",,,,,,,,29470000
"Malaysia","blank2","fifteento49","no.skilled.attendant",,,,,,,,29470000
"Malaysia","blank2","fifteento49","non.p20",100,,100,,,100,,29470000
"Malaysia","blank2","fifteento49","p20",100,,0,,,0,,29470000
"Malaysia","blank2","fifteento49","primary",,,,,,,,29470000
"Malaysia","blank2","fifteento49","rural",100,,,,,,,29470000
"Malaysia","blank2","fifteento49","secondary",,,,,,,,29470000
"Malaysia","blank2","fifteento49","stunted",,,,,,,,29470000
"Malaysia","blank2","fifteento49","under5",100,,,,,,,29470000
"Malaysia","blank2","fifteento49","urban",100,,,,,,,29470000
"Malaysia","blank2","fiveto14","gt49",100,,,,,,,29470000
"Malaysia","blank2","fiveto14","higher",,,,,,,,29470000
"Malaysia","blank2","fiveto14","male",100,,,,,,,29470000
"Malaysia","blank2","fiveto14","no.birth.reg",,,,,,,,29470000
"Malaysia","blank2","fiveto14","no.educ",,,,,,,,29470000
"Malaysia","blank2","fiveto14","no.skilled.attendant",,,,,,,,29470000
"Malaysia","blank2","fiveto14","non.p20",100,,100,,,100,,29470000
"Malaysia","blank2","fiveto14","p20",100,,0,,,0,,29470000
"Malaysia","blank2","fiveto14","primary",,,,,,,,29470000
"Malaysia","blank2","fiveto14","rural",100,,,,,,,29470000
"Malaysia","blank2","fiveto14","secondary",,,,,,,,29470000
"Malaysia","blank2","fiveto14","stunted",,,,,,,,29470000
"Malaysia","blank2","fiveto14","under5",100,,,,,,,29470000
"Malaysia","blank2","fiveto14","urban",100,,,,,,,29470000
"Malaysia","blank2","gt49","higher",,,,,,,,29470000
"Malaysia","blank2","gt49","male",100,,,,,,,29470000
"Malaysia","blank2","gt49","no.birth.reg",,,,,,,,29470000
"Malaysia","blank2","gt49","no.educ",,,,,,,,29470000
"Malaysia","blank2","gt49","no.skilled.attendant",,,,,,,,29470000
"Malaysia","blank2","gt49","non.p20",100,,100,,,100,,29470000
"Malaysia","blank2","gt49","p20",100,,0,,,0,,29470000
"Malaysia","blank2","gt49","primary",,,,,,,,29470000
"Malaysia","blank2","gt49","rural",100,,,,,,,29470000
"Malaysia","blank2","gt49","secondary",,,,,,,,29470000
"Malaysia","blank2","gt49","stunted",,,,,,,,29470000
"Malaysia","blank2","gt49","under5",100,,,,,,,29470000
"Malaysia","blank2","gt49","urban",100,,,,,,,29470000
"Malaysia","blank2","higher","male",,,,,,,,29470000
"Malaysia","blank2","higher","no.birth.reg",,,,,,,,29470000
"Malaysia","blank2","higher","no.educ",,,,,,,,29470000
"Malaysia","blank2","higher","no.skilled.attendant",,,,,,,,29470000
"Malaysia","blank2","higher","non.p20",,,,,,,,29470000
"Malaysia","blank2","higher","p20",,,,,,,,29470000
"Malaysia","blank2","higher","primary",,,,,,,,29470000
"Malaysia","blank2","higher","rural",,,,,,,,29470000
"Malaysia","blank2","higher","secondary",,,,,,,,29470000
"Malaysia","blank2","higher","stunted",,,,,,,,29470000
"Malaysia","blank2","higher","under5",,,,,,,,29470000
"Malaysia","blank2","higher","urban",,,,,,,,29470000
"Malaysia","blank2","male","no.birth.reg",,,,,,,,29470000
"Malaysia","blank2","male","no.educ",,,,,,,,29470000
"Malaysia","blank2","male","no.skilled.attendant",,,,,,,,29470000
"Malaysia","blank2","male","non.p20",100,,100,,,100,,29470000
"Malaysia","blank2","male","p20",100,,0,,,0,,29470000
"Malaysia","blank2","male","primary",,,,,,,,29470000
"Malaysia","blank2","male","rural",100,,,,,,,29470000
"Malaysia","blank2","male","secondary",,,,,,,,29470000
"Malaysia","blank2","male","stunted",,,,,,,,29470000
"Malaysia","blank2","male","under5",100,,,,,,,29470000
"Malaysia","blank2","male","urban",100,,,,,,,29470000
"Malaysia","blank2","no.birth.reg","no.educ",,,,,,,,29470000
"Malaysia","blank2","no.birth.reg","no.skilled.attendant",,,,,,,,29470000
"Malaysia","blank2","no.birth.reg","non.p20",,,,,,,,29470000
"Malaysia","blank2","no.birth.reg","p20",,,,,,,,29470000
"Malaysia","blank2","no.birth.reg","primary",,,,,,,,29470000
"Malaysia","blank2","no.birth.reg","rural",,,,,,,,29470000
"Malaysia","blank2","no.birth.reg","secondary",,,,,,,,29470000
"Malaysia","blank2","no.birth.reg","stunted",,,,,,,,29470000
"Malaysia","blank2","no.birth.reg","under5",,,,,,,,29470000
"Malaysia","blank2","no.birth.reg","urban",,,,,,,,29470000
"Malaysia","blank2","no.educ","no.skilled.attendant",,,,,,,,29470000
"Malaysia","blank2","no.educ","non.p20",,,,,,,,29470000
"Malaysia","blank2","no.educ","p20",,,,,,,,29470000
"Malaysia","blank2","no.educ","primary",,,,,,,,29470000
"Malaysia","blank2","no.educ","rural",,,,,,,,29470000
"Malaysia","blank2","no.educ","secondary",,,,,,,,29470000
"Malaysia","blank2","no.educ","stunted",,,,,,,,29470000
"Malaysia","blank2","no.educ","under5",,,,,,,,29470000
"Malaysia","blank2","no.educ","urban",,,,,,,,29470000
"Malaysia","blank2","no.skilled.attendant","non.p20",,,,,,,,29470000
"Malaysia","blank2","no.skilled.attendant","p20",,,,,,,,29470000
"Malaysia","blank2","no.skilled.attendant","primary",,,,,,,,29470000
"Malaysia","blank2","no.skilled.attendant","rural",,,,,,,,29470000
"Malaysia","blank2","no.skilled.attendant","secondary",,,,,,,,29470000
"Malaysia","blank2","no.skilled.attendant","stunted",,,,,,,,29470000
"Malaysia","blank2","no.skilled.attendant","under5",,,,,,,,29470000
"Malaysia","blank2","no.skilled.attendant","urban",,,,,,,,29470000
"Malaysia","blank2","non.p20","p20",100,100,0,100,0,0,0,29470000
"Malaysia","blank2","non.p20","primary",,,,,,,,29470000
"Malaysia","blank2","non.p20","rural",100,100,,100,,,,29470000
"Malaysia","blank2","non.p20","secondary",,,,,,,,29470000
"Malaysia","blank2","non.p20","stunted",,,,,,,,29470000
"Malaysia","blank2","non.p20","under5",100,100,,100,,,,29470000
"Malaysia","blank2","non.p20","urban",100,100,,100,,,,29470000
"Malaysia","blank2","p20","primary",,,,,,,,29470000
"Malaysia","blank2","p20","rural",100,0,,0,,,,29470000
"Malaysia","blank2","p20","secondary",,,,,,,,29470000
"Malaysia","blank2","p20","stunted",,,,,,,,29470000
"Malaysia","blank2","p20","under5",100,0,,0,,,,29470000
"Malaysia","blank2","p20","urban",100,0,,0,,,,29470000
"Malaysia","blank2","primary","rural",,,,,,,,29470000
"Malaysia","blank2","primary","secondary",,,,,,,,29470000
"Malaysia","blank2","primary","stunted",,,,,,,,29470000
"Malaysia","blank2","primary","under5",,,,,,,,29470000
"Malaysia","blank2","primary","urban",,,,,,,,29470000
"Malaysia","blank2","rural","secondary",,,,,,,,29470000
"Malaysia","blank2","rural","stunted",,,,,,,,29470000
"Malaysia","blank2","rural","under5",100,,,,,,,29470000
"Malaysia","blank2","rural","urban",100,,,,,,,29470000
"Malaysia","blank2","secondary","stunted",,,,,,,,29470000
"Malaysia","blank2","secondary","under5",,,,,,,,29470000
"Malaysia","blank2","secondary","urban",,,,,,,,29470000
"Malaysia","blank2","stunted","under5",,,,,,,,29470000
"Malaysia","blank2","stunted","urban",,,,,,,,29470000
"Malaysia","blank2","under5","urban",100,,,,,,,29470000
"Malaysia","ext","female","fifteento49",0,,,,,,,29470000
"Malaysia","ext","female","fiveto14",0,,,,,,,29470000
"Malaysia","ext","female","gt49",0,,,,,,,29470000
"Malaysia","ext","female","higher",,,,,,,,29470000
"Malaysia","ext","female","male",0,,,,,,,29470000
"Malaysia","ext","female","no.birth.reg",,,,,,,,29470000
"Malaysia","ext","female","no.educ",,,,,,,,29470000
"Malaysia","ext","female","no.skilled.attendant",,,,,,,,29470000
"Malaysia","ext","female","non.p20",0,,100,,,0,0,29470000
"Malaysia","ext","female","p20",0,,0,,,0,,29470000
"Malaysia","ext","female","primary",,,,,,,,29470000
"Malaysia","ext","female","rural",0,,,,,,,29470000
"Malaysia","ext","female","secondary",,,,,,,,29470000
"Malaysia","ext","female","stunted",,,,,,,,29470000
"Malaysia","ext","female","under5",0,,,,,,,29470000
"Malaysia","ext","female","urban",0,,,,,,,29470000
"Malaysia","ext","fifteento49","fiveto14",0,,,,,,,29470000
"Malaysia","ext","fifteento49","gt49",0,,,,,,,29470000
"Malaysia","ext","fifteento49","higher",,,,,,,,29470000
"Malaysia","ext","fifteento49","male",0,,,,,,,29470000
"Malaysia","ext","fifteento49","no.birth.reg",,,,,,,,29470000
"Malaysia","ext","fifteento49","no.educ",,,,,,,,29470000
"Malaysia","ext","fifteento49","no.skilled.attendant",,,,,,,,29470000
"Malaysia","ext","fifteento49","non.p20",0,,100,,,0,0,29470000
"Malaysia","ext","fifteento49","p20",0,,0,,,0,,29470000
"Malaysia","ext","fifteento49","primary",,,,,,,,29470000
"Malaysia","ext","fifteento49","rural",0,,,,,,,29470000
"Malaysia","ext","fifteento49","secondary",,,,,,,,29470000
"Malaysia","ext","fifteento49","stunted",,,,,,,,29470000
"Malaysia","ext","fifteento49","under5",0,,,,,,,29470000
"Malaysia","ext","fifteento49","urban",0,,,,,,,29470000
"Malaysia","ext","fiveto14","gt49",0,,,,,,,29470000
"Malaysia","ext","fiveto14","higher",,,,,,,,29470000
"Malaysia","ext","fiveto14","male",0,,,,,,,29470000
"Malaysia","ext","fiveto14","no.birth.reg",,,,,,,,29470000
"Malaysia","ext","fiveto14","no.educ",,,,,,,,29470000
"Malaysia","ext","fiveto14","no.skilled.attendant",,,,,,,,29470000
"Malaysia","ext","fiveto14","non.p20",0,,100,,,0,0,29470000
"Malaysia","ext","fiveto14","p20",0,,0,,,0,,29470000
"Malaysia","ext","fiveto14","primary",,,,,,,,29470000
"Malaysia","ext","fiveto14","rural",0,,,,,,,29470000
"Malaysia","ext","fiveto14","secondary",,,,,,,,29470000
"Malaysia","ext","fiveto14","stunted",,,,,,,,29470000
"Malaysia","ext","fiveto14","under5",0,,,,,,,29470000
"Malaysia","ext","fiveto14","urban",0,,,,,,,29470000
"Malaysia","ext","gt49","higher",,,,,,,,29470000
"Malaysia","ext","gt49","male",0,,,,,,,29470000
"Malaysia","ext","gt49","no.birth.reg",,,,,,,,29470000
"Malaysia","ext","gt49","no.educ",,,,,,,,29470000
"Malaysia","ext","gt49","no.skilled.attendant",,,,,,,,29470000
"Malaysia","ext","gt49","non.p20",0,,100,,,0,0,29470000
"Malaysia","ext","gt49","p20",0,,0,,,0,,29470000
"Malaysia","ext","gt49","primary",,,,,,,,29470000
"Malaysia","ext","gt49","rural",0,,,,,,,29470000
"Malaysia","ext","gt49","secondary",,,,,,,,29470000
"Malaysia","ext","gt49","stunted",,,,,,,,29470000
"Malaysia","ext","gt49","under5",0,,,,,,,29470000
"Malaysia","ext","gt49","urban",0,,,,,,,29470000
"Malaysia","ext","higher","male",,,,,,,,29470000
"Malaysia","ext","higher","no.birth.reg",,,,,,,,29470000
"Malaysia","ext","higher","no.educ",,,,,,,,29470000
"Malaysia","ext","higher","no.skilled.attendant",,,,,,,,29470000
"Malaysia","ext","higher","non.p20",,,,,,0,0,29470000
"Malaysia","ext","higher","p20",,,,,,,,29470000
"Malaysia","ext","higher","primary",,,,,,,,29470000
"Malaysia","ext","higher","rural",,,,,,,,29470000
"Malaysia","ext","higher","secondary",,,,,,,,29470000
"Malaysia","ext","higher","stunted",,,,,,,,29470000
"Malaysia","ext","higher","under5",,,,,,,,29470000
"Malaysia","ext","higher","urban",,,,,,,,29470000
"Malaysia","ext","male","no.birth.reg",,,,,,,,29470000
"Malaysia","ext","male","no.educ",,,,,,,,29470000
"Malaysia","ext","male","no.skilled.attendant",,,,,,,,29470000
"Malaysia","ext","male","non.p20",0,,100,,,0,0,29470000
"Malaysia","ext","male","p20",0,,0,,,0,,29470000
"Malaysia","ext","male","primary",,,,,,,,29470000
"Malaysia","ext","male","rural",0,,,,,,,29470000
"Malaysia","ext","male","secondary",,,,,,,,29470000
"Malaysia","ext","male","stunted",,,,,,,,29470000
"Malaysia","ext","male","under5",0,,,,,,,29470000
"Malaysia","ext","male","urban",0,,,,,,,29470000
"Malaysia","ext","no.birth.reg","no.educ",,,,,,,,29470000
"Malaysia","ext","no.birth.reg","no.skilled.attendant",,,,,,,,29470000
"Malaysia","ext","no.birth.reg","non.p20",,,,,,0,0,29470000
"Malaysia","ext","no.birth.reg","p20",,,,,,,,29470000
"Malaysia","ext","no.birth.reg","primary",,,,,,,,29470000
"Malaysia","ext","no.birth.reg","rural",,,,,,,,29470000
"Malaysia","ext","no.birth.reg","secondary",,,,,,,,29470000
"Malaysia","ext","no.birth.reg","stunted",,,,,,,,29470000
"Malaysia","ext","no.birth.reg","under5",,,,,,,,29470000
"Malaysia","ext","no.birth.reg","urban",,,,,,,,29470000
"Malaysia","ext","no.educ","no.skilled.attendant",,,,,,,,29470000
"Malaysia","ext","no.educ","non.p20",,,,,,0,0,29470000
"Malaysia","ext","no.educ","p20",,,,,,,,29470000
"Malaysia","ext","no.educ","primary",,,,,,,,29470000
"Malaysia","ext","no.educ","rural",,,,,,,,29470000
"Malaysia","ext","no.educ","secondary",,,,,,,,29470000
"Malaysia","ext","no.educ","stunted",,,,,,,,29470000
"Malaysia","ext","no.educ","under5",,,,,,,,29470000
"Malaysia","ext","no.educ","urban",,,,,,,,29470000
"Malaysia","ext","no.skilled.attendant","non.p20",,,,,,0,0,29470000
"Malaysia","ext","no.skilled.attendant","p20",,,,,,,,29470000
"Malaysia","ext","no.skilled.attendant","primary",,,,,,,,29470000
"Malaysia","ext","no.skilled.attendant","rural",,,,,,,,29470000
"Malaysia","ext","no.skilled.attendant","secondary",,,,,,,,29470000
"Malaysia","ext","no.skilled.attendant","stunted",,,,,,,,29470000
"Malaysia","ext","no.skilled.attendant","under5",,,,,,,,29470000
"Malaysia","ext","no.skilled.attendant","urban",,,,,,,,29470000
"Malaysia","ext","non.p20","p20",0,100,0,0,0,0,0,29470000
"Malaysia","ext","non.p20","primary",,,,0,,,0,29470000
"Malaysia","ext","non.p20","rural",0,100,,0,,,0,29470000
"Malaysia","ext","non.p20","secondary",,,,0,,,0,29470000
"Malaysia","ext","non.p20","stunted",,,,0,,,0,29470000
"Malaysia","ext","non.p20","under5",0,100,,0,,,0,29470000
"Malaysia","ext","non.p20","urban",0,100,,0,,,0,29470000
"Malaysia","ext","p20","primary",,,,,,,,29470000
"Malaysia","ext","p20","rural",0,0,,0,,,,29470000
"Malaysia","ext","p20","secondary",,,,,,,,29470000
"Malaysia","ext","p20","stunted",,,,,,,,29470000
"Malaysia","ext","p20","under5",0,0,,0,,,,29470000
"Malaysia","ext","p20","urban",0,0,,0,,,,29470000
"Malaysia","ext","primary","rural",,,,,,,,29470000
"Malaysia","ext","primary","secondary",,,,,,,,29470000
"Malaysia","ext","primary","stunted",,,,,,,,29470000
"Malaysia","ext","primary","under5",,,,,,,,29470000
"Malaysia","ext","primary","urban",,,,,,,,29470000
"Malaysia","ext","rural","secondary",,,,,,,,29470000
"Malaysia","ext","rural","stunted",,,,,,,,29470000
"Malaysia","ext","rural","under5",0,,,,,,,29470000
"Malaysia","ext","rural","urban",0,,,,,,,29470000
"Malaysia","ext","secondary","stunted",,,,,,,,29470000
"Malaysia","ext","secondary","under5",,,,,,,,29470000
"Malaysia","ext","secondary","urban",,,,,,,,29470000
"Malaysia","ext","stunted","under5",,,,,,,,29470000
"Malaysia","ext","stunted","urban",,,,,,,,29470000
"Malaysia","ext","under5","urban",0,,,,,,,29470000
"Malaysia","female","fifteento49","fiveto14",,,,,,,,29470000
"Malaysia","female","fifteento49","gt49",,,,,,,,29470000
"Malaysia","female","fifteento49","higher",,,,,,,,29470000
"Malaysia","female","fifteento49","male",,,,,,,,29470000
"Malaysia","female","fifteento49","no.birth.reg",,,,,,,,29470000
"Malaysia","female","fifteento49","no.educ",,,,,,,,29470000
"Malaysia","female","fifteento49","no.skilled.attendant",,,,,,,,29470000
"Malaysia","female","fifteento49","non.p20",,,100,,,,,29470000
"Malaysia","female","fifteento49","p20",,,0,,,,,29470000
"Malaysia","female","fifteento49","primary",,,,,,,,29470000
"Malaysia","female","fifteento49","rural",,,,,,,,29470000
"Malaysia","female","fifteento49","secondary",,,,,,,,29470000
"Malaysia","female","fifteento49","stunted",,,,,,,,29470000
"Malaysia","female","fifteento49","under5",,,,,,,,29470000
"Malaysia","female","fifteento49","urban",,,,,,,,29470000
"Malaysia","female","fiveto14","gt49",,,,,,,,29470000
"Malaysia","female","fiveto14","higher",,,,,,,,29470000
"Malaysia","female","fiveto14","male",,,,,,,,29470000
"Malaysia","female","fiveto14","no.birth.reg",,,,,,,,29470000
"Malaysia","female","fiveto14","no.educ",,,,,,,,29470000
"Malaysia","female","fiveto14","no.skilled.attendant",,,,,,,,29470000
"Malaysia","female","fiveto14","non.p20",,,100,,,,,29470000
"Malaysia","female","fiveto14","p20",,,0,,,,,29470000
"Malaysia","female","fiveto14","primary",,,,,,,,29470000
"Malaysia","female","fiveto14","rural",,,,,,,,29470000
"Malaysia","female","fiveto14","secondary",,,,,,,,29470000
"Malaysia","female","fiveto14","stunted",,,,,,,,29470000
"Malaysia","female","fiveto14","under5",,,,,,,,29470000
"Malaysia","female","fiveto14","urban",,,,,,,,29470000
"Malaysia","female","gt49","higher",,,,,,,,29470000
"Malaysia","female","gt49","male",,,,,,,,29470000
"Malaysia","female","gt49","no.birth.reg",,,,,,,,29470000
"Malaysia","female","gt49","no.educ",,,,,,,,29470000
"Malaysia","female","gt49","no.skilled.attendant",,,,,,,,29470000
"Malaysia","female","gt49","non.p20",,,100,,,,,29470000
"Malaysia","female","gt49","p20",,,0,,,,,29470000
"Malaysia","female","gt49","primary",,,,,,,,29470000
"Malaysia","female","gt49","rural",,,,,,,,29470000
"Malaysia","female","gt49","secondary",,,,,,,,29470000
"Malaysia","female","gt49","stunted",,,,,,,,29470000
"Malaysia","female","gt49","under5",,,,,,,,29470000
"Malaysia","female","gt49","urban",,,,,,,,29470000
"Malaysia","female","higher","male",,,,,,,,29470000
"Malaysia","female","higher","no.birth.reg",,,,,,,,29470000
"Malaysia","female","higher","no.educ",,,,,,,,29470000
"Malaysia","female","higher","no.skilled.attendant",,,,,,,,29470000
"Malaysia","female","higher","non.p20",,,,,,,,29470000
"Malaysia","female","higher","p20",,,,,,,,29470000
"Malaysia","female","higher","primary",,,,,,,,29470000
"Malaysia","female","higher","rural",,,,,,,,29470000
"Malaysia","female","higher","secondary",,,,,,,,29470000
"Malaysia","female","higher","stunted",,,,,,,,29470000
"Malaysia","female","higher","under5",,,,,,,,29470000
"Malaysia","female","higher","urban",,,,,,,,29470000
"Malaysia","female","male","no.birth.reg",,,,,,,,29470000
"Malaysia","female","male","no.educ",,,,,,,,29470000
"Malaysia","female","male","no.skilled.attendant",,,,,,,,29470000
"Malaysia","female","male","non.p20",,,100,,,,,29470000
"Malaysia","female","male","p20",,,0,,,,,29470000
"Malaysia","female","male","primary",,,,,,,,29470000
"Malaysia","female","male","rural",,,,,,,,29470000
"Malaysia","female","male","secondary",,,,,,,,29470000
"Malaysia","female","male","stunted",,,,,,,,29470000
"Malaysia","female","male","under5",,,,,,,,29470000
"Malaysia","female","male","urban",,,,,,,,29470000
"Malaysia","female","no.birth.reg","no.educ",,,,,,,,29470000
"Malaysia","female","no.birth.reg","no.skilled.attendant",,,,,,,,29470000
"Malaysia","female","no.birth.reg","non.p20",,,,,,,,29470000
"Malaysia","female","no.birth.reg","p20",,,,,,,,29470000
"Malaysia","female","no.birth.reg","primary",,,,,,,,29470000
"Malaysia","female","no.birth.reg","rural",,,,,,,,29470000
"Malaysia","female","no.birth.reg","secondary",,,,,,,,29470000
"Malaysia","female","no.birth.reg","stunted",,,,,,,,29470000
"Malaysia","female","no.birth.reg","under5",,,,,,,,29470000
"Malaysia","female","no.birth.reg","urban",,,,,,,,29470000
"Malaysia","female","no.educ","no.skilled.attendant",,,,,,,,29470000
"Malaysia","female","no.educ","non.p20",,,,,,,,29470000
"Malaysia","female","no.educ","p20",,,,,,,,29470000
"Malaysia","female","no.educ","primary",,,,,,,,29470000
"Malaysia","female","no.educ","rural",,,,,,,,29470000
"Malaysia","female","no.educ","secondary",,,,,,,,29470000
"Malaysia","female","no.educ","stunted",,,,,,,,29470000
"Malaysia","female","no.educ","under5",,,,,,,,29470000
"Malaysia","female","no.educ","urban",,,,,,,,29470000
"Malaysia","female","no.skilled.attendant","non.p20",,,,,,,,29470000
"Malaysia","female","no.skilled.attendant","p20",,,,,,,,29470000
"Malaysia","female","no.skilled.attendant","primary",,,,,,,,29470000
"Malaysia","female","no.skilled.attendant","rural",,,,,,,,29470000
"Malaysia","female","no.skilled.attendant","secondary",,,,,,,,29470000
"Malaysia","female","no.skilled.attendant","stunted",,,,,,,,29470000
"Malaysia","female","no.skilled.attendant","under5",,,,,,,,29470000
"Malaysia","female","no.skilled.attendant","urban",,,,,,,,29470000
"Malaysia","female","non.p20","p20",,100,0,,0,,0,29470000
"Malaysia","female","non.p20","primary",,,,,,,,29470000
"Malaysia","female","non.p20","rural",,100,,,,,,29470000
"Malaysia","female","non.p20","secondary",,,,,,,,29470000
"Malaysia","female","non.p20","stunted",,,,,,,,29470000
"Malaysia","female","non.p20","under5",,100,,,,,,29470000
"Malaysia","female","non.p20","urban",,100,,,,,,29470000
"Malaysia","female","p20","primary",,,,,,,,29470000
"Malaysia","female","p20","rural",,0,,,,,,29470000
"Malaysia","female","p20","secondary",,,,,,,,29470000
"Malaysia","female","p20","stunted",,,,,,,,29470000
"Malaysia","female","p20","under5",,0,,,,,,29470000
"Malaysia","female","p20","urban",,0,,,,,,29470000
"Malaysia","female","primary","rural",,,,,,,,29470000
"Malaysia","female","primary","secondary",,,,,,,,29470000
"Malaysia","female","primary","stunted",,,,,,,,29470000
"Malaysia","female","primary","under5",,,,,,,,29470000
"Malaysia","female","primary","urban",,,,,,,,29470000
"Malaysia","female","rural","secondary",,,,,,,,29470000
"Malaysia","female","rural","stunted",,,,,,,,29470000
"Malaysia","female","rural","under5",,,,,,,,29470000
"Malaysia","female","rural","urban",,,,,,,,29470000
"Malaysia","female","secondary","stunted",,,,,,,,29470000
"Malaysia","female","secondary","under5",,,,,,,,29470000
"Malaysia","female","secondary","urban",,,,,,,,29470000
"Malaysia","female","stunted","under5",,,,,,,,29470000
"Malaysia","female","stunted","urban",,,,,,,,29470000
"Malaysia","female","under5","urban",,,,,,,,29470000
"Malaysia","fifteento49","fiveto14","gt49",,,,,,,,29470000
"Malaysia","fifteento49","fiveto14","higher",,,,,,,,29470000
"Malaysia","fifteento49","fiveto14","male",,,,,,,,29470000
"Malaysia","fifteento49","fiveto14","no.birth.reg",,,,,,,,29470000
"Malaysia","fifteento49","fiveto14","no.educ",,,,,,,,29470000
"Malaysia","fifteento49","fiveto14","no.skilled.attendant",,,,,,,,29470000
"Malaysia","fifteento49","fiveto14","non.p20",,,100,,,,,29470000
"Malaysia","fifteento49","fiveto14","p20",,,0,,,,,29470000
"Malaysia","fifteento49","fiveto14","primary",,,,,,,,29470000
"Malaysia","fifteento49","fiveto14","rural",,,,,,,,29470000
"Malaysia","fifteento49","fiveto14","secondary",,,,,,,,29470000
"Malaysia","fifteento49","fiveto14","stunted",,,,,,,,29470000
"Malaysia","fifteento49","fiveto14","under5",,,,,,,,29470000
"Malaysia","fifteento49","fiveto14","urban",,,,,,,,29470000
"Malaysia","fifteento49","gt49","higher",,,,,,,,29470000
"Malaysia","fifteento49","gt49","male",,,,,,,,29470000
"Malaysia","fifteento49","gt49","no.birth.reg",,,,,,,,29470000
"Malaysia","fifteento49","gt49","no.educ",,,,,,,,29470000
"Malaysia","fifteento49","gt49","no.skilled.attendant",,,,,,,,29470000
"Malaysia","fifteento49","gt49","non.p20",,,100,,,,,29470000
"Malaysia","fifteento49","gt49","p20",,,0,,,,,29470000
"Malaysia","fifteento49","gt49","primary",,,,,,,,29470000
"Malaysia","fifteento49","gt49","rural",,,,,,,,29470000
"Malaysia","fifteento49","gt49","secondary",,,,,,,,29470000
"Malaysia","fifteento49","gt49","stunted",,,,,,,,29470000
"Malaysia","fifteento49","gt49","under5",,,,,,,,29470000
"Malaysia","fifteento49","gt49","urban",,,,,,,,29470000
"Malaysia","fifteento49","higher","male",,,,,,,,29470000
"Malaysia","fifteento49","higher","no.birth.reg",,,,,,,,29470000
"Malaysia","fifteento49","higher","no.educ",,,,,,,,29470000
"Malaysia","fifteento49","higher","no.skilled.attendant",,,,,,,,29470000
"Malaysia","fifteento49","higher","non.p20",,,,,,,,29470000
"Malaysia","fifteento49","higher","p20",,,,,,,,29470000
"Malaysia","fifteento49","higher","primary",,,,,,,,29470000
"Malaysia","fifteento49","higher","rural",,,,,,,,29470000
"Malaysia","fifteento49","higher","secondary",,,,,,,,29470000
"Malaysia","fifteento49","higher","stunted",,,,,,,,29470000
"Malaysia","fifteento49","higher","under5",,,,,,,,29470000
"Malaysia","fifteento49","higher","urban",,,,,,,,29470000
"Malaysia","fifteento49","male","no.birth.reg",,,,,,,,29470000
"Malaysia","fifteento49","male","no.educ",,,,,,,,29470000
"Malaysia","fifteento49","male","no.skilled.attendant",,,,,,,,29470000
"Malaysia","fifteento49","male","non.p20",,,100,,,,,29470000
"Malaysia","fifteento49","male","p20",,,0,,,,,29470000
"Malaysia","fifteento49","male","primary",,,,,,,,29470000
"Malaysia","fifteento49","male","rural",,,,,,,,29470000
"Malaysia","fifteento49","male","secondary",,,,,,,,29470000
"Malaysia","fifteento49","male","stunted",,,,,,,,29470000
"Malaysia","fifteento49","male","under5",,,,,,,,29470000
"Malaysia","fifteento49","male","urban",,,,,,,,29470000
"Malaysia","fifteento49","no.birth.reg","no.educ",,,,,,,,29470000
"Malaysia","fifteento49","no.birth.reg","no.skilled.attendant",,,,,,,,29470000
"Malaysia","fifteento49","no.birth.reg","non.p20",,,,,,,,29470000
"Malaysia","fifteento49","no.birth.reg","p20",,,,,,,,29470000
"Malaysia","fifteento49","no.birth.reg","primary",,,,,,,,29470000
"Malaysia","fifteento49","no.birth.reg","rural",,,,,,,,29470000
"Malaysia","fifteento49","no.birth.reg","secondary",,,,,,,,29470000
"Malaysia","fifteento49","no.birth.reg","stunted",,,,,,,,29470000
"Malaysia","fifteento49","no.birth.reg","under5",,,,,,,,29470000
"Malaysia","fifteento49","no.birth.reg","urban",,,,,,,,29470000
"Malaysia","fifteento49","no.educ","no.skilled.attendant",,,,,,,,29470000
"Malaysia","fifteento49","no.educ","non.p20",,,,,,,,29470000
"Malaysia","fifteento49","no.educ","p20",,,,,,,,29470000
"Malaysia","fifteento49","no.educ","primary",,,,,,,,29470000
"Malaysia","fifteento49","no.educ","rural",,,,,,,,29470000
"Malaysia","fifteento49","no.educ","secondary",,,,,,,,29470000
"Malaysia","fifteento49","no.educ","stunted",,,,,,,,29470000
"Malaysia","fifteento49","no.educ","under5",,,,,,,,29470000
"Malaysia","fifteento49","no.educ","urban",,,,,,,,29470000
"Malaysia","fifteento49","no.skilled.attendant","non.p20",,,,,,,,29470000
"Malaysia","fifteento49","no.skilled.attendant","p20",,,,,,,,29470000
"Malaysia","fifteento49","no.skilled.attendant","primary",,,,,,,,29470000
"Malaysia","fifteento49","no.skilled.attendant","rural",,,,,,,,29470000
"Malaysia","fifteento49","no.skilled.attendant","secondary",,,,,,,,29470000
"Malaysia","fifteento49","no.skilled.attendant","stunted",,,,,,,,29470000
"Malaysia","fifteento49","no.skilled.attendant","under5",,,,,,,,29470000
"Malaysia","fifteento49","no.skilled.attendant","urban",,,,,,,,29470000
"Malaysia","fifteento49","non.p20","p20",,100,0,,0,,0,29470000
"Malaysia","fifteento49","non.p20","primary",,,,,,,,29470000
"Malaysia","fifteento49","non.p20","rural",,100,,,,,,29470000
"Malaysia","fifteento49","non.p20","secondary",,,,,,,,29470000
"Malaysia","fifteento49","non.p20","stunted",,,,,,,,29470000
"Malaysia","fifteento49","non.p20","under5",,100,,,,,,29470000
"Malaysia","fifteento49","non.p20","urban",,100,,,,,,29470000
"Malaysia","fifteento49","p20","primary",,,,,,,,29470000
"Malaysia","fifteento49","p20","rural",,0,,,,,,29470000
"Malaysia","fifteento49","p20","secondary",,,,,,,,29470000
"Malaysia","fifteento49","p20","stunted",,,,,,,,29470000
"Malaysia","fifteento49","p20","under5",,0,,,,,,29470000
"Malaysia","fifteento49","p20","urban",,0,,,,,,29470000
"Malaysia","fifteento49","primary","rural",,,,,,,,29470000
"Malaysia","fifteento49","primary","secondary",,,,,,,,29470000
"Malaysia","fifteento49","primary","stunted",,,,,,,,29470000
"Malaysia","fifteento49","primary","under5",,,,,,,,29470000
"Malaysia","fifteento49","primary","urban",,,,,,,,29470000
"Malaysia","fifteento49","rural","secondary",,,,,,,,29470000
"Malaysia","fifteento49","rural","stunted",,,,,,,,29470000
"Malaysia","fifteento49","rural","under5",,,,,,,,29470000
"Malaysia","fifteento49","rural","urban",,,,,,,,29470000
"Malaysia","fifteento49","secondary","stunted",,,,,,,,29470000
"Malaysia","fifteento49","secondary","under5",,,,,,,,29470000
"Malaysia","fifteento49","secondary","urban",,,,,,,,29470000
"Malaysia","fifteento49","stunted","under5",,,,,,,,29470000
"Malaysia","fifteento49","stunted","urban",,,,,,,,29470000
"Malaysia","fifteento49","under5","urban",,,,,,,,29470000
"Malaysia","fiveto14","gt49","higher",,,,,,,,29470000
"Malaysia","fiveto14","gt49","male",,,,,,,,29470000
"Malaysia","fiveto14","gt49","no.birth.reg",,,,,,,,29470000
"Malaysia","fiveto14","gt49","no.educ",,,,,,,,29470000
"Malaysia","fiveto14","gt49","no.skilled.attendant",,,,,,,,29470000
"Malaysia","fiveto14","gt49","non.p20",,,100,,,,,29470000
"Malaysia","fiveto14","gt49","p20",,,0,,,,,29470000
"Malaysia","fiveto14","gt49","primary",,,,,,,,29470000
"Malaysia","fiveto14","gt49","rural",,,,,,,,29470000
"Malaysia","fiveto14","gt49","secondary",,,,,,,,29470000
"Malaysia","fiveto14","gt49","stunted",,,,,,,,29470000
"Malaysia","fiveto14","gt49","under5",,,,,,,,29470000
"Malaysia","fiveto14","gt49","urban",,,,,,,,29470000
"Malaysia","fiveto14","higher","male",,,,,,,,29470000
"Malaysia","fiveto14","higher","no.birth.reg",,,,,,,,29470000
"Malaysia","fiveto14","higher","no.educ",,,,,,,,29470000
"Malaysia","fiveto14","higher","no.skilled.attendant",,,,,,,,29470000
"Malaysia","fiveto14","higher","non.p20",,,,,,,,29470000
"Malaysia","fiveto14","higher","p20",,,,,,,,29470000
"Malaysia","fiveto14","higher","primary",,,,,,,,29470000
"Malaysia","fiveto14","higher","rural",,,,,,,,29470000
"Malaysia","fiveto14","higher","secondary",,,,,,,,29470000
"Malaysia","fiveto14","higher","stunted",,,,,,,,29470000
"Malaysia","fiveto14","higher","under5",,,,,,,,29470000
"Malaysia","fiveto14","higher","urban",,,,,,,,29470000
"Malaysia","fiveto14","male","no.birth.reg",,,,,,,,29470000
"Malaysia","fiveto14","male","no.educ",,,,,,,,29470000
"Malaysia","fiveto14","male","no.skilled.attendant",,,,,,,,29470000
"Malaysia","fiveto14","male","non.p20",,,100,,,,,29470000
"Malaysia","fiveto14","male","p20",,,0,,,,,29470000
"Malaysia","fiveto14","male","primary",,,,,,,,29470000
"Malaysia","fiveto14","male","rural",,,,,,,,29470000
"Malaysia","fiveto14","male","secondary",,,,,,,,29470000
"Malaysia","fiveto14","male","stunted",,,,,,,,29470000
"Malaysia","fiveto14","male","under5",,,,,,,,29470000
"Malaysia","fiveto14","male","urban",,,,,,,,29470000
"Malaysia","fiveto14","no.birth.reg","no.educ",,,,,,,,29470000
"Malaysia","fiveto14","no.birth.reg","no.skilled.attendant",,,,,,,,29470000
"Malaysia","fiveto14","no.birth.reg","non.p20",,,,,,,,29470000
"Malaysia","fiveto14","no.birth.reg","p20",,,,,,,,29470000
"Malaysia","fiveto14","no.birth.reg","primary",,,,,,,,29470000
"Malaysia","fiveto14","no.birth.reg","rural",,,,,,,,29470000
"Malaysia","fiveto14","no.birth.reg","secondary",,,,,,,,29470000
"Malaysia","fiveto14","no.birth.reg","stunted",,,,,,,,29470000
"Malaysia","fiveto14","no.birth.reg","under5",,,,,,,,29470000
"Malaysia","fiveto14","no.birth.reg","urban",,,,,,,,29470000
"Malaysia","fiveto14","no.educ","no.skilled.attendant",,,,,,,,29470000
"Malaysia","fiveto14","no.educ","non.p20",,,,,,,,29470000
"Malaysia","fiveto14","no.educ","p20",,,,,,,,29470000
"Malaysia","fiveto14","no.educ","primary",,,,,,,,29470000
"Malaysia","fiveto14","no.educ","rural",,,,,,,,29470000
"Malaysia","fiveto14","no.educ","secondary",,,,,,,,29470000
"Malaysia","fiveto14","no.educ","stunted",,,,,,,,29470000
"Malaysia","fiveto14","no.educ","under5",,,,,,,,29470000
"Malaysia","fiveto14","no.educ","urban",,,,,,,,29470000
"Malaysia","fiveto14","no.skilled.attendant","non.p20",,,,,,,,29470000
"Malaysia","fiveto14","no.skilled.attendant","p20",,,,,,,,29470000
"Malaysia","fiveto14","no.skilled.attendant","primary",,,,,,,,29470000
"Malaysia","fiveto14","no.skilled.attendant","rural",,,,,,,,29470000
"Malaysia","fiveto14","no.skilled.attendant","secondary",,,,,,,,29470000
"Malaysia","fiveto14","no.skilled.attendant","stunted",,,,,,,,29470000
"Malaysia","fiveto14","no.skilled.attendant","under5",,,,,,,,29470000
"Malaysia","fiveto14","no.skilled.attendant","urban",,,,,,,,29470000
"Malaysia","fiveto14","non.p20","p20",,100,0,,0,,0,29470000
"Malaysia","fiveto14","non.p20","primary",,,,,,,,29470000
"Malaysia","fiveto14","non.p20","rural",,100,,,,,,29470000
"Malaysia","fiveto14","non.p20","secondary",,,,,,,,29470000
"Malaysia","fiveto14","non.p20","stunted",,,,,,,,29470000
"Malaysia","fiveto14","non.p20","under5",,100,,,,,,29470000
"Malaysia","fiveto14","non.p20","urban",,100,,,,,,29470000
"Malaysia","fiveto14","p20","primary",,,,,,,,29470000
"Malaysia","fiveto14","p20","rural",,0,,,,,,29470000
"Malaysia","fiveto14","p20","secondary",,,,,,,,29470000
"Malaysia","fiveto14","p20","stunted",,,,,,,,29470000
"Malaysia","fiveto14","p20","under5",,0,,,,,,29470000
"Malaysia","fiveto14","p20","urban",,0,,,,,,29470000
"Malaysia","fiveto14","primary","rural",,,,,,,,29470000
"Malaysia","fiveto14","primary","secondary",,,,,,,,29470000
"Malaysia","fiveto14","primary","stunted",,,,,,,,29470000
"Malaysia","fiveto14","primary","under5",,,,,,,,29470000
"Malaysia","fiveto14","primary","urban",,,,,,,,29470000
"Malaysia","fiveto14","rural","secondary",,,,,,,,29470000
"Malaysia","fiveto14","rural","stunted",,,,,,,,29470000
"Malaysia","fiveto14","rural","under5",,,,,,,,29470000
"Malaysia","fiveto14","rural","urban",,,,,,,,29470000
"Malaysia","fiveto14","secondary","stunted",,,,,,,,29470000
"Malaysia","fiveto14","secondary","under5",,,,,,,,29470000
"Malaysia","fiveto14","secondary","urban",,,,,,,,29470000
"Malaysia","fiveto14","stunted","under5",,,,,,,,29470000
"Malaysia","fiveto14","stunted","urban",,,,,,,,29470000
"Malaysia","fiveto14","under5","urban",,,,,,,,29470000
"Malaysia","gt49","higher","male",,,,,,,,29470000
"Malaysia","gt49","higher","no.birth.reg",,,,,,,,29470000
"Malaysia","gt49","higher","no.educ",,,,,,,,29470000
"Malaysia","gt49","higher","no.skilled.attendant",,,,,,,,29470000
"Malaysia","gt49","higher","non.p20",,,,,,,,29470000
"Malaysia","gt49","higher","p20",,,,,,,,29470000
"Malaysia","gt49","higher","primary",,,,,,,,29470000
"Malaysia","gt49","higher","rural",,,,,,,,29470000
"Malaysia","gt49","higher","secondary",,,,,,,,29470000
"Malaysia","gt49","higher","stunted",,,,,,,,29470000
"Malaysia","gt49","higher","under5",,,,,,,,29470000
"Malaysia","gt49","higher","urban",,,,,,,,29470000
"Malaysia","gt49","male","no.birth.reg",,,,,,,,29470000
"Malaysia","gt49","male","no.educ",,,,,,,,29470000
"Malaysia","gt49","male","no.skilled.attendant",,,,,,,,29470000
"Malaysia","gt49","male","non.p20",,,100,,,,,29470000
"Malaysia","gt49","male","p20",,,0,,,,,29470000
"Malaysia","gt49","male","primary",,,,,,,,29470000
"Malaysia","gt49","male","rural",,,,,,,,29470000
"Malaysia","gt49","male","secondary",,,,,,,,29470000
"Malaysia","gt49","male","stunted",,,,,,,,29470000
"Malaysia","gt49","male","under5",,,,,,,,29470000
"Malaysia","gt49","male","urban",,,,,,,,29470000
"Malaysia","gt49","no.birth.reg","no.educ",,,,,,,,29470000
"Malaysia","gt49","no.birth.reg","no.skilled.attendant",,,,,,,,29470000
"Malaysia","gt49","no.birth.reg","non.p20",,,,,,,,29470000
"Malaysia","gt49","no.birth.reg","p20",,,,,,,,29470000
"Malaysia","gt49","no.birth.reg","primary",,,,,,,,29470000
"Malaysia","gt49","no.birth.reg","rural",,,,,,,,29470000
"Malaysia","gt49","no.birth.reg","secondary",,,,,,,,29470000
"Malaysia","gt49","no.birth.reg","stunted",,,,,,,,29470000
"Malaysia","gt49","no.birth.reg","under5",,,,,,,,29470000
"Malaysia","gt49","no.birth.reg","urban",,,,,,,,29470000
"Malaysia","gt49","no.educ","no.skilled.attendant",,,,,,,,29470000
"Malaysia","gt49","no.educ","non.p20",,,,,,,,29470000
"Malaysia","gt49","no.educ","p20",,,,,,,,29470000
"Malaysia","gt49","no.educ","primary",,,,,,,,29470000
"Malaysia","gt49","no.educ","rural",,,,,,,,29470000
"Malaysia","gt49","no.educ","secondary",,,,,,,,29470000
"Malaysia","gt49","no.educ","stunted",,,,,,,,29470000
"Malaysia","gt49","no.educ","under5",,,,,,,,29470000
"Malaysia","gt49","no.educ","urban",,,,,,,,29470000
"Malaysia","gt49","no.skilled.attendant","non.p20",,,,,,,,29470000
"Malaysia","gt49","no.skilled.attendant","p20",,,,,,,,29470000
"Malaysia","gt49","no.skilled.attendant","primary",,,,,,,,29470000
"Malaysia","gt49","no.skilled.attendant","rural",,,,,,,,29470000
"Malaysia","gt49","no.skilled.attendant","secondary",,,,,,,,29470000
"Malaysia","gt49","no.skilled.attendant","stunted",,,,,,,,29470000
"Malaysia","gt49","no.skilled.attendant","under5",,,,,,,,29470000
"Malaysia","gt49","no.skilled.attendant","urban",,,,,,,,29470000
"Malaysia","gt49","non.p20","p20",,100,0,,0,,0,29470000
"Malaysia","gt49","non.p20","primary",,,,,,,,29470000
"Malaysia","gt49","non.p20","rural",,100,,,,,,29470000
"Malaysia","gt49","non.p20","secondary",,,,,,,,29470000
"Malaysia","gt49","non.p20","stunted",,,,,,,,29470000
"Malaysia","gt49","non.p20","under5",,100,,,,,,29470000
"Malaysia","gt49","non.p20","urban",,100,,,,,,29470000
"Malaysia","gt49","p20","primary",,,,,,,,29470000
"Malaysia","gt49","p20","rural",,0,,,,,,29470000
"Malaysia","gt49","p20","secondary",,,,,,,,29470000
"Malaysia","gt49","p20","stunted",,,,,,,,29470000
"Malaysia","gt49","p20","under5",,0,,,,,,29470000
"Malaysia","gt49","p20","urban",,0,,,,,,29470000
"Malaysia","gt49","primary","rural",,,,,,,,29470000
"Malaysia","gt49","primary","secondary",,,,,,,,29470000
"Malaysia","gt49","primary","stunted",,,,,,,,29470000
"Malaysia","gt49","primary","under5",,,,,,,,29470000
"Malaysia","gt49","primary","urban",,,,,,,,29470000
"Malaysia","gt49","rural","secondary",,,,,,,,29470000
"Malaysia","gt49","rural","stunted",,,,,,,,29470000
"Malaysia","gt49","rural","under5",,,,,,,,29470000
"Malaysia","gt49","rural","urban",,,,,,,,29470000
"Malaysia","gt49","secondary","stunted",,,,,,,,29470000
"Malaysia","gt49","secondary","under5",,,,,,,,29470000
"Malaysia","gt49","secondary","urban",,,,,,,,29470000
"Malaysia","gt49","stunted","under5",,,,,,,,29470000
"Malaysia","gt49","stunted","urban",,,,,,,,29470000
"Malaysia","gt49","under5","urban",,,,,,,,29470000
"Malaysia","higher","male","no.birth.reg",,,,,,,,29470000
"Malaysia","higher","male","no.educ",,,,,,,,29470000
"Malaysia","higher","male","no.skilled.attendant",,,,,,,,29470000
"Malaysia","higher","male","non.p20",,,,,,,,29470000
"Malaysia","higher","male","p20",,,,,,,,29470000
"Malaysia","higher","male","primary",,,,,,,,29470000
"Malaysia","higher","male","rural",,,,,,,,29470000
"Malaysia","higher","male","secondary",,,,,,,,29470000
"Malaysia","higher","male","stunted",,,,,,,,29470000
"Malaysia","higher","male","under5",,,,,,,,29470000
"Malaysia","higher","male","urban",,,,,,,,29470000
"Malaysia","higher","no.birth.reg","no.educ",,,,,,,,29470000
"Malaysia","higher","no.birth.reg","no.skilled.attendant",,,,,,,,29470000
"Malaysia","higher","no.birth.reg","non.p20",,,,,,,,29470000
"Malaysia","higher","no.birth.reg","p20",,,,,,,,29470000
"Malaysia","higher","no.birth.reg","primary",,,,,,,,29470000
"Malaysia","higher","no.birth.reg","rural",,,,,,,,29470000
"Malaysia","higher","no.birth.reg","secondary",,,,,,,,29470000
"Malaysia","higher","no.birth.reg","stunted",,,,,,,,29470000
"Malaysia","higher","no.birth.reg","under5",,,,,,,,29470000
"Malaysia","higher","no.birth.reg","urban",,,,,,,,29470000
"Malaysia","higher","no.educ","no.skilled.attendant",,,,,,,,29470000
"Malaysia","higher","no.educ","non.p20",,,,,,,,29470000
"Malaysia","higher","no.educ","p20",,,,,,,,29470000
"Malaysia","higher","no.educ","primary",,,,,,,,29470000
"Malaysia","higher","no.educ","rural",,,,,,,,29470000
"Malaysia","higher","no.educ","secondary",,,,,,,,29470000
"Malaysia","higher","no.educ","stunted",,,,,,,,29470000
"Malaysia","higher","no.educ","under5",,,,,,,,29470000
"Malaysia","higher","no.educ","urban",,,,,,,,29470000
"Malaysia","higher","no.skilled.attendant","non.p20",,,,,,,,29470000
"Malaysia","higher","no.skilled.attendant","p20",,,,,,,,29470000
"Malaysia","higher","no.skilled.attendant","primary",,,,,,,,29470000
"Malaysia","higher","no.skilled.attendant","rural",,,,,,,,29470000
"Malaysia","higher","no.skilled.attendant","secondary",,,,,,,,29470000
"Malaysia","higher","no.skilled.attendant","stunted",,,,,,,,29470000
"Malaysia","higher","no.skilled.attendant","under5",,,,,,,,29470000
"Malaysia","higher","no.skilled.attendant","urban",,,,,,,,29470000
"Malaysia","higher","non.p20","p20",,,,,0,,0,29470000
"Malaysia","higher","non.p20","primary",,,,,,,,29470000
"Malaysia","higher","non.p20","rural",,,,,,,,29470000
"Malaysia","higher","non.p20","secondary",,,,,,,,29470000
"Malaysia","higher","non.p20","stunted",,,,,,,,29470000
"Malaysia","higher","non.p20","under5",,,,,,,,29470000
"Malaysia","higher","non.p20","urban",,,,,,,,29470000
"Malaysia","higher","p20","primary",,,,,,,,29470000
"Malaysia","higher","p20","rural",,,,,,,,29470000
"Malaysia","higher","p20","secondary",,,,,,,,29470000
"Malaysia","higher","p20","stunted",,,,,,,,29470000
"Malaysia","higher","p20","under5",,,,,,,,29470000
"Malaysia","higher","p20","urban",,,,,,,,29470000
"Malaysia","higher","primary","rural",,,,,,,,29470000
"Malaysia","higher","primary","secondary",,,,,,,,29470000
"Malaysia","higher","primary","stunted",,,,,,,,29470000
"Malaysia","higher","primary","under5",,,,,,,,29470000
"Malaysia","higher","primary","urban",,,,,,,,29470000
"Malaysia","higher","rural","secondary",,,,,,,,29470000
"Malaysia","higher","rural","stunted",,,,,,,,29470000
"Malaysia","higher","rural","under5",,,,,,,,29470000
"Malaysia","higher","rural","urban",,,,,,,,29470000
"Malaysia","higher","secondary","stunted",,,,,,,,29470000
"Malaysia","higher","secondary","under5",,,,,,,,29470000
"Malaysia","higher","secondary","urban",,,,,,,,29470000
"Malaysia","higher","stunted","under5",,,,,,,,29470000
"Malaysia","higher","stunted","urban",,,,,,,,29470000
"Malaysia","higher","under5","urban",,,,,,,,29470000
"Malaysia","male","no.birth.reg","no.educ",,,,,,,,29470000
"Malaysia","male","no.birth.reg","no.skilled.attendant",,,,,,,,29470000
"Malaysia","male","no.birth.reg","non.p20",,,,,,,,29470000
"Malaysia","male","no.birth.reg","p20",,,,,,,,29470000
"Malaysia","male","no.birth.reg","primary",,,,,,,,29470000
"Malaysia","male","no.birth.reg","rural",,,,,,,,29470000
"Malaysia","male","no.birth.reg","secondary",,,,,,,,29470000
"Malaysia","male","no.birth.reg","stunted",,,,,,,,29470000
"Malaysia","male","no.birth.reg","under5",,,,,,,,29470000
"Malaysia","male","no.birth.reg","urban",,,,,,,,29470000
"Malaysia","male","no.educ","no.skilled.attendant",,,,,,,,29470000
"Malaysia","male","no.educ","non.p20",,,,,,,,29470000
"Malaysia","male","no.educ","p20",,,,,,,,29470000
"Malaysia","male","no.educ","primary",,,,,,,,29470000
"Malaysia","male","no.educ","rural",,,,,,,,29470000
"Malaysia","male","no.educ","secondary",,,,,,,,29470000
"Malaysia","male","no.educ","stunted",,,,,,,,29470000
"Malaysia","male","no.educ","under5",,,,,,,,29470000
"Malaysia","male","no.educ","urban",,,,,,,,29470000
"Malaysia","male","no.skilled.attendant","non.p20",,,,,,,,29470000
"Malaysia","male","no.skilled.attendant","p20",,,,,,,,29470000
"Malaysia","male","no.skilled.attendant","primary",,,,,,,,29470000
"Malaysia","male","no.skilled.attendant","rural",,,,,,,,29470000
"Malaysia","male","no.skilled.attendant","secondary",,,,,,,,29470000
"Malaysia","male","no.skilled.attendant","stunted",,,,,,,,29470000
"Malaysia","male","no.skilled.attendant","under5",,,,,,,,29470000
"Malaysia","male","no.skilled.attendant","urban",,,,,,,,29470000
"Malaysia","male","non.p20","p20",,100,0,,0,,0,29470000
"Malaysia","male","non.p20","primary",,,,,,,,29470000
"Malaysia","male","non.p20","rural",,100,,,,,,29470000
"Malaysia","male","non.p20","secondary",,,,,,,,29470000
"Malaysia","male","non.p20","stunted",,,,,,,,29470000
"Malaysia","male","non.p20","under5",,100,,,,,,29470000
"Malaysia","male","non.p20","urban",,100,,,,,,29470000
"Malaysia","male","p20","primary",,,,,,,,29470000
"Malaysia","male","p20","rural",,0,,,,,,29470000
"Malaysia","male","p20","secondary",,,,,,,,29470000
"Malaysia","male","p20","stunted",,,,,,,,29470000
"Malaysia","male","p20","under5",,0,,,,,,29470000
"Malaysia","male","p20","urban",,0,,,,,,29470000
"Malaysia","male","primary","rural",,,,,,,,29470000
"Malaysia","male","primary","secondary",,,,,,,,29470000
"Malaysia","male","primary","stunted",,,,,,,,29470000
"Malaysia","male","primary","under5",,,,,,,,29470000
"Malaysia","male","primary","urban",,,,,,,,29470000
"Malaysia","male","rural","secondary",,,,,,,,29470000
"Malaysia","male","rural","stunted",,,,,,,,29470000
"Malaysia","male","rural","under5",,,,,,,,29470000
"Malaysia","male","rural","urban",,,,,,,,29470000
"Malaysia","male","secondary","stunted",,,,,,,,29470000
"Malaysia","male","secondary","under5",,,,,,,,29470000
"Malaysia","male","secondary","urban",,,,,,,,29470000
"Malaysia","male","stunted","under5",,,,,,,,29470000
"Malaysia","male","stunted","urban",,,,,,,,29470000
"Malaysia","male","under5","urban",,,,,,,,29470000
"Malaysia","no.birth.reg","no.educ","no.skilled.attendant",,,,,,,,29470000
"Malaysia","no.birth.reg","no.educ","non.p20",,,,,,,,29470000
"Malaysia","no.birth.reg","no.educ","p20",,,,,,,,29470000
"Malaysia","no.birth.reg","no.educ","primary",,,,,,,,29470000
"Malaysia","no.birth.reg","no.educ","rural",,,,,,,,29470000
"Malaysia","no.birth.reg","no.educ","secondary",,,,,,,,29470000
"Malaysia","no.birth.reg","no.educ","stunted",,,,,,,,29470000
"Malaysia","no.birth.reg","no.educ","under5",,,,,,,,29470000
"Malaysia","no.birth.reg","no.educ","urban",,,,,,,,29470000
"Malaysia","no.birth.reg","no.skilled.attendant","non.p20",,,,,,,,29470000
"Malaysia","no.birth.reg","no.skilled.attendant","p20",,,,,,,,29470000
"Malaysia","no.birth.reg","no.skilled.attendant","primary",,,,,,,,29470000
"Malaysia","no.birth.reg","no.skilled.attendant","rural",,,,,,,,29470000
"Malaysia","no.birth.reg","no.skilled.attendant","secondary",,,,,,,,29470000
"Malaysia","no.birth.reg","no.skilled.attendant","stunted",,,,,,,,29470000
"Malaysia","no.birth.reg","no.skilled.attendant","under5",,,,,,,,29470000
"Malaysia","no.birth.reg","no.skilled.attendant","urban",,,,,,,,29470000
"Malaysia","no.birth.reg","non.p20","p20",,,,,0,,0,29470000
"Malaysia","no.birth.reg","non.p20","primary",,,,,,,,29470000
"Malaysia","no.birth.reg","non.p20","rural",,,,,,,,29470000
"Malaysia","no.birth.reg","non.p20","secondary",,,,,,,,29470000
"Malaysia","no.birth.reg","non.p20","stunted",,,,,,,,29470000
"Malaysia","no.birth.reg","non.p20","under5",,,,,,,,29470000
"Malaysia","no.birth.reg","non.p20","urban",,,,,,,,29470000
"Malaysia","no.birth.reg","p20","primary",,,,,,,,29470000
"Malaysia","no.birth.reg","p20","rural",,,,,,,,29470000
"Malaysia","no.birth.reg","p20","secondary",,,,,,,,29470000
"Malaysia","no.birth.reg","p20","stunted",,,,,,,,29470000
"Malaysia","no.birth.reg","p20","under5",,,,,,,,29470000
"Malaysia","no.birth.reg","p20","urban",,,,,,,,29470000
"Malaysia","no.birth.reg","primary","rural",,,,,,,,29470000
"Malaysia","no.birth.reg","primary","secondary",,,,,,,,29470000
"Malaysia","no.birth.reg","primary","stunted",,,,,,,,29470000
"Malaysia","no.birth.reg","primary","under5",,,,,,,,29470000
"Malaysia","no.birth.reg","primary","urban",,,,,,,,29470000
"Malaysia","no.birth.reg","rural","secondary",,,,,,,,29470000
"Malaysia","no.birth.reg","rural","stunted",,,,,,,,29470000
"Malaysia","no.birth.reg","rural","under5",,,,,,,,29470000
"Malaysia","no.birth.reg","rural","urban",,,,,,,,29470000
"Malaysia","no.birth.reg","secondary","stunted",,,,,,,,29470000
"Malaysia","no.birth.reg","secondary","under5",,,,,,,,29470000
"Malaysia","no.birth.reg","secondary","urban",,,,,,,,29470000
"Malaysia","no.birth.reg","stunted","under5",,,,,,,,29470000
"Malaysia","no.birth.reg","stunted","urban",,,,,,,,29470000
"Malaysia","no.birth.reg","under5","urban",,,,,,,,29470000
"Malaysia","no.educ","no.skilled.attendant","non.p20",,,,,,,,29470000
"Malaysia","no.educ","no.skilled.attendant","p20",,,,,,,,29470000
"Malaysia","no.educ","no.skilled.attendant","primary",,,,,,,,29470000
"Malaysia","no.educ","no.skilled.attendant","rural",,,,,,,,29470000
"Malaysia","no.educ","no.skilled.attendant","secondary",,,,,,,,29470000
"Malaysia","no.educ","no.skilled.attendant","stunted",,,,,,,,29470000
"Malaysia","no.educ","no.skilled.attendant","under5",,,,,,,,29470000
"Malaysia","no.educ","no.skilled.attendant","urban",,,,,,,,29470000
"Malaysia","no.educ","non.p20","p20",,,,,0,,0,29470000
"Malaysia","no.educ","non.p20","primary",,,,,,,,29470000
"Malaysia","no.educ","non.p20","rural",,,,,,,,29470000
"Malaysia","no.educ","non.p20","secondary",,,,,,,,29470000
"Malaysia","no.educ","non.p20","stunted",,,,,,,,29470000
"Malaysia","no.educ","non.p20","under5",,,,,,,,29470000
"Malaysia","no.educ","non.p20","urban",,,,,,,,29470000
"Malaysia","no.educ","p20","primary",,,,,,,,29470000
"Malaysia","no.educ","p20","rural",,,,,,,,29470000
"Malaysia","no.educ","p20","secondary",,,,,,,,29470000
"Malaysia","no.educ","p20","stunted",,,,,,,,29470000
"Malaysia","no.educ","p20","under5",,,,,,,,29470000
"Malaysia","no.educ","p20","urban",,,,,,,,29470000
"Malaysia","no.educ","primary","rural",,,,,,,,29470000
"Malaysia","no.educ","primary","secondary",,,,,,,,29470000
"Malaysia","no.educ","primary","stunted",,,,,,,,29470000
"Malaysia","no.educ","primary","under5",,,,,,,,29470000
"Malaysia","no.educ","primary","urban",,,,,,,,29470000
"Malaysia","no.educ","rural","secondary",,,,,,,,29470000
"Malaysia","no.educ","rural","stunted",,,,,,,,29470000
"Malaysia","no.educ","rural","under5",,,,,,,,29470000
"Malaysia","no.educ","rural","urban",,,,,,,,29470000
"Malaysia","no.educ","secondary","stunted",,,,,,,,29470000
"Malaysia","no.educ","secondary","under5",,,,,,,,29470000
"Malaysia","no.educ","secondary","urban",,,,,,,,29470000
"Malaysia","no.educ","stunted","under5",,,,,,,,29470000
"Malaysia","no.educ","stunted","urban",,,,,,,,29470000
"Malaysia","no.educ","under5","urban",,,,,,,,29470000
"Malaysia","no.skilled.attendant","non.p20","p20",,,,,0,,0,29470000
"Malaysia","no.skilled.attendant","non.p20","primary",,,,,,,,29470000
"Malaysia","no.skilled.attendant","non.p20","rural",,,,,,,,29470000
"Malaysia","no.skilled.attendant","non.p20","secondary",,,,,,,,29470000
"Malaysia","no.skilled.attendant","non.p20","stunted",,,,,,,,29470000
"Malaysia","no.skilled.attendant","non.p20","under5",,,,,,,,29470000
"Malaysia","no.skilled.attendant","non.p20","urban",,,,,,,,29470000
"Malaysia","no.skilled.attendant","p20","primary",,,,,,,,29470000
"Malaysia","no.skilled.attendant","p20","rural",,,,,,,,29470000
"Malaysia","no.skilled.attendant","p20","secondary",,,,,,,,29470000
"Malaysia","no.skilled.attendant","p20","stunted",,,,,,,,29470000
"Malaysia","no.skilled.attendant","p20","under5",,,,,,,,29470000
"Malaysia","no.skilled.attendant","p20","urban",,,,,,,,29470000
"Malaysia","no.skilled.attendant","primary","rural",,,,,,,,29470000
"Malaysia","no.skilled.attendant","primary","secondary",,,,,,,,29470000
"Malaysia","no.skilled.attendant","primary","stunted",,,,,,,,29470000
"Malaysia","no.skilled.attendant","primary","under5",,,,,,,,29470000
"Malaysia","no.skilled.attendant","primary","urban",,,,,,,,29470000
"Malaysia","no.skilled.attendant","rural","secondary",,,,,,,,29470000
"Malaysia","no.skilled.attendant","rural","stunted",,,,,,,,29470000
"Malaysia","no.skilled.attendant","rural","under5",,,,,,,,29470000
"Malaysia","no.skilled.attendant","rural","urban",,,,,,,,29470000
"Malaysia","no.skilled.attendant","secondary","stunted",,,,,,,,29470000
"Malaysia","no.skilled.attendant","secondary","under5",,,,,,,,29470000
"Malaysia","no.skilled.attendant","secondary","urban",,,,,,,,29470000
"Malaysia","no.skilled.attendant","stunted","under5",,,,,,,,29470000
"Malaysia","no.skilled.attendant","stunted","urban",,,,,,,,29470000
"Malaysia","no.skilled.attendant","under5","urban",,,,,,,,29470000
"Malaysia","non.p20","p20","primary",,,,0,,,0,29470000
"Malaysia","non.p20","p20","rural",100,0,,0,,,0,29470000
"Malaysia","non.p20","p20","secondary",,,,0,,,0,29470000
"Malaysia","non.p20","p20","stunted",,,,0,,,0,29470000
"Malaysia","non.p20","p20","under5",100,0,,0,,,0,29470000
"Malaysia","non.p20","p20","urban",100,0,,0,,,0,29470000
"Malaysia","non.p20","primary","rural",,,,,,,,29470000
"Malaysia","non.p20","primary","secondary",,,,,,,,29470000
"Malaysia","non.p20","primary","stunted",,,,,,,,29470000
"Malaysia","non.p20","primary","under5",,,,,,,,29470000
"Malaysia","non.p20","primary","urban",,,,,,,,29470000
"Malaysia","non.p20","rural","secondary",,,,,,,,29470000
"Malaysia","non.p20","rural","stunted",,,,,,,,29470000
"Malaysia","non.p20","rural","under5",100,,,,,,,29470000
"Malaysia","non.p20","rural","urban",100,,,,,,,29470000
"Malaysia","non.p20","secondary","stunted",,,,,,,,29470000
"Malaysia","non.p20","secondary","under5",,,,,,,,29470000
"Malaysia","non.p20","secondary","urban",,,,,,,,29470000
"Malaysia","non.p20","stunted","under5",,,,,,,,29470000
"Malaysia","non.p20","stunted","urban",,,,,,,,29470000
"Malaysia","non.p20","under5","urban",100,,,,,,,29470000
"Malaysia","p20","primary","rural",,,,,,,,29470000
"Malaysia","p20","primary","secondary",,,,,,,,29470000
"Malaysia","p20","primary","stunted",,,,,,,,29470000
"Malaysia","p20","primary","under5",,,,,,,,29470000
"Malaysia","p20","primary","urban",,,,,,,,29470000
"Malaysia","p20","rural","secondary",,,,,,,,29470000
"Malaysia","p20","rural","stunted",,,,,,,,29470000
"Malaysia","p20","rural","under5",0,,,,,,,29470000
"Malaysia","p20","rural","urban",0,,,,,,,29470000
"Malaysia","p20","secondary","stunted",,,,,,,,29470000
"Malaysia","p20","secondary","under5",,,,,,,,29470000
"Malaysia","p20","secondary","urban",,,,,,,,29470000
"Malaysia","p20","stunted","under5",,,,,,,,29470000
"Malaysia","p20","stunted","urban",,,,,,,,29470000
"Malaysia","p20","under5","urban",0,,,,,,,29470000
"Malaysia","primary","rural","secondary",,,,,,,,29470000
"Malaysia","primary","rural","stunted",,,,,,,,29470000
"Malaysia","primary","rural","under5",,,,,,,,29470000
"Malaysia","primary","rural","urban",,,,,,,,29470000
"Malaysia","primary","secondary","stunted",,,,,,,,29470000
"Malaysia","primary","secondary","under5",,,,,,,,29470000
"Malaysia","primary","secondary","urban",,,,,,,,29470000
"Malaysia","primary","stunted","under5",,,,,,,,29470000
"Malaysia","primary","stunted","urban",,,,,,,,29470000
"Malaysia","primary","under5","urban",,,,,,,,29470000
"Malaysia","rural","secondary","stunted",,,,,,,,29470000
"Malaysia","rural","secondary","under5",,,,,,,,29470000
"Malaysia","rural","secondary","urban",,,,,,,,29470000
"Malaysia","rural","stunted","under5",,,,,,,,29470000
"Malaysia","rural","stunted","urban",,,,,,,,29470000
"Malaysia","rural","under5","urban",,,,,,,,29470000
"Malaysia","secondary","stunted","under5",,,,,,,,29470000
"Malaysia","secondary","stunted","urban",,,,,,,,29470000
"Malaysia","secondary","under5","urban",,,,,,,,29470000
"Malaysia","stunted","under5","urban",,,,,,,,29470000
