"filename","indicator1","indicator2","indicator3","X","Y","Z","X,Y","Y,Z","X,Z","X,Y,Z","pop"
"Nicaragua","blank1","blank2","ext",100,100,7,100,7,7,7,5950000
"Nicaragua","blank1","blank2","female",100,100,,100,,,,5950000
"Nicaragua","blank1","blank2","fifteento49",100,100,,100,,,,5950000
"Nicaragua","blank1","blank2","fiveto14",100,100,,100,,,,5950000
"Nicaragua","blank1","blank2","gt49",100,100,,100,,,,5950000
"Nicaragua","blank1","blank2","higher",,,,,,,,5950000
"Nicaragua","blank1","blank2","male",100,100,,100,,,,5950000
"Nicaragua","blank1","blank2","no.birth.reg",,,,,,,,5950000
"Nicaragua","blank1","blank2","no.educ",,,,,,,,5950000
"Nicaragua","blank1","blank2","no.skilled.attendant",,,,,,,,5950000
"Nicaragua","blank1","blank2","non.p20",100,100,87,100,87,87,87,5950000
"Nicaragua","blank1","blank2","p20",100,100,13,100,13,13,13,5950000
"Nicaragua","blank1","blank2","primary",,,,,,,,5950000
"Nicaragua","blank1","blank2","rural",100,100,,100,,,,5950000
"Nicaragua","blank1","blank2","secondary",,,,,,,,5950000
"Nicaragua","blank1","blank2","stunted",,,,,,,,5950000
"Nicaragua","blank1","blank2","under5",100,100,,100,,,,5950000
"Nicaragua","blank1","blank2","urban",100,100,,100,,,,5950000
"Nicaragua","blank1","ext","female",100,7,,7,,,,5950000
"Nicaragua","blank1","ext","fifteento49",100,7,,7,,,,5950000
"Nicaragua","blank1","ext","fiveto14",100,7,,7,,,,5950000
"Nicaragua","blank1","ext","gt49",100,7,,7,,,,5950000
"Nicaragua","blank1","ext","higher",,,,,,,,5950000
"Nicaragua","blank1","ext","male",100,7,,7,,,,5950000
"Nicaragua","blank1","ext","no.birth.reg",,,,,,,,5950000
"Nicaragua","blank1","ext","no.educ",,,,,,,,5950000
"Nicaragua","blank1","ext","no.skilled.attendant",,,,,,,,5950000
"Nicaragua","blank1","ext","non.p20",100,7,87,7,0,87,0,5950000
"Nicaragua","blank1","ext","p20",100,7,13,7,7,13,7,5950000
"Nicaragua","blank1","ext","primary",,,,,,,,5950000
"Nicaragua","blank1","ext","rural",100,7,,7,,,,5950000
"Nicaragua","blank1","ext","secondary",,,,,,,,5950000
"Nicaragua","blank1","ext","stunted",,,,,,,,5950000
"Nicaragua","blank1","ext","under5",100,7,,7,,,,5950000
"Nicaragua","blank1","ext","urban",100,7,,7,,,,5950000
"Nicaragua","blank1","female","fifteento49",100,,,,,,,5950000
"Nicaragua","blank1","female","fiveto14",100,,,,,,,5950000
"Nicaragua","blank1","female","gt49",100,,,,,,,5950000
"Nicaragua","blank1","female","higher",,,,,,,,5950000
"Nicaragua","blank1","female","male",100,,,,,,,5950000
"Nicaragua","blank1","female","no.birth.reg",,,,,,,,5950000
"Nicaragua","blank1","female","no.educ",,,,,,,,5950000
"Nicaragua","blank1","female","no.skilled.attendant",,,,,,,,5950000
"Nicaragua","blank1","female","non.p20",100,,87,,,87,,5950000
"Nicaragua","blank1","female","p20",100,,13,,,13,,5950000
"Nicaragua","blank1","female","primary",,,,,,,,5950000
"Nicaragua","blank1","female","rural",100,,,,,,,5950000
"Nicaragua","blank1","female","secondary",,,,,,,,5950000
"Nicaragua","blank1","female","stunted",,,,,,,,5950000
"Nicaragua","blank1","female","under5",100,,,,,,,5950000
"Nicaragua","blank1","female","urban",100,,,,,,,5950000
"Nicaragua","blank1","fifteento49","fiveto14",100,,,,,,,5950000
"Nicaragua","blank1","fifteento49","gt49",100,,,,,,,5950000
"Nicaragua","blank1","fifteento49","higher",,,,,,,,5950000
"Nicaragua","blank1","fifteento49","male",100,,,,,,,5950000
"Nicaragua","blank1","fifteento49","no.birth.reg",,,,,,,,5950000
"Nicaragua","blank1","fifteento49","no.educ",,,,,,,,5950000
"Nicaragua","blank1","fifteento49","no.skilled.attendant",,,,,,,,5950000
"Nicaragua","blank1","fifteento49","non.p20",100,,87,,,87,,5950000
"Nicaragua","blank1","fifteento49","p20",100,,13,,,13,,5950000
"Nicaragua","blank1","fifteento49","primary",,,,,,,,5950000
"Nicaragua","blank1","fifteento49","rural",100,,,,,,,5950000
"Nicaragua","blank1","fifteento49","secondary",,,,,,,,5950000
"Nicaragua","blank1","fifteento49","stunted",,,,,,,,5950000
"Nicaragua","blank1","fifteento49","under5",100,,,,,,,5950000
"Nicaragua","blank1","fifteento49","urban",100,,,,,,,5950000
"Nicaragua","blank1","fiveto14","gt49",100,,,,,,,5950000
"Nicaragua","blank1","fiveto14","higher",,,,,,,,5950000
"Nicaragua","blank1","fiveto14","male",100,,,,,,,5950000
"Nicaragua","blank1","fiveto14","no.birth.reg",,,,,,,,5950000
"Nicaragua","blank1","fiveto14","no.educ",,,,,,,,5950000
"Nicaragua","blank1","fiveto14","no.skilled.attendant",,,,,,,,5950000
"Nicaragua","blank1","fiveto14","non.p20",100,,87,,,87,,5950000
"Nicaragua","blank1","fiveto14","p20",100,,13,,,13,,5950000
"Nicaragua","blank1","fiveto14","primary",,,,,,,,5950000
"Nicaragua","blank1","fiveto14","rural",100,,,,,,,5950000
"Nicaragua","blank1","fiveto14","secondary",,,,,,,,5950000
"Nicaragua","blank1","fiveto14","stunted",,,,,,,,5950000
"Nicaragua","blank1","fiveto14","under5",100,,,,,,,5950000
"Nicaragua","blank1","fiveto14","urban",100,,,,,,,5950000
"Nicaragua","blank1","gt49","higher",,,,,,,,5950000
"Nicaragua","blank1","gt49","male",100,,,,,,,5950000
"Nicaragua","blank1","gt49","no.birth.reg",,,,,,,,5950000
"Nicaragua","blank1","gt49","no.educ",,,,,,,,5950000
"Nicaragua","blank1","gt49","no.skilled.attendant",,,,,,,,5950000
"Nicaragua","blank1","gt49","non.p20",100,,87,,,87,,5950000
"Nicaragua","blank1","gt49","p20",100,,13,,,13,,5950000
"Nicaragua","blank1","gt49","primary",,,,,,,,5950000
"Nicaragua","blank1","gt49","rural",100,,,,,,,5950000
"Nicaragua","blank1","gt49","secondary",,,,,,,,5950000
"Nicaragua","blank1","gt49","stunted",,,,,,,,5950000
"Nicaragua","blank1","gt49","under5",100,,,,,,,5950000
"Nicaragua","blank1","gt49","urban",100,,,,,,,5950000
"Nicaragua","blank1","higher","male",,,,,,,,5950000
"Nicaragua","blank1","higher","no.birth.reg",,,,,,,,5950000
"Nicaragua","blank1","higher","no.educ",,,,,,,,5950000
"Nicaragua","blank1","higher","no.skilled.attendant",,,,,,,,5950000
"Nicaragua","blank1","higher","non.p20",,,,,,,,5950000
"Nicaragua","blank1","higher","p20",,,,,,,,5950000
"Nicaragua","blank1","higher","primary",,,,,,,,5950000
"Nicaragua","blank1","higher","rural",,,,,,,,5950000
"Nicaragua","blank1","higher","secondary",,,,,,,,5950000
"Nicaragua","blank1","higher","stunted",,,,,,,,5950000
"Nicaragua","blank1","higher","under5",,,,,,,,5950000
"Nicaragua","blank1","higher","urban",,,,,,,,5950000
"Nicaragua","blank1","male","no.birth.reg",,,,,,,,5950000
"Nicaragua","blank1","male","no.educ",,,,,,,,5950000
"Nicaragua","blank1","male","no.skilled.attendant",,,,,,,,5950000
"Nicaragua","blank1","male","non.p20",100,,87,,,87,,5950000
"Nicaragua","blank1","male","p20",100,,13,,,13,,5950000
"Nicaragua","blank1","male","primary",,,,,,,,5950000
"Nicaragua","blank1","male","rural",100,,,,,,,5950000
"Nicaragua","blank1","male","secondary",,,,,,,,5950000
"Nicaragua","blank1","male","stunted",,,,,,,,5950000
"Nicaragua","blank1","male","under5",100,,,,,,,5950000
"Nicaragua","blank1","male","urban",100,,,,,,,5950000
"Nicaragua","blank1","no.birth.reg","no.educ",,,,,,,,5950000
"Nicaragua","blank1","no.birth.reg","no.skilled.attendant",,,,,,,,5950000
"Nicaragua","blank1","no.birth.reg","non.p20",,,,,,,,5950000
"Nicaragua","blank1","no.birth.reg","p20",,,,,,,,5950000
"Nicaragua","blank1","no.birth.reg","primary",,,,,,,,5950000
"Nicaragua","blank1","no.birth.reg","rural",,,,,,,,5950000
"Nicaragua","blank1","no.birth.reg","secondary",,,,,,,,5950000
"Nicaragua","blank1","no.birth.reg","stunted",,,,,,,,5950000
"Nicaragua","blank1","no.birth.reg","under5",,,,,,,,5950000
"Nicaragua","blank1","no.birth.reg","urban",,,,,,,,5950000
"Nicaragua","blank1","no.educ","no.skilled.attendant",,,,,,,,5950000
"Nicaragua","blank1","no.educ","non.p20",,,,,,,,5950000
"Nicaragua","blank1","no.educ","p20",,,,,,,,5950000
"Nicaragua","blank1","no.educ","primary",,,,,,,,5950000
"Nicaragua","blank1","no.educ","rural",,,,,,,,5950000
"Nicaragua","blank1","no.educ","secondary",,,,,,,,5950000
"Nicaragua","blank1","no.educ","stunted",,,,,,,,5950000
"Nicaragua","blank1","no.educ","under5",,,,,,,,5950000
"Nicaragua","blank1","no.educ","urban",,,,,,,,5950000
"Nicaragua","blank1","no.skilled.attendant","non.p20",,,,,,,,5950000
"Nicaragua","blank1","no.skilled.attendant","p20",,,,,,,,5950000
"Nicaragua","blank1","no.skilled.attendant","primary",,,,,,,,5950000
"Nicaragua","blank1","no.skilled.attendant","rural",,,,,,,,5950000
"Nicaragua","blank1","no.skilled.attendant","secondary",,,,,,,,5950000
"Nicaragua","blank1","no.skilled.attendant","stunted",,,,,,,,5950000
"Nicaragua","blank1","no.skilled.attendant","under5",,,,,,,,5950000
"Nicaragua","blank1","no.skilled.attendant","urban",,,,,,,,5950000
"Nicaragua","blank1","non.p20","p20",100,87,13,87,0,13,0,5950000
"Nicaragua","blank1","non.p20","primary",,,,,,,,5950000
"Nicaragua","blank1","non.p20","rural",100,87,,87,,,,5950000
"Nicaragua","blank1","non.p20","secondary",,,,,,,,5950000
"Nicaragua","blank1","non.p20","stunted",,,,,,,,5950000
"Nicaragua","blank1","non.p20","under5",100,87,,87,,,,5950000
"Nicaragua","blank1","non.p20","urban",100,87,,87,,,,5950000
"Nicaragua","blank1","p20","primary",,,,,,,,5950000
"Nicaragua","blank1","p20","rural",100,13,,13,,,,5950000
"Nicaragua","blank1","p20","secondary",,,,,,,,5950000
"Nicaragua","blank1","p20","stunted",,,,,,,,5950000
"Nicaragua","blank1","p20","under5",100,13,,13,,,,5950000
"Nicaragua","blank1","p20","urban",100,13,,13,,,,5950000
"Nicaragua","blank1","primary","rural",,,,,,,,5950000
"Nicaragua","blank1","primary","secondary",,,,,,,,5950000
"Nicaragua","blank1","primary","stunted",,,,,,,,5950000
"Nicaragua","blank1","primary","under5",,,,,,,,5950000
"Nicaragua","blank1","primary","urban",,,,,,,,5950000
"Nicaragua","blank1","rural","secondary",,,,,,,,5950000
"Nicaragua","blank1","rural","stunted",,,,,,,,5950000
"Nicaragua","blank1","rural","under5",100,,,,,,,5950000
"Nicaragua","blank1","rural","urban",100,,,,,,,5950000
"Nicaragua","blank1","secondary","stunted",,,,,,,,5950000
"Nicaragua","blank1","secondary","under5",,,,,,,,5950000
"Nicaragua","blank1","secondary","urban",,,,,,,,5950000
"Nicaragua","blank1","stunted","under5",,,,,,,,5950000
"Nicaragua","blank1","stunted","urban",,,,,,,,5950000
"Nicaragua","blank1","under5","urban",100,,,,,,,5950000
"Nicaragua","blank2","ext","female",100,7,,7,,,,5950000
"Nicaragua","blank2","ext","fifteento49",100,7,,7,,,,5950000
"Nicaragua","blank2","ext","fiveto14",100,7,,7,,,,5950000
"Nicaragua","blank2","ext","gt49",100,7,,7,,,,5950000
"Nicaragua","blank2","ext","higher",,,,,,,,5950000
"Nicaragua","blank2","ext","male",100,7,,7,,,,5950000
"Nicaragua","blank2","ext","no.birth.reg",,,,,,,,5950000
"Nicaragua","blank2","ext","no.educ",,,,,,,,5950000
"Nicaragua","blank2","ext","no.skilled.attendant",,,,,,,,5950000
"Nicaragua","blank2","ext","non.p20",100,7,87,7,0,87,0,5950000
"Nicaragua","blank2","ext","p20",100,7,13,7,7,13,7,5950000
"Nicaragua","blank2","ext","primary",,,,,,,,5950000
"Nicaragua","blank2","ext","rural",100,7,,7,,,,5950000
"Nicaragua","blank2","ext","secondary",,,,,,,,5950000
"Nicaragua","blank2","ext","stunted",,,,,,,,5950000
"Nicaragua","blank2","ext","under5",100,7,,7,,,,5950000
"Nicaragua","blank2","ext","urban",100,7,,7,,,,5950000
"Nicaragua","blank2","female","fifteento49",100,,,,,,,5950000
"Nicaragua","blank2","female","fiveto14",100,,,,,,,5950000
"Nicaragua","blank2","female","gt49",100,,,,,,,5950000
"Nicaragua","blank2","female","higher",,,,,,,,5950000
"Nicaragua","blank2","female","male",100,,,,,,,5950000
"Nicaragua","blank2","female","no.birth.reg",,,,,,,,5950000
"Nicaragua","blank2","female","no.educ",,,,,,,,5950000
"Nicaragua","blank2","female","no.skilled.attendant",,,,,,,,5950000
"Nicaragua","blank2","female","non.p20",100,,87,,,87,,5950000
"Nicaragua","blank2","female","p20",100,,13,,,13,,5950000
"Nicaragua","blank2","female","primary",,,,,,,,5950000
"Nicaragua","blank2","female","rural",100,,,,,,,5950000
"Nicaragua","blank2","female","secondary",,,,,,,,5950000
"Nicaragua","blank2","female","stunted",,,,,,,,5950000
"Nicaragua","blank2","female","under5",100,,,,,,,5950000
"Nicaragua","blank2","female","urban",100,,,,,,,5950000
"Nicaragua","blank2","fifteento49","fiveto14",100,,,,,,,5950000
"Nicaragua","blank2","fifteento49","gt49",100,,,,,,,5950000
"Nicaragua","blank2","fifteento49","higher",,,,,,,,5950000
"Nicaragua","blank2","fifteento49","male",100,,,,,,,5950000
"Nicaragua","blank2","fifteento49","no.birth.reg",,,,,,,,5950000
"Nicaragua","blank2","fifteento49","no.educ",,,,,,,,5950000
"Nicaragua","blank2","fifteento49","no.skilled.attendant",,,,,,,,5950000
"Nicaragua","blank2","fifteento49","non.p20",100,,87,,,87,,5950000
"Nicaragua","blank2","fifteento49","p20",100,,13,,,13,,5950000
"Nicaragua","blank2","fifteento49","primary",,,,,,,,5950000
"Nicaragua","blank2","fifteento49","rural",100,,,,,,,5950000
"Nicaragua","blank2","fifteento49","secondary",,,,,,,,5950000
"Nicaragua","blank2","fifteento49","stunted",,,,,,,,5950000
"Nicaragua","blank2","fifteento49","under5",100,,,,,,,5950000
"Nicaragua","blank2","fifteento49","urban",100,,,,,,,5950000
"Nicaragua","blank2","fiveto14","gt49",100,,,,,,,5950000
"Nicaragua","blank2","fiveto14","higher",,,,,,,,5950000
"Nicaragua","blank2","fiveto14","male",100,,,,,,,5950000
"Nicaragua","blank2","fiveto14","no.birth.reg",,,,,,,,5950000
"Nicaragua","blank2","fiveto14","no.educ",,,,,,,,5950000
"Nicaragua","blank2","fiveto14","no.skilled.attendant",,,,,,,,5950000
"Nicaragua","blank2","fiveto14","non.p20",100,,87,,,87,,5950000
"Nicaragua","blank2","fiveto14","p20",100,,13,,,13,,5950000
"Nicaragua","blank2","fiveto14","primary",,,,,,,,5950000
"Nicaragua","blank2","fiveto14","rural",100,,,,,,,5950000
"Nicaragua","blank2","fiveto14","secondary",,,,,,,,5950000
"Nicaragua","blank2","fiveto14","stunted",,,,,,,,5950000
"Nicaragua","blank2","fiveto14","under5",100,,,,,,,5950000
"Nicaragua","blank2","fiveto14","urban",100,,,,,,,5950000
"Nicaragua","blank2","gt49","higher",,,,,,,,5950000
"Nicaragua","blank2","gt49","male",100,,,,,,,5950000
"Nicaragua","blank2","gt49","no.birth.reg",,,,,,,,5950000
"Nicaragua","blank2","gt49","no.educ",,,,,,,,5950000
"Nicaragua","blank2","gt49","no.skilled.attendant",,,,,,,,5950000
"Nicaragua","blank2","gt49","non.p20",100,,87,,,87,,5950000
"Nicaragua","blank2","gt49","p20",100,,13,,,13,,5950000
"Nicaragua","blank2","gt49","primary",,,,,,,,5950000
"Nicaragua","blank2","gt49","rural",100,,,,,,,5950000
"Nicaragua","blank2","gt49","secondary",,,,,,,,5950000
"Nicaragua","blank2","gt49","stunted",,,,,,,,5950000
"Nicaragua","blank2","gt49","under5",100,,,,,,,5950000
"Nicaragua","blank2","gt49","urban",100,,,,,,,5950000
"Nicaragua","blank2","higher","male",,,,,,,,5950000
"Nicaragua","blank2","higher","no.birth.reg",,,,,,,,5950000
"Nicaragua","blank2","higher","no.educ",,,,,,,,5950000
"Nicaragua","blank2","higher","no.skilled.attendant",,,,,,,,5950000
"Nicaragua","blank2","higher","non.p20",,,,,,,,5950000
"Nicaragua","blank2","higher","p20",,,,,,,,5950000
"Nicaragua","blank2","higher","primary",,,,,,,,5950000
"Nicaragua","blank2","higher","rural",,,,,,,,5950000
"Nicaragua","blank2","higher","secondary",,,,,,,,5950000
"Nicaragua","blank2","higher","stunted",,,,,,,,5950000
"Nicaragua","blank2","higher","under5",,,,,,,,5950000
"Nicaragua","blank2","higher","urban",,,,,,,,5950000
"Nicaragua","blank2","male","no.birth.reg",,,,,,,,5950000
"Nicaragua","blank2","male","no.educ",,,,,,,,5950000
"Nicaragua","blank2","male","no.skilled.attendant",,,,,,,,5950000
"Nicaragua","blank2","male","non.p20",100,,87,,,87,,5950000
"Nicaragua","blank2","male","p20",100,,13,,,13,,5950000
"Nicaragua","blank2","male","primary",,,,,,,,5950000
"Nicaragua","blank2","male","rural",100,,,,,,,5950000
"Nicaragua","blank2","male","secondary",,,,,,,,5950000
"Nicaragua","blank2","male","stunted",,,,,,,,5950000
"Nicaragua","blank2","male","under5",100,,,,,,,5950000
"Nicaragua","blank2","male","urban",100,,,,,,,5950000
"Nicaragua","blank2","no.birth.reg","no.educ",,,,,,,,5950000
"Nicaragua","blank2","no.birth.reg","no.skilled.attendant",,,,,,,,5950000
"Nicaragua","blank2","no.birth.reg","non.p20",,,,,,,,5950000
"Nicaragua","blank2","no.birth.reg","p20",,,,,,,,5950000
"Nicaragua","blank2","no.birth.reg","primary",,,,,,,,5950000
"Nicaragua","blank2","no.birth.reg","rural",,,,,,,,5950000
"Nicaragua","blank2","no.birth.reg","secondary",,,,,,,,5950000
"Nicaragua","blank2","no.birth.reg","stunted",,,,,,,,5950000
"Nicaragua","blank2","no.birth.reg","under5",,,,,,,,5950000
"Nicaragua","blank2","no.birth.reg","urban",,,,,,,,5950000
"Nicaragua","blank2","no.educ","no.skilled.attendant",,,,,,,,5950000
"Nicaragua","blank2","no.educ","non.p20",,,,,,,,5950000
"Nicaragua","blank2","no.educ","p20",,,,,,,,5950000
"Nicaragua","blank2","no.educ","primary",,,,,,,,5950000
"Nicaragua","blank2","no.educ","rural",,,,,,,,5950000
"Nicaragua","blank2","no.educ","secondary",,,,,,,,5950000
"Nicaragua","blank2","no.educ","stunted",,,,,,,,5950000
"Nicaragua","blank2","no.educ","under5",,,,,,,,5950000
"Nicaragua","blank2","no.educ","urban",,,,,,,,5950000
"Nicaragua","blank2","no.skilled.attendant","non.p20",,,,,,,,5950000
"Nicaragua","blank2","no.skilled.attendant","p20",,,,,,,,5950000
"Nicaragua","blank2","no.skilled.attendant","primary",,,,,,,,5950000
"Nicaragua","blank2","no.skilled.attendant","rural",,,,,,,,5950000
"Nicaragua","blank2","no.skilled.attendant","secondary",,,,,,,,5950000
"Nicaragua","blank2","no.skilled.attendant","stunted",,,,,,,,5950000
"Nicaragua","blank2","no.skilled.attendant","under5",,,,,,,,5950000
"Nicaragua","blank2","no.skilled.attendant","urban",,,,,,,,5950000
"Nicaragua","blank2","non.p20","p20",100,87,13,87,0,13,0,5950000
"Nicaragua","blank2","non.p20","primary",,,,,,,,5950000
"Nicaragua","blank2","non.p20","rural",100,87,,87,,,,5950000
"Nicaragua","blank2","non.p20","secondary",,,,,,,,5950000
"Nicaragua","blank2","non.p20","stunted",,,,,,,,5950000
"Nicaragua","blank2","non.p20","under5",100,87,,87,,,,5950000
"Nicaragua","blank2","non.p20","urban",100,87,,87,,,,5950000
"Nicaragua","blank2","p20","primary",,,,,,,,5950000
"Nicaragua","blank2","p20","rural",100,13,,13,,,,5950000
"Nicaragua","blank2","p20","secondary",,,,,,,,5950000
"Nicaragua","blank2","p20","stunted",,,,,,,,5950000
"Nicaragua","blank2","p20","under5",100,13,,13,,,,5950000
"Nicaragua","blank2","p20","urban",100,13,,13,,,,5950000
"Nicaragua","blank2","primary","rural",,,,,,,,5950000
"Nicaragua","blank2","primary","secondary",,,,,,,,5950000
"Nicaragua","blank2","primary","stunted",,,,,,,,5950000
"Nicaragua","blank2","primary","under5",,,,,,,,5950000
"Nicaragua","blank2","primary","urban",,,,,,,,5950000
"Nicaragua","blank2","rural","secondary",,,,,,,,5950000
"Nicaragua","blank2","rural","stunted",,,,,,,,5950000
"Nicaragua","blank2","rural","under5",100,,,,,,,5950000
"Nicaragua","blank2","rural","urban",100,,,,,,,5950000
"Nicaragua","blank2","secondary","stunted",,,,,,,,5950000
"Nicaragua","blank2","secondary","under5",,,,,,,,5950000
"Nicaragua","blank2","secondary","urban",,,,,,,,5950000
"Nicaragua","blank2","stunted","under5",,,,,,,,5950000
"Nicaragua","blank2","stunted","urban",,,,,,,,5950000
"Nicaragua","blank2","under5","urban",100,,,,,,,5950000
"Nicaragua","ext","female","fifteento49",7,,,,,,,5950000
"Nicaragua","ext","female","fiveto14",7,,,,,,,5950000
"Nicaragua","ext","female","gt49",7,,,,,,,5950000
"Nicaragua","ext","female","higher",,,,,,,,5950000
"Nicaragua","ext","female","male",7,,,,,,,5950000
"Nicaragua","ext","female","no.birth.reg",,,,,,,,5950000
"Nicaragua","ext","female","no.educ",,,,,,,,5950000
"Nicaragua","ext","female","no.skilled.attendant",,,,,,,,5950000
"Nicaragua","ext","female","non.p20",7,,87,,,0,0,5950000
"Nicaragua","ext","female","p20",7,,13,,,7,,5950000
"Nicaragua","ext","female","primary",,,,,,,,5950000
"Nicaragua","ext","female","rural",7,,,,,,,5950000
"Nicaragua","ext","female","secondary",,,,,,,,5950000
"Nicaragua","ext","female","stunted",,,,,,,,5950000
"Nicaragua","ext","female","under5",7,,,,,,,5950000
"Nicaragua","ext","female","urban",7,,,,,,,5950000
"Nicaragua","ext","fifteento49","fiveto14",7,,,,,,,5950000
"Nicaragua","ext","fifteento49","gt49",7,,,,,,,5950000
"Nicaragua","ext","fifteento49","higher",,,,,,,,5950000
"Nicaragua","ext","fifteento49","male",7,,,,,,,5950000
"Nicaragua","ext","fifteento49","no.birth.reg",,,,,,,,5950000
"Nicaragua","ext","fifteento49","no.educ",,,,,,,,5950000
"Nicaragua","ext","fifteento49","no.skilled.attendant",,,,,,,,5950000
"Nicaragua","ext","fifteento49","non.p20",7,,87,,,0,0,5950000
"Nicaragua","ext","fifteento49","p20",7,,13,,,7,,5950000
"Nicaragua","ext","fifteento49","primary",,,,,,,,5950000
"Nicaragua","ext","fifteento49","rural",7,,,,,,,5950000
"Nicaragua","ext","fifteento49","secondary",,,,,,,,5950000
"Nicaragua","ext","fifteento49","stunted",,,,,,,,5950000
"Nicaragua","ext","fifteento49","under5",7,,,,,,,5950000
"Nicaragua","ext","fifteento49","urban",7,,,,,,,5950000
"Nicaragua","ext","fiveto14","gt49",7,,,,,,,5950000
"Nicaragua","ext","fiveto14","higher",,,,,,,,5950000
"Nicaragua","ext","fiveto14","male",7,,,,,,,5950000
"Nicaragua","ext","fiveto14","no.birth.reg",,,,,,,,5950000
"Nicaragua","ext","fiveto14","no.educ",,,,,,,,5950000
"Nicaragua","ext","fiveto14","no.skilled.attendant",,,,,,,,5950000
"Nicaragua","ext","fiveto14","non.p20",7,,87,,,0,0,5950000
"Nicaragua","ext","fiveto14","p20",7,,13,,,7,,5950000
"Nicaragua","ext","fiveto14","primary",,,,,,,,5950000
"Nicaragua","ext","fiveto14","rural",7,,,,,,,5950000
"Nicaragua","ext","fiveto14","secondary",,,,,,,,5950000
"Nicaragua","ext","fiveto14","stunted",,,,,,,,5950000
"Nicaragua","ext","fiveto14","under5",7,,,,,,,5950000
"Nicaragua","ext","fiveto14","urban",7,,,,,,,5950000
"Nicaragua","ext","gt49","higher",,,,,,,,5950000
"Nicaragua","ext","gt49","male",7,,,,,,,5950000
"Nicaragua","ext","gt49","no.birth.reg",,,,,,,,5950000
"Nicaragua","ext","gt49","no.educ",,,,,,,,5950000
"Nicaragua","ext","gt49","no.skilled.attendant",,,,,,,,5950000
"Nicaragua","ext","gt49","non.p20",7,,87,,,0,0,5950000
"Nicaragua","ext","gt49","p20",7,,13,,,7,,5950000
"Nicaragua","ext","gt49","primary",,,,,,,,5950000
"Nicaragua","ext","gt49","rural",7,,,,,,,5950000
"Nicaragua","ext","gt49","secondary",,,,,,,,5950000
"Nicaragua","ext","gt49","stunted",,,,,,,,5950000
"Nicaragua","ext","gt49","under5",7,,,,,,,5950000
"Nicaragua","ext","gt49","urban",7,,,,,,,5950000
"Nicaragua","ext","higher","male",,,,,,,,5950000
"Nicaragua","ext","higher","no.birth.reg",,,,,,,,5950000
"Nicaragua","ext","higher","no.educ",,,,,,,,5950000
"Nicaragua","ext","higher","no.skilled.attendant",,,,,,,,5950000
"Nicaragua","ext","higher","non.p20",,,,,,0,0,5950000
"Nicaragua","ext","higher","p20",,,,,,,,5950000
"Nicaragua","ext","higher","primary",,,,,,,,5950000
"Nicaragua","ext","higher","rural",,,,,,,,5950000
"Nicaragua","ext","higher","secondary",,,,,,,,5950000
"Nicaragua","ext","higher","stunted",,,,,,,,5950000
"Nicaragua","ext","higher","under5",,,,,,,,5950000
"Nicaragua","ext","higher","urban",,,,,,,,5950000
"Nicaragua","ext","male","no.birth.reg",,,,,,,,5950000
"Nicaragua","ext","male","no.educ",,,,,,,,5950000
"Nicaragua","ext","male","no.skilled.attendant",,,,,,,,5950000
"Nicaragua","ext","male","non.p20",7,,87,,,0,0,5950000
"Nicaragua","ext","male","p20",7,,13,,,7,,5950000
"Nicaragua","ext","male","primary",,,,,,,,5950000
"Nicaragua","ext","male","rural",7,,,,,,,5950000
"Nicaragua","ext","male","secondary",,,,,,,,5950000
"Nicaragua","ext","male","stunted",,,,,,,,5950000
"Nicaragua","ext","male","under5",7,,,,,,,5950000
"Nicaragua","ext","male","urban",7,,,,,,,5950000
"Nicaragua","ext","no.birth.reg","no.educ",,,,,,,,5950000
"Nicaragua","ext","no.birth.reg","no.skilled.attendant",,,,,,,,5950000
"Nicaragua","ext","no.birth.reg","non.p20",,,,,,0,0,5950000
"Nicaragua","ext","no.birth.reg","p20",,,,,,,,5950000
"Nicaragua","ext","no.birth.reg","primary",,,,,,,,5950000
"Nicaragua","ext","no.birth.reg","rural",,,,,,,,5950000
"Nicaragua","ext","no.birth.reg","secondary",,,,,,,,5950000
"Nicaragua","ext","no.birth.reg","stunted",,,,,,,,5950000
"Nicaragua","ext","no.birth.reg","under5",,,,,,,,5950000
"Nicaragua","ext","no.birth.reg","urban",,,,,,,,5950000
"Nicaragua","ext","no.educ","no.skilled.attendant",,,,,,,,5950000
"Nicaragua","ext","no.educ","non.p20",,,,,,0,0,5950000
"Nicaragua","ext","no.educ","p20",,,,,,,,5950000
"Nicaragua","ext","no.educ","primary",,,,,,,,5950000
"Nicaragua","ext","no.educ","rural",,,,,,,,5950000
"Nicaragua","ext","no.educ","secondary",,,,,,,,5950000
"Nicaragua","ext","no.educ","stunted",,,,,,,,5950000
"Nicaragua","ext","no.educ","under5",,,,,,,,5950000
"Nicaragua","ext","no.educ","urban",,,,,,,,5950000
"Nicaragua","ext","no.skilled.attendant","non.p20",,,,,,0,0,5950000
"Nicaragua","ext","no.skilled.attendant","p20",,,,,,,,5950000
"Nicaragua","ext","no.skilled.attendant","primary",,,,,,,,5950000
"Nicaragua","ext","no.skilled.attendant","rural",,,,,,,,5950000
"Nicaragua","ext","no.skilled.attendant","secondary",,,,,,,,5950000
"Nicaragua","ext","no.skilled.attendant","stunted",,,,,,,,5950000
"Nicaragua","ext","no.skilled.attendant","under5",,,,,,,,5950000
"Nicaragua","ext","no.skilled.attendant","urban",,,,,,,,5950000
"Nicaragua","ext","non.p20","p20",7,87,13,0,0,7,0,5950000
"Nicaragua","ext","non.p20","primary",,,,0,,,0,5950000
"Nicaragua","ext","non.p20","rural",7,87,,0,,,0,5950000
"Nicaragua","ext","non.p20","secondary",,,,0,,,0,5950000
"Nicaragua","ext","non.p20","stunted",,,,0,,,0,5950000
"Nicaragua","ext","non.p20","under5",7,87,,0,,,0,5950000
"Nicaragua","ext","non.p20","urban",7,87,,0,,,0,5950000
"Nicaragua","ext","p20","primary",,,,,,,,5950000
"Nicaragua","ext","p20","rural",7,13,,7,,,,5950000
"Nicaragua","ext","p20","secondary",,,,,,,,5950000
"Nicaragua","ext","p20","stunted",,,,,,,,5950000
"Nicaragua","ext","p20","under5",7,13,,7,,,,5950000
"Nicaragua","ext","p20","urban",7,13,,7,,,,5950000
"Nicaragua","ext","primary","rural",,,,,,,,5950000
"Nicaragua","ext","primary","secondary",,,,,,,,5950000
"Nicaragua","ext","primary","stunted",,,,,,,,5950000
"Nicaragua","ext","primary","under5",,,,,,,,5950000
"Nicaragua","ext","primary","urban",,,,,,,,5950000
"Nicaragua","ext","rural","secondary",,,,,,,,5950000
"Nicaragua","ext","rural","stunted",,,,,,,,5950000
"Nicaragua","ext","rural","under5",7,,,,,,,5950000
"Nicaragua","ext","rural","urban",7,,,,,,,5950000
"Nicaragua","ext","secondary","stunted",,,,,,,,5950000
"Nicaragua","ext","secondary","under5",,,,,,,,5950000
"Nicaragua","ext","secondary","urban",,,,,,,,5950000
"Nicaragua","ext","stunted","under5",,,,,,,,5950000
"Nicaragua","ext","stunted","urban",,,,,,,,5950000
"Nicaragua","ext","under5","urban",7,,,,,,,5950000
"Nicaragua","female","fifteento49","fiveto14",,,,,,,,5950000
"Nicaragua","female","fifteento49","gt49",,,,,,,,5950000
"Nicaragua","female","fifteento49","higher",,,,,,,,5950000
"Nicaragua","female","fifteento49","male",,,,,,,,5950000
"Nicaragua","female","fifteento49","no.birth.reg",,,,,,,,5950000
"Nicaragua","female","fifteento49","no.educ",,,,,,,,5950000
"Nicaragua","female","fifteento49","no.skilled.attendant",,,,,,,,5950000
"Nicaragua","female","fifteento49","non.p20",,,87,,,,,5950000
"Nicaragua","female","fifteento49","p20",,,13,,,,,5950000
"Nicaragua","female","fifteento49","primary",,,,,,,,5950000
"Nicaragua","female","fifteento49","rural",,,,,,,,5950000
"Nicaragua","female","fifteento49","secondary",,,,,,,,5950000
"Nicaragua","female","fifteento49","stunted",,,,,,,,5950000
"Nicaragua","female","fifteento49","under5",,,,,,,,5950000
"Nicaragua","female","fifteento49","urban",,,,,,,,5950000
"Nicaragua","female","fiveto14","gt49",,,,,,,,5950000
"Nicaragua","female","fiveto14","higher",,,,,,,,5950000
"Nicaragua","female","fiveto14","male",,,,,,,,5950000
"Nicaragua","female","fiveto14","no.birth.reg",,,,,,,,5950000
"Nicaragua","female","fiveto14","no.educ",,,,,,,,5950000
"Nicaragua","female","fiveto14","no.skilled.attendant",,,,,,,,5950000
"Nicaragua","female","fiveto14","non.p20",,,87,,,,,5950000
"Nicaragua","female","fiveto14","p20",,,13,,,,,5950000
"Nicaragua","female","fiveto14","primary",,,,,,,,5950000
"Nicaragua","female","fiveto14","rural",,,,,,,,5950000
"Nicaragua","female","fiveto14","secondary",,,,,,,,5950000
"Nicaragua","female","fiveto14","stunted",,,,,,,,5950000
"Nicaragua","female","fiveto14","under5",,,,,,,,5950000
"Nicaragua","female","fiveto14","urban",,,,,,,,5950000
"Nicaragua","female","gt49","higher",,,,,,,,5950000
"Nicaragua","female","gt49","male",,,,,,,,5950000
"Nicaragua","female","gt49","no.birth.reg",,,,,,,,5950000
"Nicaragua","female","gt49","no.educ",,,,,,,,5950000
"Nicaragua","female","gt49","no.skilled.attendant",,,,,,,,5950000
"Nicaragua","female","gt49","non.p20",,,87,,,,,5950000
"Nicaragua","female","gt49","p20",,,13,,,,,5950000
"Nicaragua","female","gt49","primary",,,,,,,,5950000
"Nicaragua","female","gt49","rural",,,,,,,,5950000
"Nicaragua","female","gt49","secondary",,,,,,,,5950000
"Nicaragua","female","gt49","stunted",,,,,,,,5950000
"Nicaragua","female","gt49","under5",,,,,,,,5950000
"Nicaragua","female","gt49","urban",,,,,,,,5950000
"Nicaragua","female","higher","male",,,,,,,,5950000
"Nicaragua","female","higher","no.birth.reg",,,,,,,,5950000
"Nicaragua","female","higher","no.educ",,,,,,,,5950000
"Nicaragua","female","higher","no.skilled.attendant",,,,,,,,5950000
"Nicaragua","female","higher","non.p20",,,,,,,,5950000
"Nicaragua","female","higher","p20",,,,,,,,5950000
"Nicaragua","female","higher","primary",,,,,,,,5950000
"Nicaragua","female","higher","rural",,,,,,,,5950000
"Nicaragua","female","higher","secondary",,,,,,,,5950000
"Nicaragua","female","higher","stunted",,,,,,,,5950000
"Nicaragua","female","higher","under5",,,,,,,,5950000
"Nicaragua","female","higher","urban",,,,,,,,5950000
"Nicaragua","female","male","no.birth.reg",,,,,,,,5950000
"Nicaragua","female","male","no.educ",,,,,,,,5950000
"Nicaragua","female","male","no.skilled.attendant",,,,,,,,5950000
"Nicaragua","female","male","non.p20",,,87,,,,,5950000
"Nicaragua","female","male","p20",,,13,,,,,5950000
"Nicaragua","female","male","primary",,,,,,,,5950000
"Nicaragua","female","male","rural",,,,,,,,5950000
"Nicaragua","female","male","secondary",,,,,,,,5950000
"Nicaragua","female","male","stunted",,,,,,,,5950000
"Nicaragua","female","male","under5",,,,,,,,5950000
"Nicaragua","female","male","urban",,,,,,,,5950000
"Nicaragua","female","no.birth.reg","no.educ",,,,,,,,5950000
"Nicaragua","female","no.birth.reg","no.skilled.attendant",,,,,,,,5950000
"Nicaragua","female","no.birth.reg","non.p20",,,,,,,,5950000
"Nicaragua","female","no.birth.reg","p20",,,,,,,,5950000
"Nicaragua","female","no.birth.reg","primary",,,,,,,,5950000
"Nicaragua","female","no.birth.reg","rural",,,,,,,,5950000
"Nicaragua","female","no.birth.reg","secondary",,,,,,,,5950000
"Nicaragua","female","no.birth.reg","stunted",,,,,,,,5950000
"Nicaragua","female","no.birth.reg","under5",,,,,,,,5950000
"Nicaragua","female","no.birth.reg","urban",,,,,,,,5950000
"Nicaragua","female","no.educ","no.skilled.attendant",,,,,,,,5950000
"Nicaragua","female","no.educ","non.p20",,,,,,,,5950000
"Nicaragua","female","no.educ","p20",,,,,,,,5950000
"Nicaragua","female","no.educ","primary",,,,,,,,5950000
"Nicaragua","female","no.educ","rural",,,,,,,,5950000
"Nicaragua","female","no.educ","secondary",,,,,,,,5950000
"Nicaragua","female","no.educ","stunted",,,,,,,,5950000
"Nicaragua","female","no.educ","under5",,,,,,,,5950000
"Nicaragua","female","no.educ","urban",,,,,,,,5950000
"Nicaragua","female","no.skilled.attendant","non.p20",,,,,,,,5950000
"Nicaragua","female","no.skilled.attendant","p20",,,,,,,,5950000
"Nicaragua","female","no.skilled.attendant","primary",,,,,,,,5950000
"Nicaragua","female","no.skilled.attendant","rural",,,,,,,,5950000
"Nicaragua","female","no.skilled.attendant","secondary",,,,,,,,5950000
"Nicaragua","female","no.skilled.attendant","stunted",,,,,,,,5950000
"Nicaragua","female","no.skilled.attendant","under5",,,,,,,,5950000
"Nicaragua","female","no.skilled.attendant","urban",,,,,,,,5950000
"Nicaragua","female","non.p20","p20",,87,13,,0,,0,5950000
"Nicaragua","female","non.p20","primary",,,,,,,,5950000
"Nicaragua","female","non.p20","rural",,87,,,,,,5950000
"Nicaragua","female","non.p20","secondary",,,,,,,,5950000
"Nicaragua","female","non.p20","stunted",,,,,,,,5950000
"Nicaragua","female","non.p20","under5",,87,,,,,,5950000
"Nicaragua","female","non.p20","urban",,87,,,,,,5950000
"Nicaragua","female","p20","primary",,,,,,,,5950000
"Nicaragua","female","p20","rural",,13,,,,,,5950000
"Nicaragua","female","p20","secondary",,,,,,,,5950000
"Nicaragua","female","p20","stunted",,,,,,,,5950000
"Nicaragua","female","p20","under5",,13,,,,,,5950000
"Nicaragua","female","p20","urban",,13,,,,,,5950000
"Nicaragua","female","primary","rural",,,,,,,,5950000
"Nicaragua","female","primary","secondary",,,,,,,,5950000
"Nicaragua","female","primary","stunted",,,,,,,,5950000
"Nicaragua","female","primary","under5",,,,,,,,5950000
"Nicaragua","female","primary","urban",,,,,,,,5950000
"Nicaragua","female","rural","secondary",,,,,,,,5950000
"Nicaragua","female","rural","stunted",,,,,,,,5950000
"Nicaragua","female","rural","under5",,,,,,,,5950000
"Nicaragua","female","rural","urban",,,,,,,,5950000
"Nicaragua","female","secondary","stunted",,,,,,,,5950000
"Nicaragua","female","secondary","under5",,,,,,,,5950000
"Nicaragua","female","secondary","urban",,,,,,,,5950000
"Nicaragua","female","stunted","under5",,,,,,,,5950000
"Nicaragua","female","stunted","urban",,,,,,,,5950000
"Nicaragua","female","under5","urban",,,,,,,,5950000
"Nicaragua","fifteento49","fiveto14","gt49",,,,,,,,5950000
"Nicaragua","fifteento49","fiveto14","higher",,,,,,,,5950000
"Nicaragua","fifteento49","fiveto14","male",,,,,,,,5950000
"Nicaragua","fifteento49","fiveto14","no.birth.reg",,,,,,,,5950000
"Nicaragua","fifteento49","fiveto14","no.educ",,,,,,,,5950000
"Nicaragua","fifteento49","fiveto14","no.skilled.attendant",,,,,,,,5950000
"Nicaragua","fifteento49","fiveto14","non.p20",,,87,,,,,5950000
"Nicaragua","fifteento49","fiveto14","p20",,,13,,,,,5950000
"Nicaragua","fifteento49","fiveto14","primary",,,,,,,,5950000
"Nicaragua","fifteento49","fiveto14","rural",,,,,,,,5950000
"Nicaragua","fifteento49","fiveto14","secondary",,,,,,,,5950000
"Nicaragua","fifteento49","fiveto14","stunted",,,,,,,,5950000
"Nicaragua","fifteento49","fiveto14","under5",,,,,,,,5950000
"Nicaragua","fifteento49","fiveto14","urban",,,,,,,,5950000
"Nicaragua","fifteento49","gt49","higher",,,,,,,,5950000
"Nicaragua","fifteento49","gt49","male",,,,,,,,5950000
"Nicaragua","fifteento49","gt49","no.birth.reg",,,,,,,,5950000
"Nicaragua","fifteento49","gt49","no.educ",,,,,,,,5950000
"Nicaragua","fifteento49","gt49","no.skilled.attendant",,,,,,,,5950000
"Nicaragua","fifteento49","gt49","non.p20",,,87,,,,,5950000
"Nicaragua","fifteento49","gt49","p20",,,13,,,,,5950000
"Nicaragua","fifteento49","gt49","primary",,,,,,,,5950000
"Nicaragua","fifteento49","gt49","rural",,,,,,,,5950000
"Nicaragua","fifteento49","gt49","secondary",,,,,,,,5950000
"Nicaragua","fifteento49","gt49","stunted",,,,,,,,5950000
"Nicaragua","fifteento49","gt49","under5",,,,,,,,5950000
"Nicaragua","fifteento49","gt49","urban",,,,,,,,5950000
"Nicaragua","fifteento49","higher","male",,,,,,,,5950000
"Nicaragua","fifteento49","higher","no.birth.reg",,,,,,,,5950000
"Nicaragua","fifteento49","higher","no.educ",,,,,,,,5950000
"Nicaragua","fifteento49","higher","no.skilled.attendant",,,,,,,,5950000
"Nicaragua","fifteento49","higher","non.p20",,,,,,,,5950000
"Nicaragua","fifteento49","higher","p20",,,,,,,,5950000
"Nicaragua","fifteento49","higher","primary",,,,,,,,5950000
"Nicaragua","fifteento49","higher","rural",,,,,,,,5950000
"Nicaragua","fifteento49","higher","secondary",,,,,,,,5950000
"Nicaragua","fifteento49","higher","stunted",,,,,,,,5950000
"Nicaragua","fifteento49","higher","under5",,,,,,,,5950000
"Nicaragua","fifteento49","higher","urban",,,,,,,,5950000
"Nicaragua","fifteento49","male","no.birth.reg",,,,,,,,5950000
"Nicaragua","fifteento49","male","no.educ",,,,,,,,5950000
"Nicaragua","fifteento49","male","no.skilled.attendant",,,,,,,,5950000
"Nicaragua","fifteento49","male","non.p20",,,87,,,,,5950000
"Nicaragua","fifteento49","male","p20",,,13,,,,,5950000
"Nicaragua","fifteento49","male","primary",,,,,,,,5950000
"Nicaragua","fifteento49","male","rural",,,,,,,,5950000
"Nicaragua","fifteento49","male","secondary",,,,,,,,5950000
"Nicaragua","fifteento49","male","stunted",,,,,,,,5950000
"Nicaragua","fifteento49","male","under5",,,,,,,,5950000
"Nicaragua","fifteento49","male","urban",,,,,,,,5950000
"Nicaragua","fifteento49","no.birth.reg","no.educ",,,,,,,,5950000
"Nicaragua","fifteento49","no.birth.reg","no.skilled.attendant",,,,,,,,5950000
"Nicaragua","fifteento49","no.birth.reg","non.p20",,,,,,,,5950000
"Nicaragua","fifteento49","no.birth.reg","p20",,,,,,,,5950000
"Nicaragua","fifteento49","no.birth.reg","primary",,,,,,,,5950000
"Nicaragua","fifteento49","no.birth.reg","rural",,,,,,,,5950000
"Nicaragua","fifteento49","no.birth.reg","secondary",,,,,,,,5950000
"Nicaragua","fifteento49","no.birth.reg","stunted",,,,,,,,5950000
"Nicaragua","fifteento49","no.birth.reg","under5",,,,,,,,5950000
"Nicaragua","fifteento49","no.birth.reg","urban",,,,,,,,5950000
"Nicaragua","fifteento49","no.educ","no.skilled.attendant",,,,,,,,5950000
"Nicaragua","fifteento49","no.educ","non.p20",,,,,,,,5950000
"Nicaragua","fifteento49","no.educ","p20",,,,,,,,5950000
"Nicaragua","fifteento49","no.educ","primary",,,,,,,,5950000
"Nicaragua","fifteento49","no.educ","rural",,,,,,,,5950000
"Nicaragua","fifteento49","no.educ","secondary",,,,,,,,5950000
"Nicaragua","fifteento49","no.educ","stunted",,,,,,,,5950000
"Nicaragua","fifteento49","no.educ","under5",,,,,,,,5950000
"Nicaragua","fifteento49","no.educ","urban",,,,,,,,5950000
"Nicaragua","fifteento49","no.skilled.attendant","non.p20",,,,,,,,5950000
"Nicaragua","fifteento49","no.skilled.attendant","p20",,,,,,,,5950000
"Nicaragua","fifteento49","no.skilled.attendant","primary",,,,,,,,5950000
"Nicaragua","fifteento49","no.skilled.attendant","rural",,,,,,,,5950000
"Nicaragua","fifteento49","no.skilled.attendant","secondary",,,,,,,,5950000
"Nicaragua","fifteento49","no.skilled.attendant","stunted",,,,,,,,5950000
"Nicaragua","fifteento49","no.skilled.attendant","under5",,,,,,,,5950000
"Nicaragua","fifteento49","no.skilled.attendant","urban",,,,,,,,5950000
"Nicaragua","fifteento49","non.p20","p20",,87,13,,0,,0,5950000
"Nicaragua","fifteento49","non.p20","primary",,,,,,,,5950000
"Nicaragua","fifteento49","non.p20","rural",,87,,,,,,5950000
"Nicaragua","fifteento49","non.p20","secondary",,,,,,,,5950000
"Nicaragua","fifteento49","non.p20","stunted",,,,,,,,5950000
"Nicaragua","fifteento49","non.p20","under5",,87,,,,,,5950000
"Nicaragua","fifteento49","non.p20","urban",,87,,,,,,5950000
"Nicaragua","fifteento49","p20","primary",,,,,,,,5950000
"Nicaragua","fifteento49","p20","rural",,13,,,,,,5950000
"Nicaragua","fifteento49","p20","secondary",,,,,,,,5950000
"Nicaragua","fifteento49","p20","stunted",,,,,,,,5950000
"Nicaragua","fifteento49","p20","under5",,13,,,,,,5950000
"Nicaragua","fifteento49","p20","urban",,13,,,,,,5950000
"Nicaragua","fifteento49","primary","rural",,,,,,,,5950000
"Nicaragua","fifteento49","primary","secondary",,,,,,,,5950000
"Nicaragua","fifteento49","primary","stunted",,,,,,,,5950000
"Nicaragua","fifteento49","primary","under5",,,,,,,,5950000
"Nicaragua","fifteento49","primary","urban",,,,,,,,5950000
"Nicaragua","fifteento49","rural","secondary",,,,,,,,5950000
"Nicaragua","fifteento49","rural","stunted",,,,,,,,5950000
"Nicaragua","fifteento49","rural","under5",,,,,,,,5950000
"Nicaragua","fifteento49","rural","urban",,,,,,,,5950000
"Nicaragua","fifteento49","secondary","stunted",,,,,,,,5950000
"Nicaragua","fifteento49","secondary","under5",,,,,,,,5950000
"Nicaragua","fifteento49","secondary","urban",,,,,,,,5950000
"Nicaragua","fifteento49","stunted","under5",,,,,,,,5950000
"Nicaragua","fifteento49","stunted","urban",,,,,,,,5950000
"Nicaragua","fifteento49","under5","urban",,,,,,,,5950000
"Nicaragua","fiveto14","gt49","higher",,,,,,,,5950000
"Nicaragua","fiveto14","gt49","male",,,,,,,,5950000
"Nicaragua","fiveto14","gt49","no.birth.reg",,,,,,,,5950000
"Nicaragua","fiveto14","gt49","no.educ",,,,,,,,5950000
"Nicaragua","fiveto14","gt49","no.skilled.attendant",,,,,,,,5950000
"Nicaragua","fiveto14","gt49","non.p20",,,87,,,,,5950000
"Nicaragua","fiveto14","gt49","p20",,,13,,,,,5950000
"Nicaragua","fiveto14","gt49","primary",,,,,,,,5950000
"Nicaragua","fiveto14","gt49","rural",,,,,,,,5950000
"Nicaragua","fiveto14","gt49","secondary",,,,,,,,5950000
"Nicaragua","fiveto14","gt49","stunted",,,,,,,,5950000
"Nicaragua","fiveto14","gt49","under5",,,,,,,,5950000
"Nicaragua","fiveto14","gt49","urban",,,,,,,,5950000
"Nicaragua","fiveto14","higher","male",,,,,,,,5950000
"Nicaragua","fiveto14","higher","no.birth.reg",,,,,,,,5950000
"Nicaragua","fiveto14","higher","no.educ",,,,,,,,5950000
"Nicaragua","fiveto14","higher","no.skilled.attendant",,,,,,,,5950000
"Nicaragua","fiveto14","higher","non.p20",,,,,,,,5950000
"Nicaragua","fiveto14","higher","p20",,,,,,,,5950000
"Nicaragua","fiveto14","higher","primary",,,,,,,,5950000
"Nicaragua","fiveto14","higher","rural",,,,,,,,5950000
"Nicaragua","fiveto14","higher","secondary",,,,,,,,5950000
"Nicaragua","fiveto14","higher","stunted",,,,,,,,5950000
"Nicaragua","fiveto14","higher","under5",,,,,,,,5950000
"Nicaragua","fiveto14","higher","urban",,,,,,,,5950000
"Nicaragua","fiveto14","male","no.birth.reg",,,,,,,,5950000
"Nicaragua","fiveto14","male","no.educ",,,,,,,,5950000
"Nicaragua","fiveto14","male","no.skilled.attendant",,,,,,,,5950000
"Nicaragua","fiveto14","male","non.p20",,,87,,,,,5950000
"Nicaragua","fiveto14","male","p20",,,13,,,,,5950000
"Nicaragua","fiveto14","male","primary",,,,,,,,5950000
"Nicaragua","fiveto14","male","rural",,,,,,,,5950000
"Nicaragua","fiveto14","male","secondary",,,,,,,,5950000
"Nicaragua","fiveto14","male","stunted",,,,,,,,5950000
"Nicaragua","fiveto14","male","under5",,,,,,,,5950000
"Nicaragua","fiveto14","male","urban",,,,,,,,5950000
"Nicaragua","fiveto14","no.birth.reg","no.educ",,,,,,,,5950000
"Nicaragua","fiveto14","no.birth.reg","no.skilled.attendant",,,,,,,,5950000
"Nicaragua","fiveto14","no.birth.reg","non.p20",,,,,,,,5950000
"Nicaragua","fiveto14","no.birth.reg","p20",,,,,,,,5950000
"Nicaragua","fiveto14","no.birth.reg","primary",,,,,,,,5950000
"Nicaragua","fiveto14","no.birth.reg","rural",,,,,,,,5950000
"Nicaragua","fiveto14","no.birth.reg","secondary",,,,,,,,5950000
"Nicaragua","fiveto14","no.birth.reg","stunted",,,,,,,,5950000
"Nicaragua","fiveto14","no.birth.reg","under5",,,,,,,,5950000
"Nicaragua","fiveto14","no.birth.reg","urban",,,,,,,,5950000
"Nicaragua","fiveto14","no.educ","no.skilled.attendant",,,,,,,,5950000
"Nicaragua","fiveto14","no.educ","non.p20",,,,,,,,5950000
"Nicaragua","fiveto14","no.educ","p20",,,,,,,,5950000
"Nicaragua","fiveto14","no.educ","primary",,,,,,,,5950000
"Nicaragua","fiveto14","no.educ","rural",,,,,,,,5950000
"Nicaragua","fiveto14","no.educ","secondary",,,,,,,,5950000
"Nicaragua","fiveto14","no.educ","stunted",,,,,,,,5950000
"Nicaragua","fiveto14","no.educ","under5",,,,,,,,5950000
"Nicaragua","fiveto14","no.educ","urban",,,,,,,,5950000
"Nicaragua","fiveto14","no.skilled.attendant","non.p20",,,,,,,,5950000
"Nicaragua","fiveto14","no.skilled.attendant","p20",,,,,,,,5950000
"Nicaragua","fiveto14","no.skilled.attendant","primary",,,,,,,,5950000
"Nicaragua","fiveto14","no.skilled.attendant","rural",,,,,,,,5950000
"Nicaragua","fiveto14","no.skilled.attendant","secondary",,,,,,,,5950000
"Nicaragua","fiveto14","no.skilled.attendant","stunted",,,,,,,,5950000
"Nicaragua","fiveto14","no.skilled.attendant","under5",,,,,,,,5950000
"Nicaragua","fiveto14","no.skilled.attendant","urban",,,,,,,,5950000
"Nicaragua","fiveto14","non.p20","p20",,87,13,,0,,0,5950000
"Nicaragua","fiveto14","non.p20","primary",,,,,,,,5950000
"Nicaragua","fiveto14","non.p20","rural",,87,,,,,,5950000
"Nicaragua","fiveto14","non.p20","secondary",,,,,,,,5950000
"Nicaragua","fiveto14","non.p20","stunted",,,,,,,,5950000
"Nicaragua","fiveto14","non.p20","under5",,87,,,,,,5950000
"Nicaragua","fiveto14","non.p20","urban",,87,,,,,,5950000
"Nicaragua","fiveto14","p20","primary",,,,,,,,5950000
"Nicaragua","fiveto14","p20","rural",,13,,,,,,5950000
"Nicaragua","fiveto14","p20","secondary",,,,,,,,5950000
"Nicaragua","fiveto14","p20","stunted",,,,,,,,5950000
"Nicaragua","fiveto14","p20","under5",,13,,,,,,5950000
"Nicaragua","fiveto14","p20","urban",,13,,,,,,5950000
"Nicaragua","fiveto14","primary","rural",,,,,,,,5950000
"Nicaragua","fiveto14","primary","secondary",,,,,,,,5950000
"Nicaragua","fiveto14","primary","stunted",,,,,,,,5950000
"Nicaragua","fiveto14","primary","under5",,,,,,,,5950000
"Nicaragua","fiveto14","primary","urban",,,,,,,,5950000
"Nicaragua","fiveto14","rural","secondary",,,,,,,,5950000
"Nicaragua","fiveto14","rural","stunted",,,,,,,,5950000
"Nicaragua","fiveto14","rural","under5",,,,,,,,5950000
"Nicaragua","fiveto14","rural","urban",,,,,,,,5950000
"Nicaragua","fiveto14","secondary","stunted",,,,,,,,5950000
"Nicaragua","fiveto14","secondary","under5",,,,,,,,5950000
"Nicaragua","fiveto14","secondary","urban",,,,,,,,5950000
"Nicaragua","fiveto14","stunted","under5",,,,,,,,5950000
"Nicaragua","fiveto14","stunted","urban",,,,,,,,5950000
"Nicaragua","fiveto14","under5","urban",,,,,,,,5950000
"Nicaragua","gt49","higher","male",,,,,,,,5950000
"Nicaragua","gt49","higher","no.birth.reg",,,,,,,,5950000
"Nicaragua","gt49","higher","no.educ",,,,,,,,5950000
"Nicaragua","gt49","higher","no.skilled.attendant",,,,,,,,5950000
"Nicaragua","gt49","higher","non.p20",,,,,,,,5950000
"Nicaragua","gt49","higher","p20",,,,,,,,5950000
"Nicaragua","gt49","higher","primary",,,,,,,,5950000
"Nicaragua","gt49","higher","rural",,,,,,,,5950000
"Nicaragua","gt49","higher","secondary",,,,,,,,5950000
"Nicaragua","gt49","higher","stunted",,,,,,,,5950000
"Nicaragua","gt49","higher","under5",,,,,,,,5950000
"Nicaragua","gt49","higher","urban",,,,,,,,5950000
"Nicaragua","gt49","male","no.birth.reg",,,,,,,,5950000
"Nicaragua","gt49","male","no.educ",,,,,,,,5950000
"Nicaragua","gt49","male","no.skilled.attendant",,,,,,,,5950000
"Nicaragua","gt49","male","non.p20",,,87,,,,,5950000
"Nicaragua","gt49","male","p20",,,13,,,,,5950000
"Nicaragua","gt49","male","primary",,,,,,,,5950000
"Nicaragua","gt49","male","rural",,,,,,,,5950000
"Nicaragua","gt49","male","secondary",,,,,,,,5950000
"Nicaragua","gt49","male","stunted",,,,,,,,5950000
"Nicaragua","gt49","male","under5",,,,,,,,5950000
"Nicaragua","gt49","male","urban",,,,,,,,5950000
"Nicaragua","gt49","no.birth.reg","no.educ",,,,,,,,5950000
"Nicaragua","gt49","no.birth.reg","no.skilled.attendant",,,,,,,,5950000
"Nicaragua","gt49","no.birth.reg","non.p20",,,,,,,,5950000
"Nicaragua","gt49","no.birth.reg","p20",,,,,,,,5950000
"Nicaragua","gt49","no.birth.reg","primary",,,,,,,,5950000
"Nicaragua","gt49","no.birth.reg","rural",,,,,,,,5950000
"Nicaragua","gt49","no.birth.reg","secondary",,,,,,,,5950000
"Nicaragua","gt49","no.birth.reg","stunted",,,,,,,,5950000
"Nicaragua","gt49","no.birth.reg","under5",,,,,,,,5950000
"Nicaragua","gt49","no.birth.reg","urban",,,,,,,,5950000
"Nicaragua","gt49","no.educ","no.skilled.attendant",,,,,,,,5950000
"Nicaragua","gt49","no.educ","non.p20",,,,,,,,5950000
"Nicaragua","gt49","no.educ","p20",,,,,,,,5950000
"Nicaragua","gt49","no.educ","primary",,,,,,,,5950000
"Nicaragua","gt49","no.educ","rural",,,,,,,,5950000
"Nicaragua","gt49","no.educ","secondary",,,,,,,,5950000
"Nicaragua","gt49","no.educ","stunted",,,,,,,,5950000
"Nicaragua","gt49","no.educ","under5",,,,,,,,5950000
"Nicaragua","gt49","no.educ","urban",,,,,,,,5950000
"Nicaragua","gt49","no.skilled.attendant","non.p20",,,,,,,,5950000
"Nicaragua","gt49","no.skilled.attendant","p20",,,,,,,,5950000
"Nicaragua","gt49","no.skilled.attendant","primary",,,,,,,,5950000
"Nicaragua","gt49","no.skilled.attendant","rural",,,,,,,,5950000
"Nicaragua","gt49","no.skilled.attendant","secondary",,,,,,,,5950000
"Nicaragua","gt49","no.skilled.attendant","stunted",,,,,,,,5950000
"Nicaragua","gt49","no.skilled.attendant","under5",,,,,,,,5950000
"Nicaragua","gt49","no.skilled.attendant","urban",,,,,,,,5950000
"Nicaragua","gt49","non.p20","p20",,87,13,,0,,0,5950000
"Nicaragua","gt49","non.p20","primary",,,,,,,,5950000
"Nicaragua","gt49","non.p20","rural",,87,,,,,,5950000
"Nicaragua","gt49","non.p20","secondary",,,,,,,,5950000
"Nicaragua","gt49","non.p20","stunted",,,,,,,,5950000
"Nicaragua","gt49","non.p20","under5",,87,,,,,,5950000
"Nicaragua","gt49","non.p20","urban",,87,,,,,,5950000
"Nicaragua","gt49","p20","primary",,,,,,,,5950000
"Nicaragua","gt49","p20","rural",,13,,,,,,5950000
"Nicaragua","gt49","p20","secondary",,,,,,,,5950000
"Nicaragua","gt49","p20","stunted",,,,,,,,5950000
"Nicaragua","gt49","p20","under5",,13,,,,,,5950000
"Nicaragua","gt49","p20","urban",,13,,,,,,5950000
"Nicaragua","gt49","primary","rural",,,,,,,,5950000
"Nicaragua","gt49","primary","secondary",,,,,,,,5950000
"Nicaragua","gt49","primary","stunted",,,,,,,,5950000
"Nicaragua","gt49","primary","under5",,,,,,,,5950000
"Nicaragua","gt49","primary","urban",,,,,,,,5950000
"Nicaragua","gt49","rural","secondary",,,,,,,,5950000
"Nicaragua","gt49","rural","stunted",,,,,,,,5950000
"Nicaragua","gt49","rural","under5",,,,,,,,5950000
"Nicaragua","gt49","rural","urban",,,,,,,,5950000
"Nicaragua","gt49","secondary","stunted",,,,,,,,5950000
"Nicaragua","gt49","secondary","under5",,,,,,,,5950000
"Nicaragua","gt49","secondary","urban",,,,,,,,5950000
"Nicaragua","gt49","stunted","under5",,,,,,,,5950000
"Nicaragua","gt49","stunted","urban",,,,,,,,5950000
"Nicaragua","gt49","under5","urban",,,,,,,,5950000
"Nicaragua","higher","male","no.birth.reg",,,,,,,,5950000
"Nicaragua","higher","male","no.educ",,,,,,,,5950000
"Nicaragua","higher","male","no.skilled.attendant",,,,,,,,5950000
"Nicaragua","higher","male","non.p20",,,,,,,,5950000
"Nicaragua","higher","male","p20",,,,,,,,5950000
"Nicaragua","higher","male","primary",,,,,,,,5950000
"Nicaragua","higher","male","rural",,,,,,,,5950000
"Nicaragua","higher","male","secondary",,,,,,,,5950000
"Nicaragua","higher","male","stunted",,,,,,,,5950000
"Nicaragua","higher","male","under5",,,,,,,,5950000
"Nicaragua","higher","male","urban",,,,,,,,5950000
"Nicaragua","higher","no.birth.reg","no.educ",,,,,,,,5950000
"Nicaragua","higher","no.birth.reg","no.skilled.attendant",,,,,,,,5950000
"Nicaragua","higher","no.birth.reg","non.p20",,,,,,,,5950000
"Nicaragua","higher","no.birth.reg","p20",,,,,,,,5950000
"Nicaragua","higher","no.birth.reg","primary",,,,,,,,5950000
"Nicaragua","higher","no.birth.reg","rural",,,,,,,,5950000
"Nicaragua","higher","no.birth.reg","secondary",,,,,,,,5950000
"Nicaragua","higher","no.birth.reg","stunted",,,,,,,,5950000
"Nicaragua","higher","no.birth.reg","under5",,,,,,,,5950000
"Nicaragua","higher","no.birth.reg","urban",,,,,,,,5950000
"Nicaragua","higher","no.educ","no.skilled.attendant",,,,,,,,5950000
"Nicaragua","higher","no.educ","non.p20",,,,,,,,5950000
"Nicaragua","higher","no.educ","p20",,,,,,,,5950000
"Nicaragua","higher","no.educ","primary",,,,,,,,5950000
"Nicaragua","higher","no.educ","rural",,,,,,,,5950000
"Nicaragua","higher","no.educ","secondary",,,,,,,,5950000
"Nicaragua","higher","no.educ","stunted",,,,,,,,5950000
"Nicaragua","higher","no.educ","under5",,,,,,,,5950000
"Nicaragua","higher","no.educ","urban",,,,,,,,5950000
"Nicaragua","higher","no.skilled.attendant","non.p20",,,,,,,,5950000
"Nicaragua","higher","no.skilled.attendant","p20",,,,,,,,5950000
"Nicaragua","higher","no.skilled.attendant","primary",,,,,,,,5950000
"Nicaragua","higher","no.skilled.attendant","rural",,,,,,,,5950000
"Nicaragua","higher","no.skilled.attendant","secondary",,,,,,,,5950000
"Nicaragua","higher","no.skilled.attendant","stunted",,,,,,,,5950000
"Nicaragua","higher","no.skilled.attendant","under5",,,,,,,,5950000
"Nicaragua","higher","no.skilled.attendant","urban",,,,,,,,5950000
"Nicaragua","higher","non.p20","p20",,,,,0,,0,5950000
"Nicaragua","higher","non.p20","primary",,,,,,,,5950000
"Nicaragua","higher","non.p20","rural",,,,,,,,5950000
"Nicaragua","higher","non.p20","secondary",,,,,,,,5950000
"Nicaragua","higher","non.p20","stunted",,,,,,,,5950000
"Nicaragua","higher","non.p20","under5",,,,,,,,5950000
"Nicaragua","higher","non.p20","urban",,,,,,,,5950000
"Nicaragua","higher","p20","primary",,,,,,,,5950000
"Nicaragua","higher","p20","rural",,,,,,,,5950000
"Nicaragua","higher","p20","secondary",,,,,,,,5950000
"Nicaragua","higher","p20","stunted",,,,,,,,5950000
"Nicaragua","higher","p20","under5",,,,,,,,5950000
"Nicaragua","higher","p20","urban",,,,,,,,5950000
"Nicaragua","higher","primary","rural",,,,,,,,5950000
"Nicaragua","higher","primary","secondary",,,,,,,,5950000
"Nicaragua","higher","primary","stunted",,,,,,,,5950000
"Nicaragua","higher","primary","under5",,,,,,,,5950000
"Nicaragua","higher","primary","urban",,,,,,,,5950000
"Nicaragua","higher","rural","secondary",,,,,,,,5950000
"Nicaragua","higher","rural","stunted",,,,,,,,5950000
"Nicaragua","higher","rural","under5",,,,,,,,5950000
"Nicaragua","higher","rural","urban",,,,,,,,5950000
"Nicaragua","higher","secondary","stunted",,,,,,,,5950000
"Nicaragua","higher","secondary","under5",,,,,,,,5950000
"Nicaragua","higher","secondary","urban",,,,,,,,5950000
"Nicaragua","higher","stunted","under5",,,,,,,,5950000
"Nicaragua","higher","stunted","urban",,,,,,,,5950000
"Nicaragua","higher","under5","urban",,,,,,,,5950000
"Nicaragua","male","no.birth.reg","no.educ",,,,,,,,5950000
"Nicaragua","male","no.birth.reg","no.skilled.attendant",,,,,,,,5950000
"Nicaragua","male","no.birth.reg","non.p20",,,,,,,,5950000
"Nicaragua","male","no.birth.reg","p20",,,,,,,,5950000
"Nicaragua","male","no.birth.reg","primary",,,,,,,,5950000
"Nicaragua","male","no.birth.reg","rural",,,,,,,,5950000
"Nicaragua","male","no.birth.reg","secondary",,,,,,,,5950000
"Nicaragua","male","no.birth.reg","stunted",,,,,,,,5950000
"Nicaragua","male","no.birth.reg","under5",,,,,,,,5950000
"Nicaragua","male","no.birth.reg","urban",,,,,,,,5950000
"Nicaragua","male","no.educ","no.skilled.attendant",,,,,,,,5950000
"Nicaragua","male","no.educ","non.p20",,,,,,,,5950000
"Nicaragua","male","no.educ","p20",,,,,,,,5950000
"Nicaragua","male","no.educ","primary",,,,,,,,5950000
"Nicaragua","male","no.educ","rural",,,,,,,,5950000
"Nicaragua","male","no.educ","secondary",,,,,,,,5950000
"Nicaragua","male","no.educ","stunted",,,,,,,,5950000
"Nicaragua","male","no.educ","under5",,,,,,,,5950000
"Nicaragua","male","no.educ","urban",,,,,,,,5950000
"Nicaragua","male","no.skilled.attendant","non.p20",,,,,,,,5950000
"Nicaragua","male","no.skilled.attendant","p20",,,,,,,,5950000
"Nicaragua","male","no.skilled.attendant","primary",,,,,,,,5950000
"Nicaragua","male","no.skilled.attendant","rural",,,,,,,,5950000
"Nicaragua","male","no.skilled.attendant","secondary",,,,,,,,5950000
"Nicaragua","male","no.skilled.attendant","stunted",,,,,,,,5950000
"Nicaragua","male","no.skilled.attendant","under5",,,,,,,,5950000
"Nicaragua","male","no.skilled.attendant","urban",,,,,,,,5950000
"Nicaragua","male","non.p20","p20",,87,13,,0,,0,5950000
"Nicaragua","male","non.p20","primary",,,,,,,,5950000
"Nicaragua","male","non.p20","rural",,87,,,,,,5950000
"Nicaragua","male","non.p20","secondary",,,,,,,,5950000
"Nicaragua","male","non.p20","stunted",,,,,,,,5950000
"Nicaragua","male","non.p20","under5",,87,,,,,,5950000
"Nicaragua","male","non.p20","urban",,87,,,,,,5950000
"Nicaragua","male","p20","primary",,,,,,,,5950000
"Nicaragua","male","p20","rural",,13,,,,,,5950000
"Nicaragua","male","p20","secondary",,,,,,,,5950000
"Nicaragua","male","p20","stunted",,,,,,,,5950000
"Nicaragua","male","p20","under5",,13,,,,,,5950000
"Nicaragua","male","p20","urban",,13,,,,,,5950000
"Nicaragua","male","primary","rural",,,,,,,,5950000
"Nicaragua","male","primary","secondary",,,,,,,,5950000
"Nicaragua","male","primary","stunted",,,,,,,,5950000
"Nicaragua","male","primary","under5",,,,,,,,5950000
"Nicaragua","male","primary","urban",,,,,,,,5950000
"Nicaragua","male","rural","secondary",,,,,,,,5950000
"Nicaragua","male","rural","stunted",,,,,,,,5950000
"Nicaragua","male","rural","under5",,,,,,,,5950000
"Nicaragua","male","rural","urban",,,,,,,,5950000
"Nicaragua","male","secondary","stunted",,,,,,,,5950000
"Nicaragua","male","secondary","under5",,,,,,,,5950000
"Nicaragua","male","secondary","urban",,,,,,,,5950000
"Nicaragua","male","stunted","under5",,,,,,,,5950000
"Nicaragua","male","stunted","urban",,,,,,,,5950000
"Nicaragua","male","under5","urban",,,,,,,,5950000
"Nicaragua","no.birth.reg","no.educ","no.skilled.attendant",,,,,,,,5950000
"Nicaragua","no.birth.reg","no.educ","non.p20",,,,,,,,5950000
"Nicaragua","no.birth.reg","no.educ","p20",,,,,,,,5950000
"Nicaragua","no.birth.reg","no.educ","primary",,,,,,,,5950000
"Nicaragua","no.birth.reg","no.educ","rural",,,,,,,,5950000
"Nicaragua","no.birth.reg","no.educ","secondary",,,,,,,,5950000
"Nicaragua","no.birth.reg","no.educ","stunted",,,,,,,,5950000
"Nicaragua","no.birth.reg","no.educ","under5",,,,,,,,5950000
"Nicaragua","no.birth.reg","no.educ","urban",,,,,,,,5950000
"Nicaragua","no.birth.reg","no.skilled.attendant","non.p20",,,,,,,,5950000
"Nicaragua","no.birth.reg","no.skilled.attendant","p20",,,,,,,,5950000
"Nicaragua","no.birth.reg","no.skilled.attendant","primary",,,,,,,,5950000
"Nicaragua","no.birth.reg","no.skilled.attendant","rural",,,,,,,,5950000
"Nicaragua","no.birth.reg","no.skilled.attendant","secondary",,,,,,,,5950000
"Nicaragua","no.birth.reg","no.skilled.attendant","stunted",,,,,,,,5950000
"Nicaragua","no.birth.reg","no.skilled.attendant","under5",,,,,,,,5950000
"Nicaragua","no.birth.reg","no.skilled.attendant","urban",,,,,,,,5950000
"Nicaragua","no.birth.reg","non.p20","p20",,,,,0,,0,5950000
"Nicaragua","no.birth.reg","non.p20","primary",,,,,,,,5950000
"Nicaragua","no.birth.reg","non.p20","rural",,,,,,,,5950000
"Nicaragua","no.birth.reg","non.p20","secondary",,,,,,,,5950000
"Nicaragua","no.birth.reg","non.p20","stunted",,,,,,,,5950000
"Nicaragua","no.birth.reg","non.p20","under5",,,,,,,,5950000
"Nicaragua","no.birth.reg","non.p20","urban",,,,,,,,5950000
"Nicaragua","no.birth.reg","p20","primary",,,,,,,,5950000
"Nicaragua","no.birth.reg","p20","rural",,,,,,,,5950000
"Nicaragua","no.birth.reg","p20","secondary",,,,,,,,5950000
"Nicaragua","no.birth.reg","p20","stunted",,,,,,,,5950000
"Nicaragua","no.birth.reg","p20","under5",,,,,,,,5950000
"Nicaragua","no.birth.reg","p20","urban",,,,,,,,5950000
"Nicaragua","no.birth.reg","primary","rural",,,,,,,,5950000
"Nicaragua","no.birth.reg","primary","secondary",,,,,,,,5950000
"Nicaragua","no.birth.reg","primary","stunted",,,,,,,,5950000
"Nicaragua","no.birth.reg","primary","under5",,,,,,,,5950000
"Nicaragua","no.birth.reg","primary","urban",,,,,,,,5950000
"Nicaragua","no.birth.reg","rural","secondary",,,,,,,,5950000
"Nicaragua","no.birth.reg","rural","stunted",,,,,,,,5950000
"Nicaragua","no.birth.reg","rural","under5",,,,,,,,5950000
"Nicaragua","no.birth.reg","rural","urban",,,,,,,,5950000
"Nicaragua","no.birth.reg","secondary","stunted",,,,,,,,5950000
"Nicaragua","no.birth.reg","secondary","under5",,,,,,,,5950000
"Nicaragua","no.birth.reg","secondary","urban",,,,,,,,5950000
"Nicaragua","no.birth.reg","stunted","under5",,,,,,,,5950000
"Nicaragua","no.birth.reg","stunted","urban",,,,,,,,5950000
"Nicaragua","no.birth.reg","under5","urban",,,,,,,,5950000
"Nicaragua","no.educ","no.skilled.attendant","non.p20",,,,,,,,5950000
"Nicaragua","no.educ","no.skilled.attendant","p20",,,,,,,,5950000
"Nicaragua","no.educ","no.skilled.attendant","primary",,,,,,,,5950000
"Nicaragua","no.educ","no.skilled.attendant","rural",,,,,,,,5950000
"Nicaragua","no.educ","no.skilled.attendant","secondary",,,,,,,,5950000
"Nicaragua","no.educ","no.skilled.attendant","stunted",,,,,,,,5950000
"Nicaragua","no.educ","no.skilled.attendant","under5",,,,,,,,5950000
"Nicaragua","no.educ","no.skilled.attendant","urban",,,,,,,,5950000
"Nicaragua","no.educ","non.p20","p20",,,,,0,,0,5950000
"Nicaragua","no.educ","non.p20","primary",,,,,,,,5950000
"Nicaragua","no.educ","non.p20","rural",,,,,,,,5950000
"Nicaragua","no.educ","non.p20","secondary",,,,,,,,5950000
"Nicaragua","no.educ","non.p20","stunted",,,,,,,,5950000
"Nicaragua","no.educ","non.p20","under5",,,,,,,,5950000
"Nicaragua","no.educ","non.p20","urban",,,,,,,,5950000
"Nicaragua","no.educ","p20","primary",,,,,,,,5950000
"Nicaragua","no.educ","p20","rural",,,,,,,,5950000
"Nicaragua","no.educ","p20","secondary",,,,,,,,5950000
"Nicaragua","no.educ","p20","stunted",,,,,,,,5950000
"Nicaragua","no.educ","p20","under5",,,,,,,,5950000
"Nicaragua","no.educ","p20","urban",,,,,,,,5950000
"Nicaragua","no.educ","primary","rural",,,,,,,,5950000
"Nicaragua","no.educ","primary","secondary",,,,,,,,5950000
"Nicaragua","no.educ","primary","stunted",,,,,,,,5950000
"Nicaragua","no.educ","primary","under5",,,,,,,,5950000
"Nicaragua","no.educ","primary","urban",,,,,,,,5950000
"Nicaragua","no.educ","rural","secondary",,,,,,,,5950000
"Nicaragua","no.educ","rural","stunted",,,,,,,,5950000
"Nicaragua","no.educ","rural","under5",,,,,,,,5950000
"Nicaragua","no.educ","rural","urban",,,,,,,,5950000
"Nicaragua","no.educ","secondary","stunted",,,,,,,,5950000
"Nicaragua","no.educ","secondary","under5",,,,,,,,5950000
"Nicaragua","no.educ","secondary","urban",,,,,,,,5950000
"Nicaragua","no.educ","stunted","under5",,,,,,,,5950000
"Nicaragua","no.educ","stunted","urban",,,,,,,,5950000
"Nicaragua","no.educ","under5","urban",,,,,,,,5950000
"Nicaragua","no.skilled.attendant","non.p20","p20",,,,,0,,0,5950000
"Nicaragua","no.skilled.attendant","non.p20","primary",,,,,,,,5950000
"Nicaragua","no.skilled.attendant","non.p20","rural",,,,,,,,5950000
"Nicaragua","no.skilled.attendant","non.p20","secondary",,,,,,,,5950000
"Nicaragua","no.skilled.attendant","non.p20","stunted",,,,,,,,5950000
"Nicaragua","no.skilled.attendant","non.p20","under5",,,,,,,,5950000
"Nicaragua","no.skilled.attendant","non.p20","urban",,,,,,,,5950000
"Nicaragua","no.skilled.attendant","p20","primary",,,,,,,,5950000
"Nicaragua","no.skilled.attendant","p20","rural",,,,,,,,5950000
"Nicaragua","no.skilled.attendant","p20","secondary",,,,,,,,5950000
"Nicaragua","no.skilled.attendant","p20","stunted",,,,,,,,5950000
"Nicaragua","no.skilled.attendant","p20","under5",,,,,,,,5950000
"Nicaragua","no.skilled.attendant","p20","urban",,,,,,,,5950000
"Nicaragua","no.skilled.attendant","primary","rural",,,,,,,,5950000
"Nicaragua","no.skilled.attendant","primary","secondary",,,,,,,,5950000
"Nicaragua","no.skilled.attendant","primary","stunted",,,,,,,,5950000
"Nicaragua","no.skilled.attendant","primary","under5",,,,,,,,5950000
"Nicaragua","no.skilled.attendant","primary","urban",,,,,,,,5950000
"Nicaragua","no.skilled.attendant","rural","secondary",,,,,,,,5950000
"Nicaragua","no.skilled.attendant","rural","stunted",,,,,,,,5950000
"Nicaragua","no.skilled.attendant","rural","under5",,,,,,,,5950000
"Nicaragua","no.skilled.attendant","rural","urban",,,,,,,,5950000
"Nicaragua","no.skilled.attendant","secondary","stunted",,,,,,,,5950000
"Nicaragua","no.skilled.attendant","secondary","under5",,,,,,,,5950000
"Nicaragua","no.skilled.attendant","secondary","urban",,,,,,,,5950000
"Nicaragua","no.skilled.attendant","stunted","under5",,,,,,,,5950000
"Nicaragua","no.skilled.attendant","stunted","urban",,,,,,,,5950000
"Nicaragua","no.skilled.attendant","under5","urban",,,,,,,,5950000
"Nicaragua","non.p20","p20","primary",,,,0,,,0,5950000
"Nicaragua","non.p20","p20","rural",87,13,,0,,,0,5950000
"Nicaragua","non.p20","p20","secondary",,,,0,,,0,5950000
"Nicaragua","non.p20","p20","stunted",,,,0,,,0,5950000
"Nicaragua","non.p20","p20","under5",87,13,,0,,,0,5950000
"Nicaragua","non.p20","p20","urban",87,13,,0,,,0,5950000
"Nicaragua","non.p20","primary","rural",,,,,,,,5950000
"Nicaragua","non.p20","primary","secondary",,,,,,,,5950000
"Nicaragua","non.p20","primary","stunted",,,,,,,,5950000
"Nicaragua","non.p20","primary","under5",,,,,,,,5950000
"Nicaragua","non.p20","primary","urban",,,,,,,,5950000
"Nicaragua","non.p20","rural","secondary",,,,,,,,5950000
"Nicaragua","non.p20","rural","stunted",,,,,,,,5950000
"Nicaragua","non.p20","rural","under5",87,,,,,,,5950000
"Nicaragua","non.p20","rural","urban",87,,,,,,,5950000
"Nicaragua","non.p20","secondary","stunted",,,,,,,,5950000
"Nicaragua","non.p20","secondary","under5",,,,,,,,5950000
"Nicaragua","non.p20","secondary","urban",,,,,,,,5950000
"Nicaragua","non.p20","stunted","under5",,,,,,,,5950000
"Nicaragua","non.p20","stunted","urban",,,,,,,,5950000
"Nicaragua","non.p20","under5","urban",87,,,,,,,5950000
"Nicaragua","p20","primary","rural",,,,,,,,5950000
"Nicaragua","p20","primary","secondary",,,,,,,,5950000
"Nicaragua","p20","primary","stunted",,,,,,,,5950000
"Nicaragua","p20","primary","under5",,,,,,,,5950000
"Nicaragua","p20","primary","urban",,,,,,,,5950000
"Nicaragua","p20","rural","secondary",,,,,,,,5950000
"Nicaragua","p20","rural","stunted",,,,,,,,5950000
"Nicaragua","p20","rural","under5",13,,,,,,,5950000
"Nicaragua","p20","rural","urban",13,,,,,,,5950000
"Nicaragua","p20","secondary","stunted",,,,,,,,5950000
"Nicaragua","p20","secondary","under5",,,,,,,,5950000
"Nicaragua","p20","secondary","urban",,,,,,,,5950000
"Nicaragua","p20","stunted","under5",,,,,,,,5950000
"Nicaragua","p20","stunted","urban",,,,,,,,5950000
"Nicaragua","p20","under5","urban",13,,,,,,,5950000
"Nicaragua","primary","rural","secondary",,,,,,,,5950000
"Nicaragua","primary","rural","stunted",,,,,,,,5950000
"Nicaragua","primary","rural","under5",,,,,,,,5950000
"Nicaragua","primary","rural","urban",,,,,,,,5950000
"Nicaragua","primary","secondary","stunted",,,,,,,,5950000
"Nicaragua","primary","secondary","under5",,,,,,,,5950000
"Nicaragua","primary","secondary","urban",,,,,,,,5950000
"Nicaragua","primary","stunted","under5",,,,,,,,5950000
"Nicaragua","primary","stunted","urban",,,,,,,,5950000
"Nicaragua","primary","under5","urban",,,,,,,,5950000
"Nicaragua","rural","secondary","stunted",,,,,,,,5950000
"Nicaragua","rural","secondary","under5",,,,,,,,5950000
"Nicaragua","rural","secondary","urban",,,,,,,,5950000
"Nicaragua","rural","stunted","under5",,,,,,,,5950000
"Nicaragua","rural","stunted","urban",,,,,,,,5950000
"Nicaragua","rural","under5","urban",,,,,,,,5950000
"Nicaragua","secondary","stunted","under5",,,,,,,,5950000
"Nicaragua","secondary","stunted","urban",,,,,,,,5950000
"Nicaragua","secondary","under5","urban",,,,,,,,5950000
"Nicaragua","stunted","under5","urban",,,,,,,,5950000
