"filename","indicator1","indicator2","indicator3","X","Y","Z","X,Y","Y,Z","X,Z","X,Y,Z","pop"
"Netherlands","blank1","blank2","ext",100,100,0,100,0,0,0,16804432
"Netherlands","blank1","blank2","female",100,100,,100,,,,16804432
"Netherlands","blank1","blank2","fifteento49",100,100,,100,,,,16804432
"Netherlands","blank1","blank2","fiveto14",100,100,,100,,,,16804432
"Netherlands","blank1","blank2","gt49",100,100,,100,,,,16804432
"Netherlands","blank1","blank2","higher",,,,,,,,16804432
"Netherlands","blank1","blank2","male",100,100,,100,,,,16804432
"Netherlands","blank1","blank2","no.birth.reg",,,,,,,,16804432
"Netherlands","blank1","blank2","no.educ",,,,,,,,16804432
"Netherlands","blank1","blank2","no.skilled.attendant",,,,,,,,16804432
"Netherlands","blank1","blank2","non.p20",100,100,100,100,100,100,100,16804432
"Netherlands","blank1","blank2","p20",100,100,0,100,0,0,0,16804432
"Netherlands","blank1","blank2","primary",,,,,,,,16804432
"Netherlands","blank1","blank2","rural",100,100,,100,,,,16804432
"Netherlands","blank1","blank2","secondary",,,,,,,,16804432
"Netherlands","blank1","blank2","stunted",,,,,,,,16804432
"Netherlands","blank1","blank2","under5",100,100,,100,,,,16804432
"Netherlands","blank1","blank2","urban",100,100,,100,,,,16804432
"Netherlands","blank1","ext","female",100,0,,0,,,,16804432
"Netherlands","blank1","ext","fifteento49",100,0,,0,,,,16804432
"Netherlands","blank1","ext","fiveto14",100,0,,0,,,,16804432
"Netherlands","blank1","ext","gt49",100,0,,0,,,,16804432
"Netherlands","blank1","ext","higher",,,,,,,,16804432
"Netherlands","blank1","ext","male",100,0,,0,,,,16804432
"Netherlands","blank1","ext","no.birth.reg",,,,,,,,16804432
"Netherlands","blank1","ext","no.educ",,,,,,,,16804432
"Netherlands","blank1","ext","no.skilled.attendant",,,,,,,,16804432
"Netherlands","blank1","ext","non.p20",100,0,100,0,0,100,0,16804432
"Netherlands","blank1","ext","p20",100,0,0,0,0,0,0,16804432
"Netherlands","blank1","ext","primary",,,,,,,,16804432
"Netherlands","blank1","ext","rural",100,0,,0,,,,16804432
"Netherlands","blank1","ext","secondary",,,,,,,,16804432
"Netherlands","blank1","ext","stunted",,,,,,,,16804432
"Netherlands","blank1","ext","under5",100,0,,0,,,,16804432
"Netherlands","blank1","ext","urban",100,0,,0,,,,16804432
"Netherlands","blank1","female","fifteento49",100,,,,,,,16804432
"Netherlands","blank1","female","fiveto14",100,,,,,,,16804432
"Netherlands","blank1","female","gt49",100,,,,,,,16804432
"Netherlands","blank1","female","higher",,,,,,,,16804432
"Netherlands","blank1","female","male",100,,,,,,,16804432
"Netherlands","blank1","female","no.birth.reg",,,,,,,,16804432
"Netherlands","blank1","female","no.educ",,,,,,,,16804432
"Netherlands","blank1","female","no.skilled.attendant",,,,,,,,16804432
"Netherlands","blank1","female","non.p20",100,,100,,,100,,16804432
"Netherlands","blank1","female","p20",100,,0,,,0,,16804432
"Netherlands","blank1","female","primary",,,,,,,,16804432
"Netherlands","blank1","female","rural",100,,,,,,,16804432
"Netherlands","blank1","female","secondary",,,,,,,,16804432
"Netherlands","blank1","female","stunted",,,,,,,,16804432
"Netherlands","blank1","female","under5",100,,,,,,,16804432
"Netherlands","blank1","female","urban",100,,,,,,,16804432
"Netherlands","blank1","fifteento49","fiveto14",100,,,,,,,16804432
"Netherlands","blank1","fifteento49","gt49",100,,,,,,,16804432
"Netherlands","blank1","fifteento49","higher",,,,,,,,16804432
"Netherlands","blank1","fifteento49","male",100,,,,,,,16804432
"Netherlands","blank1","fifteento49","no.birth.reg",,,,,,,,16804432
"Netherlands","blank1","fifteento49","no.educ",,,,,,,,16804432
"Netherlands","blank1","fifteento49","no.skilled.attendant",,,,,,,,16804432
"Netherlands","blank1","fifteento49","non.p20",100,,100,,,100,,16804432
"Netherlands","blank1","fifteento49","p20",100,,0,,,0,,16804432
"Netherlands","blank1","fifteento49","primary",,,,,,,,16804432
"Netherlands","blank1","fifteento49","rural",100,,,,,,,16804432
"Netherlands","blank1","fifteento49","secondary",,,,,,,,16804432
"Netherlands","blank1","fifteento49","stunted",,,,,,,,16804432
"Netherlands","blank1","fifteento49","under5",100,,,,,,,16804432
"Netherlands","blank1","fifteento49","urban",100,,,,,,,16804432
"Netherlands","blank1","fiveto14","gt49",100,,,,,,,16804432
"Netherlands","blank1","fiveto14","higher",,,,,,,,16804432
"Netherlands","blank1","fiveto14","male",100,,,,,,,16804432
"Netherlands","blank1","fiveto14","no.birth.reg",,,,,,,,16804432
"Netherlands","blank1","fiveto14","no.educ",,,,,,,,16804432
"Netherlands","blank1","fiveto14","no.skilled.attendant",,,,,,,,16804432
"Netherlands","blank1","fiveto14","non.p20",100,,100,,,100,,16804432
"Netherlands","blank1","fiveto14","p20",100,,0,,,0,,16804432
"Netherlands","blank1","fiveto14","primary",,,,,,,,16804432
"Netherlands","blank1","fiveto14","rural",100,,,,,,,16804432
"Netherlands","blank1","fiveto14","secondary",,,,,,,,16804432
"Netherlands","blank1","fiveto14","stunted",,,,,,,,16804432
"Netherlands","blank1","fiveto14","under5",100,,,,,,,16804432
"Netherlands","blank1","fiveto14","urban",100,,,,,,,16804432
"Netherlands","blank1","gt49","higher",,,,,,,,16804432
"Netherlands","blank1","gt49","male",100,,,,,,,16804432
"Netherlands","blank1","gt49","no.birth.reg",,,,,,,,16804432
"Netherlands","blank1","gt49","no.educ",,,,,,,,16804432
"Netherlands","blank1","gt49","no.skilled.attendant",,,,,,,,16804432
"Netherlands","blank1","gt49","non.p20",100,,100,,,100,,16804432
"Netherlands","blank1","gt49","p20",100,,0,,,0,,16804432
"Netherlands","blank1","gt49","primary",,,,,,,,16804432
"Netherlands","blank1","gt49","rural",100,,,,,,,16804432
"Netherlands","blank1","gt49","secondary",,,,,,,,16804432
"Netherlands","blank1","gt49","stunted",,,,,,,,16804432
"Netherlands","blank1","gt49","under5",100,,,,,,,16804432
"Netherlands","blank1","gt49","urban",100,,,,,,,16804432
"Netherlands","blank1","higher","male",,,,,,,,16804432
"Netherlands","blank1","higher","no.birth.reg",,,,,,,,16804432
"Netherlands","blank1","higher","no.educ",,,,,,,,16804432
"Netherlands","blank1","higher","no.skilled.attendant",,,,,,,,16804432
"Netherlands","blank1","higher","non.p20",,,,,,,,16804432
"Netherlands","blank1","higher","p20",,,,,,,,16804432
"Netherlands","blank1","higher","primary",,,,,,,,16804432
"Netherlands","blank1","higher","rural",,,,,,,,16804432
"Netherlands","blank1","higher","secondary",,,,,,,,16804432
"Netherlands","blank1","higher","stunted",,,,,,,,16804432
"Netherlands","blank1","higher","under5",,,,,,,,16804432
"Netherlands","blank1","higher","urban",,,,,,,,16804432
"Netherlands","blank1","male","no.birth.reg",,,,,,,,16804432
"Netherlands","blank1","male","no.educ",,,,,,,,16804432
"Netherlands","blank1","male","no.skilled.attendant",,,,,,,,16804432
"Netherlands","blank1","male","non.p20",100,,100,,,100,,16804432
"Netherlands","blank1","male","p20",100,,0,,,0,,16804432
"Netherlands","blank1","male","primary",,,,,,,,16804432
"Netherlands","blank1","male","rural",100,,,,,,,16804432
"Netherlands","blank1","male","secondary",,,,,,,,16804432
"Netherlands","blank1","male","stunted",,,,,,,,16804432
"Netherlands","blank1","male","under5",100,,,,,,,16804432
"Netherlands","blank1","male","urban",100,,,,,,,16804432
"Netherlands","blank1","no.birth.reg","no.educ",,,,,,,,16804432
"Netherlands","blank1","no.birth.reg","no.skilled.attendant",,,,,,,,16804432
"Netherlands","blank1","no.birth.reg","non.p20",,,,,,,,16804432
"Netherlands","blank1","no.birth.reg","p20",,,,,,,,16804432
"Netherlands","blank1","no.birth.reg","primary",,,,,,,,16804432
"Netherlands","blank1","no.birth.reg","rural",,,,,,,,16804432
"Netherlands","blank1","no.birth.reg","secondary",,,,,,,,16804432
"Netherlands","blank1","no.birth.reg","stunted",,,,,,,,16804432
"Netherlands","blank1","no.birth.reg","under5",,,,,,,,16804432
"Netherlands","blank1","no.birth.reg","urban",,,,,,,,16804432
"Netherlands","blank1","no.educ","no.skilled.attendant",,,,,,,,16804432
"Netherlands","blank1","no.educ","non.p20",,,,,,,,16804432
"Netherlands","blank1","no.educ","p20",,,,,,,,16804432
"Netherlands","blank1","no.educ","primary",,,,,,,,16804432
"Netherlands","blank1","no.educ","rural",,,,,,,,16804432
"Netherlands","blank1","no.educ","secondary",,,,,,,,16804432
"Netherlands","blank1","no.educ","stunted",,,,,,,,16804432
"Netherlands","blank1","no.educ","under5",,,,,,,,16804432
"Netherlands","blank1","no.educ","urban",,,,,,,,16804432
"Netherlands","blank1","no.skilled.attendant","non.p20",,,,,,,,16804432
"Netherlands","blank1","no.skilled.attendant","p20",,,,,,,,16804432
"Netherlands","blank1","no.skilled.attendant","primary",,,,,,,,16804432
"Netherlands","blank1","no.skilled.attendant","rural",,,,,,,,16804432
"Netherlands","blank1","no.skilled.attendant","secondary",,,,,,,,16804432
"Netherlands","blank1","no.skilled.attendant","stunted",,,,,,,,16804432
"Netherlands","blank1","no.skilled.attendant","under5",,,,,,,,16804432
"Netherlands","blank1","no.skilled.attendant","urban",,,,,,,,16804432
"Netherlands","blank1","non.p20","p20",100,100,0,100,0,0,0,16804432
"Netherlands","blank1","non.p20","primary",,,,,,,,16804432
"Netherlands","blank1","non.p20","rural",100,100,,100,,,,16804432
"Netherlands","blank1","non.p20","secondary",,,,,,,,16804432
"Netherlands","blank1","non.p20","stunted",,,,,,,,16804432
"Netherlands","blank1","non.p20","under5",100,100,,100,,,,16804432
"Netherlands","blank1","non.p20","urban",100,100,,100,,,,16804432
"Netherlands","blank1","p20","primary",,,,,,,,16804432
"Netherlands","blank1","p20","rural",100,0,,0,,,,16804432
"Netherlands","blank1","p20","secondary",,,,,,,,16804432
"Netherlands","blank1","p20","stunted",,,,,,,,16804432
"Netherlands","blank1","p20","under5",100,0,,0,,,,16804432
"Netherlands","blank1","p20","urban",100,0,,0,,,,16804432
"Netherlands","blank1","primary","rural",,,,,,,,16804432
"Netherlands","blank1","primary","secondary",,,,,,,,16804432
"Netherlands","blank1","primary","stunted",,,,,,,,16804432
"Netherlands","blank1","primary","under5",,,,,,,,16804432
"Netherlands","blank1","primary","urban",,,,,,,,16804432
"Netherlands","blank1","rural","secondary",,,,,,,,16804432
"Netherlands","blank1","rural","stunted",,,,,,,,16804432
"Netherlands","blank1","rural","under5",100,,,,,,,16804432
"Netherlands","blank1","rural","urban",100,,,,,,,16804432
"Netherlands","blank1","secondary","stunted",,,,,,,,16804432
"Netherlands","blank1","secondary","under5",,,,,,,,16804432
"Netherlands","blank1","secondary","urban",,,,,,,,16804432
"Netherlands","blank1","stunted","under5",,,,,,,,16804432
"Netherlands","blank1","stunted","urban",,,,,,,,16804432
"Netherlands","blank1","under5","urban",100,,,,,,,16804432
"Netherlands","blank2","ext","female",100,0,,0,,,,16804432
"Netherlands","blank2","ext","fifteento49",100,0,,0,,,,16804432
"Netherlands","blank2","ext","fiveto14",100,0,,0,,,,16804432
"Netherlands","blank2","ext","gt49",100,0,,0,,,,16804432
"Netherlands","blank2","ext","higher",,,,,,,,16804432
"Netherlands","blank2","ext","male",100,0,,0,,,,16804432
"Netherlands","blank2","ext","no.birth.reg",,,,,,,,16804432
"Netherlands","blank2","ext","no.educ",,,,,,,,16804432
"Netherlands","blank2","ext","no.skilled.attendant",,,,,,,,16804432
"Netherlands","blank2","ext","non.p20",100,0,100,0,0,100,0,16804432
"Netherlands","blank2","ext","p20",100,0,0,0,0,0,0,16804432
"Netherlands","blank2","ext","primary",,,,,,,,16804432
"Netherlands","blank2","ext","rural",100,0,,0,,,,16804432
"Netherlands","blank2","ext","secondary",,,,,,,,16804432
"Netherlands","blank2","ext","stunted",,,,,,,,16804432
"Netherlands","blank2","ext","under5",100,0,,0,,,,16804432
"Netherlands","blank2","ext","urban",100,0,,0,,,,16804432
"Netherlands","blank2","female","fifteento49",100,,,,,,,16804432
"Netherlands","blank2","female","fiveto14",100,,,,,,,16804432
"Netherlands","blank2","female","gt49",100,,,,,,,16804432
"Netherlands","blank2","female","higher",,,,,,,,16804432
"Netherlands","blank2","female","male",100,,,,,,,16804432
"Netherlands","blank2","female","no.birth.reg",,,,,,,,16804432
"Netherlands","blank2","female","no.educ",,,,,,,,16804432
"Netherlands","blank2","female","no.skilled.attendant",,,,,,,,16804432
"Netherlands","blank2","female","non.p20",100,,100,,,100,,16804432
"Netherlands","blank2","female","p20",100,,0,,,0,,16804432
"Netherlands","blank2","female","primary",,,,,,,,16804432
"Netherlands","blank2","female","rural",100,,,,,,,16804432
"Netherlands","blank2","female","secondary",,,,,,,,16804432
"Netherlands","blank2","female","stunted",,,,,,,,16804432
"Netherlands","blank2","female","under5",100,,,,,,,16804432
"Netherlands","blank2","female","urban",100,,,,,,,16804432
"Netherlands","blank2","fifteento49","fiveto14",100,,,,,,,16804432
"Netherlands","blank2","fifteento49","gt49",100,,,,,,,16804432
"Netherlands","blank2","fifteento49","higher",,,,,,,,16804432
"Netherlands","blank2","fifteento49","male",100,,,,,,,16804432
"Netherlands","blank2","fifteento49","no.birth.reg",,,,,,,,16804432
"Netherlands","blank2","fifteento49","no.educ",,,,,,,,16804432
"Netherlands","blank2","fifteento49","no.skilled.attendant",,,,,,,,16804432
"Netherlands","blank2","fifteento49","non.p20",100,,100,,,100,,16804432
"Netherlands","blank2","fifteento49","p20",100,,0,,,0,,16804432
"Netherlands","blank2","fifteento49","primary",,,,,,,,16804432
"Netherlands","blank2","fifteento49","rural",100,,,,,,,16804432
"Netherlands","blank2","fifteento49","secondary",,,,,,,,16804432
"Netherlands","blank2","fifteento49","stunted",,,,,,,,16804432
"Netherlands","blank2","fifteento49","under5",100,,,,,,,16804432
"Netherlands","blank2","fifteento49","urban",100,,,,,,,16804432
"Netherlands","blank2","fiveto14","gt49",100,,,,,,,16804432
"Netherlands","blank2","fiveto14","higher",,,,,,,,16804432
"Netherlands","blank2","fiveto14","male",100,,,,,,,16804432
"Netherlands","blank2","fiveto14","no.birth.reg",,,,,,,,16804432
"Netherlands","blank2","fiveto14","no.educ",,,,,,,,16804432
"Netherlands","blank2","fiveto14","no.skilled.attendant",,,,,,,,16804432
"Netherlands","blank2","fiveto14","non.p20",100,,100,,,100,,16804432
"Netherlands","blank2","fiveto14","p20",100,,0,,,0,,16804432
"Netherlands","blank2","fiveto14","primary",,,,,,,,16804432
"Netherlands","blank2","fiveto14","rural",100,,,,,,,16804432
"Netherlands","blank2","fiveto14","secondary",,,,,,,,16804432
"Netherlands","blank2","fiveto14","stunted",,,,,,,,16804432
"Netherlands","blank2","fiveto14","under5",100,,,,,,,16804432
"Netherlands","blank2","fiveto14","urban",100,,,,,,,16804432
"Netherlands","blank2","gt49","higher",,,,,,,,16804432
"Netherlands","blank2","gt49","male",100,,,,,,,16804432
"Netherlands","blank2","gt49","no.birth.reg",,,,,,,,16804432
"Netherlands","blank2","gt49","no.educ",,,,,,,,16804432
"Netherlands","blank2","gt49","no.skilled.attendant",,,,,,,,16804432
"Netherlands","blank2","gt49","non.p20",100,,100,,,100,,16804432
"Netherlands","blank2","gt49","p20",100,,0,,,0,,16804432
"Netherlands","blank2","gt49","primary",,,,,,,,16804432
"Netherlands","blank2","gt49","rural",100,,,,,,,16804432
"Netherlands","blank2","gt49","secondary",,,,,,,,16804432
"Netherlands","blank2","gt49","stunted",,,,,,,,16804432
"Netherlands","blank2","gt49","under5",100,,,,,,,16804432
"Netherlands","blank2","gt49","urban",100,,,,,,,16804432
"Netherlands","blank2","higher","male",,,,,,,,16804432
"Netherlands","blank2","higher","no.birth.reg",,,,,,,,16804432
"Netherlands","blank2","higher","no.educ",,,,,,,,16804432
"Netherlands","blank2","higher","no.skilled.attendant",,,,,,,,16804432
"Netherlands","blank2","higher","non.p20",,,,,,,,16804432
"Netherlands","blank2","higher","p20",,,,,,,,16804432
"Netherlands","blank2","higher","primary",,,,,,,,16804432
"Netherlands","blank2","higher","rural",,,,,,,,16804432
"Netherlands","blank2","higher","secondary",,,,,,,,16804432
"Netherlands","blank2","higher","stunted",,,,,,,,16804432
"Netherlands","blank2","higher","under5",,,,,,,,16804432
"Netherlands","blank2","higher","urban",,,,,,,,16804432
"Netherlands","blank2","male","no.birth.reg",,,,,,,,16804432
"Netherlands","blank2","male","no.educ",,,,,,,,16804432
"Netherlands","blank2","male","no.skilled.attendant",,,,,,,,16804432
"Netherlands","blank2","male","non.p20",100,,100,,,100,,16804432
"Netherlands","blank2","male","p20",100,,0,,,0,,16804432
"Netherlands","blank2","male","primary",,,,,,,,16804432
"Netherlands","blank2","male","rural",100,,,,,,,16804432
"Netherlands","blank2","male","secondary",,,,,,,,16804432
"Netherlands","blank2","male","stunted",,,,,,,,16804432
"Netherlands","blank2","male","under5",100,,,,,,,16804432
"Netherlands","blank2","male","urban",100,,,,,,,16804432
"Netherlands","blank2","no.birth.reg","no.educ",,,,,,,,16804432
"Netherlands","blank2","no.birth.reg","no.skilled.attendant",,,,,,,,16804432
"Netherlands","blank2","no.birth.reg","non.p20",,,,,,,,16804432
"Netherlands","blank2","no.birth.reg","p20",,,,,,,,16804432
"Netherlands","blank2","no.birth.reg","primary",,,,,,,,16804432
"Netherlands","blank2","no.birth.reg","rural",,,,,,,,16804432
"Netherlands","blank2","no.birth.reg","secondary",,,,,,,,16804432
"Netherlands","blank2","no.birth.reg","stunted",,,,,,,,16804432
"Netherlands","blank2","no.birth.reg","under5",,,,,,,,16804432
"Netherlands","blank2","no.birth.reg","urban",,,,,,,,16804432
"Netherlands","blank2","no.educ","no.skilled.attendant",,,,,,,,16804432
"Netherlands","blank2","no.educ","non.p20",,,,,,,,16804432
"Netherlands","blank2","no.educ","p20",,,,,,,,16804432
"Netherlands","blank2","no.educ","primary",,,,,,,,16804432
"Netherlands","blank2","no.educ","rural",,,,,,,,16804432
"Netherlands","blank2","no.educ","secondary",,,,,,,,16804432
"Netherlands","blank2","no.educ","stunted",,,,,,,,16804432
"Netherlands","blank2","no.educ","under5",,,,,,,,16804432
"Netherlands","blank2","no.educ","urban",,,,,,,,16804432
"Netherlands","blank2","no.skilled.attendant","non.p20",,,,,,,,16804432
"Netherlands","blank2","no.skilled.attendant","p20",,,,,,,,16804432
"Netherlands","blank2","no.skilled.attendant","primary",,,,,,,,16804432
"Netherlands","blank2","no.skilled.attendant","rural",,,,,,,,16804432
"Netherlands","blank2","no.skilled.attendant","secondary",,,,,,,,16804432
"Netherlands","blank2","no.skilled.attendant","stunted",,,,,,,,16804432
"Netherlands","blank2","no.skilled.attendant","under5",,,,,,,,16804432
"Netherlands","blank2","no.skilled.attendant","urban",,,,,,,,16804432
"Netherlands","blank2","non.p20","p20",100,100,0,100,0,0,0,16804432
"Netherlands","blank2","non.p20","primary",,,,,,,,16804432
"Netherlands","blank2","non.p20","rural",100,100,,100,,,,16804432
"Netherlands","blank2","non.p20","secondary",,,,,,,,16804432
"Netherlands","blank2","non.p20","stunted",,,,,,,,16804432
"Netherlands","blank2","non.p20","under5",100,100,,100,,,,16804432
"Netherlands","blank2","non.p20","urban",100,100,,100,,,,16804432
"Netherlands","blank2","p20","primary",,,,,,,,16804432
"Netherlands","blank2","p20","rural",100,0,,0,,,,16804432
"Netherlands","blank2","p20","secondary",,,,,,,,16804432
"Netherlands","blank2","p20","stunted",,,,,,,,16804432
"Netherlands","blank2","p20","under5",100,0,,0,,,,16804432
"Netherlands","blank2","p20","urban",100,0,,0,,,,16804432
"Netherlands","blank2","primary","rural",,,,,,,,16804432
"Netherlands","blank2","primary","secondary",,,,,,,,16804432
"Netherlands","blank2","primary","stunted",,,,,,,,16804432
"Netherlands","blank2","primary","under5",,,,,,,,16804432
"Netherlands","blank2","primary","urban",,,,,,,,16804432
"Netherlands","blank2","rural","secondary",,,,,,,,16804432
"Netherlands","blank2","rural","stunted",,,,,,,,16804432
"Netherlands","blank2","rural","under5",100,,,,,,,16804432
"Netherlands","blank2","rural","urban",100,,,,,,,16804432
"Netherlands","blank2","secondary","stunted",,,,,,,,16804432
"Netherlands","blank2","secondary","under5",,,,,,,,16804432
"Netherlands","blank2","secondary","urban",,,,,,,,16804432
"Netherlands","blank2","stunted","under5",,,,,,,,16804432
"Netherlands","blank2","stunted","urban",,,,,,,,16804432
"Netherlands","blank2","under5","urban",100,,,,,,,16804432
"Netherlands","ext","female","fifteento49",0,,,,,,,16804432
"Netherlands","ext","female","fiveto14",0,,,,,,,16804432
"Netherlands","ext","female","gt49",0,,,,,,,16804432
"Netherlands","ext","female","higher",,,,,,,,16804432
"Netherlands","ext","female","male",0,,,,,,,16804432
"Netherlands","ext","female","no.birth.reg",,,,,,,,16804432
"Netherlands","ext","female","no.educ",,,,,,,,16804432
"Netherlands","ext","female","no.skilled.attendant",,,,,,,,16804432
"Netherlands","ext","female","non.p20",0,,100,,,0,0,16804432
"Netherlands","ext","female","p20",0,,0,,,0,,16804432
"Netherlands","ext","female","primary",,,,,,,,16804432
"Netherlands","ext","female","rural",0,,,,,,,16804432
"Netherlands","ext","female","secondary",,,,,,,,16804432
"Netherlands","ext","female","stunted",,,,,,,,16804432
"Netherlands","ext","female","under5",0,,,,,,,16804432
"Netherlands","ext","female","urban",0,,,,,,,16804432
"Netherlands","ext","fifteento49","fiveto14",0,,,,,,,16804432
"Netherlands","ext","fifteento49","gt49",0,,,,,,,16804432
"Netherlands","ext","fifteento49","higher",,,,,,,,16804432
"Netherlands","ext","fifteento49","male",0,,,,,,,16804432
"Netherlands","ext","fifteento49","no.birth.reg",,,,,,,,16804432
"Netherlands","ext","fifteento49","no.educ",,,,,,,,16804432
"Netherlands","ext","fifteento49","no.skilled.attendant",,,,,,,,16804432
"Netherlands","ext","fifteento49","non.p20",0,,100,,,0,0,16804432
"Netherlands","ext","fifteento49","p20",0,,0,,,0,,16804432
"Netherlands","ext","fifteento49","primary",,,,,,,,16804432
"Netherlands","ext","fifteento49","rural",0,,,,,,,16804432
"Netherlands","ext","fifteento49","secondary",,,,,,,,16804432
"Netherlands","ext","fifteento49","stunted",,,,,,,,16804432
"Netherlands","ext","fifteento49","under5",0,,,,,,,16804432
"Netherlands","ext","fifteento49","urban",0,,,,,,,16804432
"Netherlands","ext","fiveto14","gt49",0,,,,,,,16804432
"Netherlands","ext","fiveto14","higher",,,,,,,,16804432
"Netherlands","ext","fiveto14","male",0,,,,,,,16804432
"Netherlands","ext","fiveto14","no.birth.reg",,,,,,,,16804432
"Netherlands","ext","fiveto14","no.educ",,,,,,,,16804432
"Netherlands","ext","fiveto14","no.skilled.attendant",,,,,,,,16804432
"Netherlands","ext","fiveto14","non.p20",0,,100,,,0,0,16804432
"Netherlands","ext","fiveto14","p20",0,,0,,,0,,16804432
"Netherlands","ext","fiveto14","primary",,,,,,,,16804432
"Netherlands","ext","fiveto14","rural",0,,,,,,,16804432
"Netherlands","ext","fiveto14","secondary",,,,,,,,16804432
"Netherlands","ext","fiveto14","stunted",,,,,,,,16804432
"Netherlands","ext","fiveto14","under5",0,,,,,,,16804432
"Netherlands","ext","fiveto14","urban",0,,,,,,,16804432
"Netherlands","ext","gt49","higher",,,,,,,,16804432
"Netherlands","ext","gt49","male",0,,,,,,,16804432
"Netherlands","ext","gt49","no.birth.reg",,,,,,,,16804432
"Netherlands","ext","gt49","no.educ",,,,,,,,16804432
"Netherlands","ext","gt49","no.skilled.attendant",,,,,,,,16804432
"Netherlands","ext","gt49","non.p20",0,,100,,,0,0,16804432
"Netherlands","ext","gt49","p20",0,,0,,,0,,16804432
"Netherlands","ext","gt49","primary",,,,,,,,16804432
"Netherlands","ext","gt49","rural",0,,,,,,,16804432
"Netherlands","ext","gt49","secondary",,,,,,,,16804432
"Netherlands","ext","gt49","stunted",,,,,,,,16804432
"Netherlands","ext","gt49","under5",0,,,,,,,16804432
"Netherlands","ext","gt49","urban",0,,,,,,,16804432
"Netherlands","ext","higher","male",,,,,,,,16804432
"Netherlands","ext","higher","no.birth.reg",,,,,,,,16804432
"Netherlands","ext","higher","no.educ",,,,,,,,16804432
"Netherlands","ext","higher","no.skilled.attendant",,,,,,,,16804432
"Netherlands","ext","higher","non.p20",,,,,,0,0,16804432
"Netherlands","ext","higher","p20",,,,,,,,16804432
"Netherlands","ext","higher","primary",,,,,,,,16804432
"Netherlands","ext","higher","rural",,,,,,,,16804432
"Netherlands","ext","higher","secondary",,,,,,,,16804432
"Netherlands","ext","higher","stunted",,,,,,,,16804432
"Netherlands","ext","higher","under5",,,,,,,,16804432
"Netherlands","ext","higher","urban",,,,,,,,16804432
"Netherlands","ext","male","no.birth.reg",,,,,,,,16804432
"Netherlands","ext","male","no.educ",,,,,,,,16804432
"Netherlands","ext","male","no.skilled.attendant",,,,,,,,16804432
"Netherlands","ext","male","non.p20",0,,100,,,0,0,16804432
"Netherlands","ext","male","p20",0,,0,,,0,,16804432
"Netherlands","ext","male","primary",,,,,,,,16804432
"Netherlands","ext","male","rural",0,,,,,,,16804432
"Netherlands","ext","male","secondary",,,,,,,,16804432
"Netherlands","ext","male","stunted",,,,,,,,16804432
"Netherlands","ext","male","under5",0,,,,,,,16804432
"Netherlands","ext","male","urban",0,,,,,,,16804432
"Netherlands","ext","no.birth.reg","no.educ",,,,,,,,16804432
"Netherlands","ext","no.birth.reg","no.skilled.attendant",,,,,,,,16804432
"Netherlands","ext","no.birth.reg","non.p20",,,,,,0,0,16804432
"Netherlands","ext","no.birth.reg","p20",,,,,,,,16804432
"Netherlands","ext","no.birth.reg","primary",,,,,,,,16804432
"Netherlands","ext","no.birth.reg","rural",,,,,,,,16804432
"Netherlands","ext","no.birth.reg","secondary",,,,,,,,16804432
"Netherlands","ext","no.birth.reg","stunted",,,,,,,,16804432
"Netherlands","ext","no.birth.reg","under5",,,,,,,,16804432
"Netherlands","ext","no.birth.reg","urban",,,,,,,,16804432
"Netherlands","ext","no.educ","no.skilled.attendant",,,,,,,,16804432
"Netherlands","ext","no.educ","non.p20",,,,,,0,0,16804432
"Netherlands","ext","no.educ","p20",,,,,,,,16804432
"Netherlands","ext","no.educ","primary",,,,,,,,16804432
"Netherlands","ext","no.educ","rural",,,,,,,,16804432
"Netherlands","ext","no.educ","secondary",,,,,,,,16804432
"Netherlands","ext","no.educ","stunted",,,,,,,,16804432
"Netherlands","ext","no.educ","under5",,,,,,,,16804432
"Netherlands","ext","no.educ","urban",,,,,,,,16804432
"Netherlands","ext","no.skilled.attendant","non.p20",,,,,,0,0,16804432
"Netherlands","ext","no.skilled.attendant","p20",,,,,,,,16804432
"Netherlands","ext","no.skilled.attendant","primary",,,,,,,,16804432
"Netherlands","ext","no.skilled.attendant","rural",,,,,,,,16804432
"Netherlands","ext","no.skilled.attendant","secondary",,,,,,,,16804432
"Netherlands","ext","no.skilled.attendant","stunted",,,,,,,,16804432
"Netherlands","ext","no.skilled.attendant","under5",,,,,,,,16804432
"Netherlands","ext","no.skilled.attendant","urban",,,,,,,,16804432
"Netherlands","ext","non.p20","p20",0,100,0,0,0,0,0,16804432
"Netherlands","ext","non.p20","primary",,,,0,,,0,16804432
"Netherlands","ext","non.p20","rural",0,100,,0,,,0,16804432
"Netherlands","ext","non.p20","secondary",,,,0,,,0,16804432
"Netherlands","ext","non.p20","stunted",,,,0,,,0,16804432
"Netherlands","ext","non.p20","under5",0,100,,0,,,0,16804432
"Netherlands","ext","non.p20","urban",0,100,,0,,,0,16804432
"Netherlands","ext","p20","primary",,,,,,,,16804432
"Netherlands","ext","p20","rural",0,0,,0,,,,16804432
"Netherlands","ext","p20","secondary",,,,,,,,16804432
"Netherlands","ext","p20","stunted",,,,,,,,16804432
"Netherlands","ext","p20","under5",0,0,,0,,,,16804432
"Netherlands","ext","p20","urban",0,0,,0,,,,16804432
"Netherlands","ext","primary","rural",,,,,,,,16804432
"Netherlands","ext","primary","secondary",,,,,,,,16804432
"Netherlands","ext","primary","stunted",,,,,,,,16804432
"Netherlands","ext","primary","under5",,,,,,,,16804432
"Netherlands","ext","primary","urban",,,,,,,,16804432
"Netherlands","ext","rural","secondary",,,,,,,,16804432
"Netherlands","ext","rural","stunted",,,,,,,,16804432
"Netherlands","ext","rural","under5",0,,,,,,,16804432
"Netherlands","ext","rural","urban",0,,,,,,,16804432
"Netherlands","ext","secondary","stunted",,,,,,,,16804432
"Netherlands","ext","secondary","under5",,,,,,,,16804432
"Netherlands","ext","secondary","urban",,,,,,,,16804432
"Netherlands","ext","stunted","under5",,,,,,,,16804432
"Netherlands","ext","stunted","urban",,,,,,,,16804432
"Netherlands","ext","under5","urban",0,,,,,,,16804432
"Netherlands","female","fifteento49","fiveto14",,,,,,,,16804432
"Netherlands","female","fifteento49","gt49",,,,,,,,16804432
"Netherlands","female","fifteento49","higher",,,,,,,,16804432
"Netherlands","female","fifteento49","male",,,,,,,,16804432
"Netherlands","female","fifteento49","no.birth.reg",,,,,,,,16804432
"Netherlands","female","fifteento49","no.educ",,,,,,,,16804432
"Netherlands","female","fifteento49","no.skilled.attendant",,,,,,,,16804432
"Netherlands","female","fifteento49","non.p20",,,100,,,,,16804432
"Netherlands","female","fifteento49","p20",,,0,,,,,16804432
"Netherlands","female","fifteento49","primary",,,,,,,,16804432
"Netherlands","female","fifteento49","rural",,,,,,,,16804432
"Netherlands","female","fifteento49","secondary",,,,,,,,16804432
"Netherlands","female","fifteento49","stunted",,,,,,,,16804432
"Netherlands","female","fifteento49","under5",,,,,,,,16804432
"Netherlands","female","fifteento49","urban",,,,,,,,16804432
"Netherlands","female","fiveto14","gt49",,,,,,,,16804432
"Netherlands","female","fiveto14","higher",,,,,,,,16804432
"Netherlands","female","fiveto14","male",,,,,,,,16804432
"Netherlands","female","fiveto14","no.birth.reg",,,,,,,,16804432
"Netherlands","female","fiveto14","no.educ",,,,,,,,16804432
"Netherlands","female","fiveto14","no.skilled.attendant",,,,,,,,16804432
"Netherlands","female","fiveto14","non.p20",,,100,,,,,16804432
"Netherlands","female","fiveto14","p20",,,0,,,,,16804432
"Netherlands","female","fiveto14","primary",,,,,,,,16804432
"Netherlands","female","fiveto14","rural",,,,,,,,16804432
"Netherlands","female","fiveto14","secondary",,,,,,,,16804432
"Netherlands","female","fiveto14","stunted",,,,,,,,16804432
"Netherlands","female","fiveto14","under5",,,,,,,,16804432
"Netherlands","female","fiveto14","urban",,,,,,,,16804432
"Netherlands","female","gt49","higher",,,,,,,,16804432
"Netherlands","female","gt49","male",,,,,,,,16804432
"Netherlands","female","gt49","no.birth.reg",,,,,,,,16804432
"Netherlands","female","gt49","no.educ",,,,,,,,16804432
"Netherlands","female","gt49","no.skilled.attendant",,,,,,,,16804432
"Netherlands","female","gt49","non.p20",,,100,,,,,16804432
"Netherlands","female","gt49","p20",,,0,,,,,16804432
"Netherlands","female","gt49","primary",,,,,,,,16804432
"Netherlands","female","gt49","rural",,,,,,,,16804432
"Netherlands","female","gt49","secondary",,,,,,,,16804432
"Netherlands","female","gt49","stunted",,,,,,,,16804432
"Netherlands","female","gt49","under5",,,,,,,,16804432
"Netherlands","female","gt49","urban",,,,,,,,16804432
"Netherlands","female","higher","male",,,,,,,,16804432
"Netherlands","female","higher","no.birth.reg",,,,,,,,16804432
"Netherlands","female","higher","no.educ",,,,,,,,16804432
"Netherlands","female","higher","no.skilled.attendant",,,,,,,,16804432
"Netherlands","female","higher","non.p20",,,,,,,,16804432
"Netherlands","female","higher","p20",,,,,,,,16804432
"Netherlands","female","higher","primary",,,,,,,,16804432
"Netherlands","female","higher","rural",,,,,,,,16804432
"Netherlands","female","higher","secondary",,,,,,,,16804432
"Netherlands","female","higher","stunted",,,,,,,,16804432
"Netherlands","female","higher","under5",,,,,,,,16804432
"Netherlands","female","higher","urban",,,,,,,,16804432
"Netherlands","female","male","no.birth.reg",,,,,,,,16804432
"Netherlands","female","male","no.educ",,,,,,,,16804432
"Netherlands","female","male","no.skilled.attendant",,,,,,,,16804432
"Netherlands","female","male","non.p20",,,100,,,,,16804432
"Netherlands","female","male","p20",,,0,,,,,16804432
"Netherlands","female","male","primary",,,,,,,,16804432
"Netherlands","female","male","rural",,,,,,,,16804432
"Netherlands","female","male","secondary",,,,,,,,16804432
"Netherlands","female","male","stunted",,,,,,,,16804432
"Netherlands","female","male","under5",,,,,,,,16804432
"Netherlands","female","male","urban",,,,,,,,16804432
"Netherlands","female","no.birth.reg","no.educ",,,,,,,,16804432
"Netherlands","female","no.birth.reg","no.skilled.attendant",,,,,,,,16804432
"Netherlands","female","no.birth.reg","non.p20",,,,,,,,16804432
"Netherlands","female","no.birth.reg","p20",,,,,,,,16804432
"Netherlands","female","no.birth.reg","primary",,,,,,,,16804432
"Netherlands","female","no.birth.reg","rural",,,,,,,,16804432
"Netherlands","female","no.birth.reg","secondary",,,,,,,,16804432
"Netherlands","female","no.birth.reg","stunted",,,,,,,,16804432
"Netherlands","female","no.birth.reg","under5",,,,,,,,16804432
"Netherlands","female","no.birth.reg","urban",,,,,,,,16804432
"Netherlands","female","no.educ","no.skilled.attendant",,,,,,,,16804432
"Netherlands","female","no.educ","non.p20",,,,,,,,16804432
"Netherlands","female","no.educ","p20",,,,,,,,16804432
"Netherlands","female","no.educ","primary",,,,,,,,16804432
"Netherlands","female","no.educ","rural",,,,,,,,16804432
"Netherlands","female","no.educ","secondary",,,,,,,,16804432
"Netherlands","female","no.educ","stunted",,,,,,,,16804432
"Netherlands","female","no.educ","under5",,,,,,,,16804432
"Netherlands","female","no.educ","urban",,,,,,,,16804432
"Netherlands","female","no.skilled.attendant","non.p20",,,,,,,,16804432
"Netherlands","female","no.skilled.attendant","p20",,,,,,,,16804432
"Netherlands","female","no.skilled.attendant","primary",,,,,,,,16804432
"Netherlands","female","no.skilled.attendant","rural",,,,,,,,16804432
"Netherlands","female","no.skilled.attendant","secondary",,,,,,,,16804432
"Netherlands","female","no.skilled.attendant","stunted",,,,,,,,16804432
"Netherlands","female","no.skilled.attendant","under5",,,,,,,,16804432
"Netherlands","female","no.skilled.attendant","urban",,,,,,,,16804432
"Netherlands","female","non.p20","p20",,100,0,,0,,0,16804432
"Netherlands","female","non.p20","primary",,,,,,,,16804432
"Netherlands","female","non.p20","rural",,100,,,,,,16804432
"Netherlands","female","non.p20","secondary",,,,,,,,16804432
"Netherlands","female","non.p20","stunted",,,,,,,,16804432
"Netherlands","female","non.p20","under5",,100,,,,,,16804432
"Netherlands","female","non.p20","urban",,100,,,,,,16804432
"Netherlands","female","p20","primary",,,,,,,,16804432
"Netherlands","female","p20","rural",,0,,,,,,16804432
"Netherlands","female","p20","secondary",,,,,,,,16804432
"Netherlands","female","p20","stunted",,,,,,,,16804432
"Netherlands","female","p20","under5",,0,,,,,,16804432
"Netherlands","female","p20","urban",,0,,,,,,16804432
"Netherlands","female","primary","rural",,,,,,,,16804432
"Netherlands","female","primary","secondary",,,,,,,,16804432
"Netherlands","female","primary","stunted",,,,,,,,16804432
"Netherlands","female","primary","under5",,,,,,,,16804432
"Netherlands","female","primary","urban",,,,,,,,16804432
"Netherlands","female","rural","secondary",,,,,,,,16804432
"Netherlands","female","rural","stunted",,,,,,,,16804432
"Netherlands","female","rural","under5",,,,,,,,16804432
"Netherlands","female","rural","urban",,,,,,,,16804432
"Netherlands","female","secondary","stunted",,,,,,,,16804432
"Netherlands","female","secondary","under5",,,,,,,,16804432
"Netherlands","female","secondary","urban",,,,,,,,16804432
"Netherlands","female","stunted","under5",,,,,,,,16804432
"Netherlands","female","stunted","urban",,,,,,,,16804432
"Netherlands","female","under5","urban",,,,,,,,16804432
"Netherlands","fifteento49","fiveto14","gt49",,,,,,,,16804432
"Netherlands","fifteento49","fiveto14","higher",,,,,,,,16804432
"Netherlands","fifteento49","fiveto14","male",,,,,,,,16804432
"Netherlands","fifteento49","fiveto14","no.birth.reg",,,,,,,,16804432
"Netherlands","fifteento49","fiveto14","no.educ",,,,,,,,16804432
"Netherlands","fifteento49","fiveto14","no.skilled.attendant",,,,,,,,16804432
"Netherlands","fifteento49","fiveto14","non.p20",,,100,,,,,16804432
"Netherlands","fifteento49","fiveto14","p20",,,0,,,,,16804432
"Netherlands","fifteento49","fiveto14","primary",,,,,,,,16804432
"Netherlands","fifteento49","fiveto14","rural",,,,,,,,16804432
"Netherlands","fifteento49","fiveto14","secondary",,,,,,,,16804432
"Netherlands","fifteento49","fiveto14","stunted",,,,,,,,16804432
"Netherlands","fifteento49","fiveto14","under5",,,,,,,,16804432
"Netherlands","fifteento49","fiveto14","urban",,,,,,,,16804432
"Netherlands","fifteento49","gt49","higher",,,,,,,,16804432
"Netherlands","fifteento49","gt49","male",,,,,,,,16804432
"Netherlands","fifteento49","gt49","no.birth.reg",,,,,,,,16804432
"Netherlands","fifteento49","gt49","no.educ",,,,,,,,16804432
"Netherlands","fifteento49","gt49","no.skilled.attendant",,,,,,,,16804432
"Netherlands","fifteento49","gt49","non.p20",,,100,,,,,16804432
"Netherlands","fifteento49","gt49","p20",,,0,,,,,16804432
"Netherlands","fifteento49","gt49","primary",,,,,,,,16804432
"Netherlands","fifteento49","gt49","rural",,,,,,,,16804432
"Netherlands","fifteento49","gt49","secondary",,,,,,,,16804432
"Netherlands","fifteento49","gt49","stunted",,,,,,,,16804432
"Netherlands","fifteento49","gt49","under5",,,,,,,,16804432
"Netherlands","fifteento49","gt49","urban",,,,,,,,16804432
"Netherlands","fifteento49","higher","male",,,,,,,,16804432
"Netherlands","fifteento49","higher","no.birth.reg",,,,,,,,16804432
"Netherlands","fifteento49","higher","no.educ",,,,,,,,16804432
"Netherlands","fifteento49","higher","no.skilled.attendant",,,,,,,,16804432
"Netherlands","fifteento49","higher","non.p20",,,,,,,,16804432
"Netherlands","fifteento49","higher","p20",,,,,,,,16804432
"Netherlands","fifteento49","higher","primary",,,,,,,,16804432
"Netherlands","fifteento49","higher","rural",,,,,,,,16804432
"Netherlands","fifteento49","higher","secondary",,,,,,,,16804432
"Netherlands","fifteento49","higher","stunted",,,,,,,,16804432
"Netherlands","fifteento49","higher","under5",,,,,,,,16804432
"Netherlands","fifteento49","higher","urban",,,,,,,,16804432
"Netherlands","fifteento49","male","no.birth.reg",,,,,,,,16804432
"Netherlands","fifteento49","male","no.educ",,,,,,,,16804432
"Netherlands","fifteento49","male","no.skilled.attendant",,,,,,,,16804432
"Netherlands","fifteento49","male","non.p20",,,100,,,,,16804432
"Netherlands","fifteento49","male","p20",,,0,,,,,16804432
"Netherlands","fifteento49","male","primary",,,,,,,,16804432
"Netherlands","fifteento49","male","rural",,,,,,,,16804432
"Netherlands","fifteento49","male","secondary",,,,,,,,16804432
"Netherlands","fifteento49","male","stunted",,,,,,,,16804432
"Netherlands","fifteento49","male","under5",,,,,,,,16804432
"Netherlands","fifteento49","male","urban",,,,,,,,16804432
"Netherlands","fifteento49","no.birth.reg","no.educ",,,,,,,,16804432
"Netherlands","fifteento49","no.birth.reg","no.skilled.attendant",,,,,,,,16804432
"Netherlands","fifteento49","no.birth.reg","non.p20",,,,,,,,16804432
"Netherlands","fifteento49","no.birth.reg","p20",,,,,,,,16804432
"Netherlands","fifteento49","no.birth.reg","primary",,,,,,,,16804432
"Netherlands","fifteento49","no.birth.reg","rural",,,,,,,,16804432
"Netherlands","fifteento49","no.birth.reg","secondary",,,,,,,,16804432
"Netherlands","fifteento49","no.birth.reg","stunted",,,,,,,,16804432
"Netherlands","fifteento49","no.birth.reg","under5",,,,,,,,16804432
"Netherlands","fifteento49","no.birth.reg","urban",,,,,,,,16804432
"Netherlands","fifteento49","no.educ","no.skilled.attendant",,,,,,,,16804432
"Netherlands","fifteento49","no.educ","non.p20",,,,,,,,16804432
"Netherlands","fifteento49","no.educ","p20",,,,,,,,16804432
"Netherlands","fifteento49","no.educ","primary",,,,,,,,16804432
"Netherlands","fifteento49","no.educ","rural",,,,,,,,16804432
"Netherlands","fifteento49","no.educ","secondary",,,,,,,,16804432
"Netherlands","fifteento49","no.educ","stunted",,,,,,,,16804432
"Netherlands","fifteento49","no.educ","under5",,,,,,,,16804432
"Netherlands","fifteento49","no.educ","urban",,,,,,,,16804432
"Netherlands","fifteento49","no.skilled.attendant","non.p20",,,,,,,,16804432
"Netherlands","fifteento49","no.skilled.attendant","p20",,,,,,,,16804432
"Netherlands","fifteento49","no.skilled.attendant","primary",,,,,,,,16804432
"Netherlands","fifteento49","no.skilled.attendant","rural",,,,,,,,16804432
"Netherlands","fifteento49","no.skilled.attendant","secondary",,,,,,,,16804432
"Netherlands","fifteento49","no.skilled.attendant","stunted",,,,,,,,16804432
"Netherlands","fifteento49","no.skilled.attendant","under5",,,,,,,,16804432
"Netherlands","fifteento49","no.skilled.attendant","urban",,,,,,,,16804432
"Netherlands","fifteento49","non.p20","p20",,100,0,,0,,0,16804432
"Netherlands","fifteento49","non.p20","primary",,,,,,,,16804432
"Netherlands","fifteento49","non.p20","rural",,100,,,,,,16804432
"Netherlands","fifteento49","non.p20","secondary",,,,,,,,16804432
"Netherlands","fifteento49","non.p20","stunted",,,,,,,,16804432
"Netherlands","fifteento49","non.p20","under5",,100,,,,,,16804432
"Netherlands","fifteento49","non.p20","urban",,100,,,,,,16804432
"Netherlands","fifteento49","p20","primary",,,,,,,,16804432
"Netherlands","fifteento49","p20","rural",,0,,,,,,16804432
"Netherlands","fifteento49","p20","secondary",,,,,,,,16804432
"Netherlands","fifteento49","p20","stunted",,,,,,,,16804432
"Netherlands","fifteento49","p20","under5",,0,,,,,,16804432
"Netherlands","fifteento49","p20","urban",,0,,,,,,16804432
"Netherlands","fifteento49","primary","rural",,,,,,,,16804432
"Netherlands","fifteento49","primary","secondary",,,,,,,,16804432
"Netherlands","fifteento49","primary","stunted",,,,,,,,16804432
"Netherlands","fifteento49","primary","under5",,,,,,,,16804432
"Netherlands","fifteento49","primary","urban",,,,,,,,16804432
"Netherlands","fifteento49","rural","secondary",,,,,,,,16804432
"Netherlands","fifteento49","rural","stunted",,,,,,,,16804432
"Netherlands","fifteento49","rural","under5",,,,,,,,16804432
"Netherlands","fifteento49","rural","urban",,,,,,,,16804432
"Netherlands","fifteento49","secondary","stunted",,,,,,,,16804432
"Netherlands","fifteento49","secondary","under5",,,,,,,,16804432
"Netherlands","fifteento49","secondary","urban",,,,,,,,16804432
"Netherlands","fifteento49","stunted","under5",,,,,,,,16804432
"Netherlands","fifteento49","stunted","urban",,,,,,,,16804432
"Netherlands","fifteento49","under5","urban",,,,,,,,16804432
"Netherlands","fiveto14","gt49","higher",,,,,,,,16804432
"Netherlands","fiveto14","gt49","male",,,,,,,,16804432
"Netherlands","fiveto14","gt49","no.birth.reg",,,,,,,,16804432
"Netherlands","fiveto14","gt49","no.educ",,,,,,,,16804432
"Netherlands","fiveto14","gt49","no.skilled.attendant",,,,,,,,16804432
"Netherlands","fiveto14","gt49","non.p20",,,100,,,,,16804432
"Netherlands","fiveto14","gt49","p20",,,0,,,,,16804432
"Netherlands","fiveto14","gt49","primary",,,,,,,,16804432
"Netherlands","fiveto14","gt49","rural",,,,,,,,16804432
"Netherlands","fiveto14","gt49","secondary",,,,,,,,16804432
"Netherlands","fiveto14","gt49","stunted",,,,,,,,16804432
"Netherlands","fiveto14","gt49","under5",,,,,,,,16804432
"Netherlands","fiveto14","gt49","urban",,,,,,,,16804432
"Netherlands","fiveto14","higher","male",,,,,,,,16804432
"Netherlands","fiveto14","higher","no.birth.reg",,,,,,,,16804432
"Netherlands","fiveto14","higher","no.educ",,,,,,,,16804432
"Netherlands","fiveto14","higher","no.skilled.attendant",,,,,,,,16804432
"Netherlands","fiveto14","higher","non.p20",,,,,,,,16804432
"Netherlands","fiveto14","higher","p20",,,,,,,,16804432
"Netherlands","fiveto14","higher","primary",,,,,,,,16804432
"Netherlands","fiveto14","higher","rural",,,,,,,,16804432
"Netherlands","fiveto14","higher","secondary",,,,,,,,16804432
"Netherlands","fiveto14","higher","stunted",,,,,,,,16804432
"Netherlands","fiveto14","higher","under5",,,,,,,,16804432
"Netherlands","fiveto14","higher","urban",,,,,,,,16804432
"Netherlands","fiveto14","male","no.birth.reg",,,,,,,,16804432
"Netherlands","fiveto14","male","no.educ",,,,,,,,16804432
"Netherlands","fiveto14","male","no.skilled.attendant",,,,,,,,16804432
"Netherlands","fiveto14","male","non.p20",,,100,,,,,16804432
"Netherlands","fiveto14","male","p20",,,0,,,,,16804432
"Netherlands","fiveto14","male","primary",,,,,,,,16804432
"Netherlands","fiveto14","male","rural",,,,,,,,16804432
"Netherlands","fiveto14","male","secondary",,,,,,,,16804432
"Netherlands","fiveto14","male","stunted",,,,,,,,16804432
"Netherlands","fiveto14","male","under5",,,,,,,,16804432
"Netherlands","fiveto14","male","urban",,,,,,,,16804432
"Netherlands","fiveto14","no.birth.reg","no.educ",,,,,,,,16804432
"Netherlands","fiveto14","no.birth.reg","no.skilled.attendant",,,,,,,,16804432
"Netherlands","fiveto14","no.birth.reg","non.p20",,,,,,,,16804432
"Netherlands","fiveto14","no.birth.reg","p20",,,,,,,,16804432
"Netherlands","fiveto14","no.birth.reg","primary",,,,,,,,16804432
"Netherlands","fiveto14","no.birth.reg","rural",,,,,,,,16804432
"Netherlands","fiveto14","no.birth.reg","secondary",,,,,,,,16804432
"Netherlands","fiveto14","no.birth.reg","stunted",,,,,,,,16804432
"Netherlands","fiveto14","no.birth.reg","under5",,,,,,,,16804432
"Netherlands","fiveto14","no.birth.reg","urban",,,,,,,,16804432
"Netherlands","fiveto14","no.educ","no.skilled.attendant",,,,,,,,16804432
"Netherlands","fiveto14","no.educ","non.p20",,,,,,,,16804432
"Netherlands","fiveto14","no.educ","p20",,,,,,,,16804432
"Netherlands","fiveto14","no.educ","primary",,,,,,,,16804432
"Netherlands","fiveto14","no.educ","rural",,,,,,,,16804432
"Netherlands","fiveto14","no.educ","secondary",,,,,,,,16804432
"Netherlands","fiveto14","no.educ","stunted",,,,,,,,16804432
"Netherlands","fiveto14","no.educ","under5",,,,,,,,16804432
"Netherlands","fiveto14","no.educ","urban",,,,,,,,16804432
"Netherlands","fiveto14","no.skilled.attendant","non.p20",,,,,,,,16804432
"Netherlands","fiveto14","no.skilled.attendant","p20",,,,,,,,16804432
"Netherlands","fiveto14","no.skilled.attendant","primary",,,,,,,,16804432
"Netherlands","fiveto14","no.skilled.attendant","rural",,,,,,,,16804432
"Netherlands","fiveto14","no.skilled.attendant","secondary",,,,,,,,16804432
"Netherlands","fiveto14","no.skilled.attendant","stunted",,,,,,,,16804432
"Netherlands","fiveto14","no.skilled.attendant","under5",,,,,,,,16804432
"Netherlands","fiveto14","no.skilled.attendant","urban",,,,,,,,16804432
"Netherlands","fiveto14","non.p20","p20",,100,0,,0,,0,16804432
"Netherlands","fiveto14","non.p20","primary",,,,,,,,16804432
"Netherlands","fiveto14","non.p20","rural",,100,,,,,,16804432
"Netherlands","fiveto14","non.p20","secondary",,,,,,,,16804432
"Netherlands","fiveto14","non.p20","stunted",,,,,,,,16804432
"Netherlands","fiveto14","non.p20","under5",,100,,,,,,16804432
"Netherlands","fiveto14","non.p20","urban",,100,,,,,,16804432
"Netherlands","fiveto14","p20","primary",,,,,,,,16804432
"Netherlands","fiveto14","p20","rural",,0,,,,,,16804432
"Netherlands","fiveto14","p20","secondary",,,,,,,,16804432
"Netherlands","fiveto14","p20","stunted",,,,,,,,16804432
"Netherlands","fiveto14","p20","under5",,0,,,,,,16804432
"Netherlands","fiveto14","p20","urban",,0,,,,,,16804432
"Netherlands","fiveto14","primary","rural",,,,,,,,16804432
"Netherlands","fiveto14","primary","secondary",,,,,,,,16804432
"Netherlands","fiveto14","primary","stunted",,,,,,,,16804432
"Netherlands","fiveto14","primary","under5",,,,,,,,16804432
"Netherlands","fiveto14","primary","urban",,,,,,,,16804432
"Netherlands","fiveto14","rural","secondary",,,,,,,,16804432
"Netherlands","fiveto14","rural","stunted",,,,,,,,16804432
"Netherlands","fiveto14","rural","under5",,,,,,,,16804432
"Netherlands","fiveto14","rural","urban",,,,,,,,16804432
"Netherlands","fiveto14","secondary","stunted",,,,,,,,16804432
"Netherlands","fiveto14","secondary","under5",,,,,,,,16804432
"Netherlands","fiveto14","secondary","urban",,,,,,,,16804432
"Netherlands","fiveto14","stunted","under5",,,,,,,,16804432
"Netherlands","fiveto14","stunted","urban",,,,,,,,16804432
"Netherlands","fiveto14","under5","urban",,,,,,,,16804432
"Netherlands","gt49","higher","male",,,,,,,,16804432
"Netherlands","gt49","higher","no.birth.reg",,,,,,,,16804432
"Netherlands","gt49","higher","no.educ",,,,,,,,16804432
"Netherlands","gt49","higher","no.skilled.attendant",,,,,,,,16804432
"Netherlands","gt49","higher","non.p20",,,,,,,,16804432
"Netherlands","gt49","higher","p20",,,,,,,,16804432
"Netherlands","gt49","higher","primary",,,,,,,,16804432
"Netherlands","gt49","higher","rural",,,,,,,,16804432
"Netherlands","gt49","higher","secondary",,,,,,,,16804432
"Netherlands","gt49","higher","stunted",,,,,,,,16804432
"Netherlands","gt49","higher","under5",,,,,,,,16804432
"Netherlands","gt49","higher","urban",,,,,,,,16804432
"Netherlands","gt49","male","no.birth.reg",,,,,,,,16804432
"Netherlands","gt49","male","no.educ",,,,,,,,16804432
"Netherlands","gt49","male","no.skilled.attendant",,,,,,,,16804432
"Netherlands","gt49","male","non.p20",,,100,,,,,16804432
"Netherlands","gt49","male","p20",,,0,,,,,16804432
"Netherlands","gt49","male","primary",,,,,,,,16804432
"Netherlands","gt49","male","rural",,,,,,,,16804432
"Netherlands","gt49","male","secondary",,,,,,,,16804432
"Netherlands","gt49","male","stunted",,,,,,,,16804432
"Netherlands","gt49","male","under5",,,,,,,,16804432
"Netherlands","gt49","male","urban",,,,,,,,16804432
"Netherlands","gt49","no.birth.reg","no.educ",,,,,,,,16804432
"Netherlands","gt49","no.birth.reg","no.skilled.attendant",,,,,,,,16804432
"Netherlands","gt49","no.birth.reg","non.p20",,,,,,,,16804432
"Netherlands","gt49","no.birth.reg","p20",,,,,,,,16804432
"Netherlands","gt49","no.birth.reg","primary",,,,,,,,16804432
"Netherlands","gt49","no.birth.reg","rural",,,,,,,,16804432
"Netherlands","gt49","no.birth.reg","secondary",,,,,,,,16804432
"Netherlands","gt49","no.birth.reg","stunted",,,,,,,,16804432
"Netherlands","gt49","no.birth.reg","under5",,,,,,,,16804432
"Netherlands","gt49","no.birth.reg","urban",,,,,,,,16804432
"Netherlands","gt49","no.educ","no.skilled.attendant",,,,,,,,16804432
"Netherlands","gt49","no.educ","non.p20",,,,,,,,16804432
"Netherlands","gt49","no.educ","p20",,,,,,,,16804432
"Netherlands","gt49","no.educ","primary",,,,,,,,16804432
"Netherlands","gt49","no.educ","rural",,,,,,,,16804432
"Netherlands","gt49","no.educ","secondary",,,,,,,,16804432
"Netherlands","gt49","no.educ","stunted",,,,,,,,16804432
"Netherlands","gt49","no.educ","under5",,,,,,,,16804432
"Netherlands","gt49","no.educ","urban",,,,,,,,16804432
"Netherlands","gt49","no.skilled.attendant","non.p20",,,,,,,,16804432
"Netherlands","gt49","no.skilled.attendant","p20",,,,,,,,16804432
"Netherlands","gt49","no.skilled.attendant","primary",,,,,,,,16804432
"Netherlands","gt49","no.skilled.attendant","rural",,,,,,,,16804432
"Netherlands","gt49","no.skilled.attendant","secondary",,,,,,,,16804432
"Netherlands","gt49","no.skilled.attendant","stunted",,,,,,,,16804432
"Netherlands","gt49","no.skilled.attendant","under5",,,,,,,,16804432
"Netherlands","gt49","no.skilled.attendant","urban",,,,,,,,16804432
"Netherlands","gt49","non.p20","p20",,100,0,,0,,0,16804432
"Netherlands","gt49","non.p20","primary",,,,,,,,16804432
"Netherlands","gt49","non.p20","rural",,100,,,,,,16804432
"Netherlands","gt49","non.p20","secondary",,,,,,,,16804432
"Netherlands","gt49","non.p20","stunted",,,,,,,,16804432
"Netherlands","gt49","non.p20","under5",,100,,,,,,16804432
"Netherlands","gt49","non.p20","urban",,100,,,,,,16804432
"Netherlands","gt49","p20","primary",,,,,,,,16804432
"Netherlands","gt49","p20","rural",,0,,,,,,16804432
"Netherlands","gt49","p20","secondary",,,,,,,,16804432
"Netherlands","gt49","p20","stunted",,,,,,,,16804432
"Netherlands","gt49","p20","under5",,0,,,,,,16804432
"Netherlands","gt49","p20","urban",,0,,,,,,16804432
"Netherlands","gt49","primary","rural",,,,,,,,16804432
"Netherlands","gt49","primary","secondary",,,,,,,,16804432
"Netherlands","gt49","primary","stunted",,,,,,,,16804432
"Netherlands","gt49","primary","under5",,,,,,,,16804432
"Netherlands","gt49","primary","urban",,,,,,,,16804432
"Netherlands","gt49","rural","secondary",,,,,,,,16804432
"Netherlands","gt49","rural","stunted",,,,,,,,16804432
"Netherlands","gt49","rural","under5",,,,,,,,16804432
"Netherlands","gt49","rural","urban",,,,,,,,16804432
"Netherlands","gt49","secondary","stunted",,,,,,,,16804432
"Netherlands","gt49","secondary","under5",,,,,,,,16804432
"Netherlands","gt49","secondary","urban",,,,,,,,16804432
"Netherlands","gt49","stunted","under5",,,,,,,,16804432
"Netherlands","gt49","stunted","urban",,,,,,,,16804432
"Netherlands","gt49","under5","urban",,,,,,,,16804432
"Netherlands","higher","male","no.birth.reg",,,,,,,,16804432
"Netherlands","higher","male","no.educ",,,,,,,,16804432
"Netherlands","higher","male","no.skilled.attendant",,,,,,,,16804432
"Netherlands","higher","male","non.p20",,,,,,,,16804432
"Netherlands","higher","male","p20",,,,,,,,16804432
"Netherlands","higher","male","primary",,,,,,,,16804432
"Netherlands","higher","male","rural",,,,,,,,16804432
"Netherlands","higher","male","secondary",,,,,,,,16804432
"Netherlands","higher","male","stunted",,,,,,,,16804432
"Netherlands","higher","male","under5",,,,,,,,16804432
"Netherlands","higher","male","urban",,,,,,,,16804432
"Netherlands","higher","no.birth.reg","no.educ",,,,,,,,16804432
"Netherlands","higher","no.birth.reg","no.skilled.attendant",,,,,,,,16804432
"Netherlands","higher","no.birth.reg","non.p20",,,,,,,,16804432
"Netherlands","higher","no.birth.reg","p20",,,,,,,,16804432
"Netherlands","higher","no.birth.reg","primary",,,,,,,,16804432
"Netherlands","higher","no.birth.reg","rural",,,,,,,,16804432
"Netherlands","higher","no.birth.reg","secondary",,,,,,,,16804432
"Netherlands","higher","no.birth.reg","stunted",,,,,,,,16804432
"Netherlands","higher","no.birth.reg","under5",,,,,,,,16804432
"Netherlands","higher","no.birth.reg","urban",,,,,,,,16804432
"Netherlands","higher","no.educ","no.skilled.attendant",,,,,,,,16804432
"Netherlands","higher","no.educ","non.p20",,,,,,,,16804432
"Netherlands","higher","no.educ","p20",,,,,,,,16804432
"Netherlands","higher","no.educ","primary",,,,,,,,16804432
"Netherlands","higher","no.educ","rural",,,,,,,,16804432
"Netherlands","higher","no.educ","secondary",,,,,,,,16804432
"Netherlands","higher","no.educ","stunted",,,,,,,,16804432
"Netherlands","higher","no.educ","under5",,,,,,,,16804432
"Netherlands","higher","no.educ","urban",,,,,,,,16804432
"Netherlands","higher","no.skilled.attendant","non.p20",,,,,,,,16804432
"Netherlands","higher","no.skilled.attendant","p20",,,,,,,,16804432
"Netherlands","higher","no.skilled.attendant","primary",,,,,,,,16804432
"Netherlands","higher","no.skilled.attendant","rural",,,,,,,,16804432
"Netherlands","higher","no.skilled.attendant","secondary",,,,,,,,16804432
"Netherlands","higher","no.skilled.attendant","stunted",,,,,,,,16804432
"Netherlands","higher","no.skilled.attendant","under5",,,,,,,,16804432
"Netherlands","higher","no.skilled.attendant","urban",,,,,,,,16804432
"Netherlands","higher","non.p20","p20",,,,,0,,0,16804432
"Netherlands","higher","non.p20","primary",,,,,,,,16804432
"Netherlands","higher","non.p20","rural",,,,,,,,16804432
"Netherlands","higher","non.p20","secondary",,,,,,,,16804432
"Netherlands","higher","non.p20","stunted",,,,,,,,16804432
"Netherlands","higher","non.p20","under5",,,,,,,,16804432
"Netherlands","higher","non.p20","urban",,,,,,,,16804432
"Netherlands","higher","p20","primary",,,,,,,,16804432
"Netherlands","higher","p20","rural",,,,,,,,16804432
"Netherlands","higher","p20","secondary",,,,,,,,16804432
"Netherlands","higher","p20","stunted",,,,,,,,16804432
"Netherlands","higher","p20","under5",,,,,,,,16804432
"Netherlands","higher","p20","urban",,,,,,,,16804432
"Netherlands","higher","primary","rural",,,,,,,,16804432
"Netherlands","higher","primary","secondary",,,,,,,,16804432
"Netherlands","higher","primary","stunted",,,,,,,,16804432
"Netherlands","higher","primary","under5",,,,,,,,16804432
"Netherlands","higher","primary","urban",,,,,,,,16804432
"Netherlands","higher","rural","secondary",,,,,,,,16804432
"Netherlands","higher","rural","stunted",,,,,,,,16804432
"Netherlands","higher","rural","under5",,,,,,,,16804432
"Netherlands","higher","rural","urban",,,,,,,,16804432
"Netherlands","higher","secondary","stunted",,,,,,,,16804432
"Netherlands","higher","secondary","under5",,,,,,,,16804432
"Netherlands","higher","secondary","urban",,,,,,,,16804432
"Netherlands","higher","stunted","under5",,,,,,,,16804432
"Netherlands","higher","stunted","urban",,,,,,,,16804432
"Netherlands","higher","under5","urban",,,,,,,,16804432
"Netherlands","male","no.birth.reg","no.educ",,,,,,,,16804432
"Netherlands","male","no.birth.reg","no.skilled.attendant",,,,,,,,16804432
"Netherlands","male","no.birth.reg","non.p20",,,,,,,,16804432
"Netherlands","male","no.birth.reg","p20",,,,,,,,16804432
"Netherlands","male","no.birth.reg","primary",,,,,,,,16804432
"Netherlands","male","no.birth.reg","rural",,,,,,,,16804432
"Netherlands","male","no.birth.reg","secondary",,,,,,,,16804432
"Netherlands","male","no.birth.reg","stunted",,,,,,,,16804432
"Netherlands","male","no.birth.reg","under5",,,,,,,,16804432
"Netherlands","male","no.birth.reg","urban",,,,,,,,16804432
"Netherlands","male","no.educ","no.skilled.attendant",,,,,,,,16804432
"Netherlands","male","no.educ","non.p20",,,,,,,,16804432
"Netherlands","male","no.educ","p20",,,,,,,,16804432
"Netherlands","male","no.educ","primary",,,,,,,,16804432
"Netherlands","male","no.educ","rural",,,,,,,,16804432
"Netherlands","male","no.educ","secondary",,,,,,,,16804432
"Netherlands","male","no.educ","stunted",,,,,,,,16804432
"Netherlands","male","no.educ","under5",,,,,,,,16804432
"Netherlands","male","no.educ","urban",,,,,,,,16804432
"Netherlands","male","no.skilled.attendant","non.p20",,,,,,,,16804432
"Netherlands","male","no.skilled.attendant","p20",,,,,,,,16804432
"Netherlands","male","no.skilled.attendant","primary",,,,,,,,16804432
"Netherlands","male","no.skilled.attendant","rural",,,,,,,,16804432
"Netherlands","male","no.skilled.attendant","secondary",,,,,,,,16804432
"Netherlands","male","no.skilled.attendant","stunted",,,,,,,,16804432
"Netherlands","male","no.skilled.attendant","under5",,,,,,,,16804432
"Netherlands","male","no.skilled.attendant","urban",,,,,,,,16804432
"Netherlands","male","non.p20","p20",,100,0,,0,,0,16804432
"Netherlands","male","non.p20","primary",,,,,,,,16804432
"Netherlands","male","non.p20","rural",,100,,,,,,16804432
"Netherlands","male","non.p20","secondary",,,,,,,,16804432
"Netherlands","male","non.p20","stunted",,,,,,,,16804432
"Netherlands","male","non.p20","under5",,100,,,,,,16804432
"Netherlands","male","non.p20","urban",,100,,,,,,16804432
"Netherlands","male","p20","primary",,,,,,,,16804432
"Netherlands","male","p20","rural",,0,,,,,,16804432
"Netherlands","male","p20","secondary",,,,,,,,16804432
"Netherlands","male","p20","stunted",,,,,,,,16804432
"Netherlands","male","p20","under5",,0,,,,,,16804432
"Netherlands","male","p20","urban",,0,,,,,,16804432
"Netherlands","male","primary","rural",,,,,,,,16804432
"Netherlands","male","primary","secondary",,,,,,,,16804432
"Netherlands","male","primary","stunted",,,,,,,,16804432
"Netherlands","male","primary","under5",,,,,,,,16804432
"Netherlands","male","primary","urban",,,,,,,,16804432
"Netherlands","male","rural","secondary",,,,,,,,16804432
"Netherlands","male","rural","stunted",,,,,,,,16804432
"Netherlands","male","rural","under5",,,,,,,,16804432
"Netherlands","male","rural","urban",,,,,,,,16804432
"Netherlands","male","secondary","stunted",,,,,,,,16804432
"Netherlands","male","secondary","under5",,,,,,,,16804432
"Netherlands","male","secondary","urban",,,,,,,,16804432
"Netherlands","male","stunted","under5",,,,,,,,16804432
"Netherlands","male","stunted","urban",,,,,,,,16804432
"Netherlands","male","under5","urban",,,,,,,,16804432
"Netherlands","no.birth.reg","no.educ","no.skilled.attendant",,,,,,,,16804432
"Netherlands","no.birth.reg","no.educ","non.p20",,,,,,,,16804432
"Netherlands","no.birth.reg","no.educ","p20",,,,,,,,16804432
"Netherlands","no.birth.reg","no.educ","primary",,,,,,,,16804432
"Netherlands","no.birth.reg","no.educ","rural",,,,,,,,16804432
"Netherlands","no.birth.reg","no.educ","secondary",,,,,,,,16804432
"Netherlands","no.birth.reg","no.educ","stunted",,,,,,,,16804432
"Netherlands","no.birth.reg","no.educ","under5",,,,,,,,16804432
"Netherlands","no.birth.reg","no.educ","urban",,,,,,,,16804432
"Netherlands","no.birth.reg","no.skilled.attendant","non.p20",,,,,,,,16804432
"Netherlands","no.birth.reg","no.skilled.attendant","p20",,,,,,,,16804432
"Netherlands","no.birth.reg","no.skilled.attendant","primary",,,,,,,,16804432
"Netherlands","no.birth.reg","no.skilled.attendant","rural",,,,,,,,16804432
"Netherlands","no.birth.reg","no.skilled.attendant","secondary",,,,,,,,16804432
"Netherlands","no.birth.reg","no.skilled.attendant","stunted",,,,,,,,16804432
"Netherlands","no.birth.reg","no.skilled.attendant","under5",,,,,,,,16804432
"Netherlands","no.birth.reg","no.skilled.attendant","urban",,,,,,,,16804432
"Netherlands","no.birth.reg","non.p20","p20",,,,,0,,0,16804432
"Netherlands","no.birth.reg","non.p20","primary",,,,,,,,16804432
"Netherlands","no.birth.reg","non.p20","rural",,,,,,,,16804432
"Netherlands","no.birth.reg","non.p20","secondary",,,,,,,,16804432
"Netherlands","no.birth.reg","non.p20","stunted",,,,,,,,16804432
"Netherlands","no.birth.reg","non.p20","under5",,,,,,,,16804432
"Netherlands","no.birth.reg","non.p20","urban",,,,,,,,16804432
"Netherlands","no.birth.reg","p20","primary",,,,,,,,16804432
"Netherlands","no.birth.reg","p20","rural",,,,,,,,16804432
"Netherlands","no.birth.reg","p20","secondary",,,,,,,,16804432
"Netherlands","no.birth.reg","p20","stunted",,,,,,,,16804432
"Netherlands","no.birth.reg","p20","under5",,,,,,,,16804432
"Netherlands","no.birth.reg","p20","urban",,,,,,,,16804432
"Netherlands","no.birth.reg","primary","rural",,,,,,,,16804432
"Netherlands","no.birth.reg","primary","secondary",,,,,,,,16804432
"Netherlands","no.birth.reg","primary","stunted",,,,,,,,16804432
"Netherlands","no.birth.reg","primary","under5",,,,,,,,16804432
"Netherlands","no.birth.reg","primary","urban",,,,,,,,16804432
"Netherlands","no.birth.reg","rural","secondary",,,,,,,,16804432
"Netherlands","no.birth.reg","rural","stunted",,,,,,,,16804432
"Netherlands","no.birth.reg","rural","under5",,,,,,,,16804432
"Netherlands","no.birth.reg","rural","urban",,,,,,,,16804432
"Netherlands","no.birth.reg","secondary","stunted",,,,,,,,16804432
"Netherlands","no.birth.reg","secondary","under5",,,,,,,,16804432
"Netherlands","no.birth.reg","secondary","urban",,,,,,,,16804432
"Netherlands","no.birth.reg","stunted","under5",,,,,,,,16804432
"Netherlands","no.birth.reg","stunted","urban",,,,,,,,16804432
"Netherlands","no.birth.reg","under5","urban",,,,,,,,16804432
"Netherlands","no.educ","no.skilled.attendant","non.p20",,,,,,,,16804432
"Netherlands","no.educ","no.skilled.attendant","p20",,,,,,,,16804432
"Netherlands","no.educ","no.skilled.attendant","primary",,,,,,,,16804432
"Netherlands","no.educ","no.skilled.attendant","rural",,,,,,,,16804432
"Netherlands","no.educ","no.skilled.attendant","secondary",,,,,,,,16804432
"Netherlands","no.educ","no.skilled.attendant","stunted",,,,,,,,16804432
"Netherlands","no.educ","no.skilled.attendant","under5",,,,,,,,16804432
"Netherlands","no.educ","no.skilled.attendant","urban",,,,,,,,16804432
"Netherlands","no.educ","non.p20","p20",,,,,0,,0,16804432
"Netherlands","no.educ","non.p20","primary",,,,,,,,16804432
"Netherlands","no.educ","non.p20","rural",,,,,,,,16804432
"Netherlands","no.educ","non.p20","secondary",,,,,,,,16804432
"Netherlands","no.educ","non.p20","stunted",,,,,,,,16804432
"Netherlands","no.educ","non.p20","under5",,,,,,,,16804432
"Netherlands","no.educ","non.p20","urban",,,,,,,,16804432
"Netherlands","no.educ","p20","primary",,,,,,,,16804432
"Netherlands","no.educ","p20","rural",,,,,,,,16804432
"Netherlands","no.educ","p20","secondary",,,,,,,,16804432
"Netherlands","no.educ","p20","stunted",,,,,,,,16804432
"Netherlands","no.educ","p20","under5",,,,,,,,16804432
"Netherlands","no.educ","p20","urban",,,,,,,,16804432
"Netherlands","no.educ","primary","rural",,,,,,,,16804432
"Netherlands","no.educ","primary","secondary",,,,,,,,16804432
"Netherlands","no.educ","primary","stunted",,,,,,,,16804432
"Netherlands","no.educ","primary","under5",,,,,,,,16804432
"Netherlands","no.educ","primary","urban",,,,,,,,16804432
"Netherlands","no.educ","rural","secondary",,,,,,,,16804432
"Netherlands","no.educ","rural","stunted",,,,,,,,16804432
"Netherlands","no.educ","rural","under5",,,,,,,,16804432
"Netherlands","no.educ","rural","urban",,,,,,,,16804432
"Netherlands","no.educ","secondary","stunted",,,,,,,,16804432
"Netherlands","no.educ","secondary","under5",,,,,,,,16804432
"Netherlands","no.educ","secondary","urban",,,,,,,,16804432
"Netherlands","no.educ","stunted","under5",,,,,,,,16804432
"Netherlands","no.educ","stunted","urban",,,,,,,,16804432
"Netherlands","no.educ","under5","urban",,,,,,,,16804432
"Netherlands","no.skilled.attendant","non.p20","p20",,,,,0,,0,16804432
"Netherlands","no.skilled.attendant","non.p20","primary",,,,,,,,16804432
"Netherlands","no.skilled.attendant","non.p20","rural",,,,,,,,16804432
"Netherlands","no.skilled.attendant","non.p20","secondary",,,,,,,,16804432
"Netherlands","no.skilled.attendant","non.p20","stunted",,,,,,,,16804432
"Netherlands","no.skilled.attendant","non.p20","under5",,,,,,,,16804432
"Netherlands","no.skilled.attendant","non.p20","urban",,,,,,,,16804432
"Netherlands","no.skilled.attendant","p20","primary",,,,,,,,16804432
"Netherlands","no.skilled.attendant","p20","rural",,,,,,,,16804432
"Netherlands","no.skilled.attendant","p20","secondary",,,,,,,,16804432
"Netherlands","no.skilled.attendant","p20","stunted",,,,,,,,16804432
"Netherlands","no.skilled.attendant","p20","under5",,,,,,,,16804432
"Netherlands","no.skilled.attendant","p20","urban",,,,,,,,16804432
"Netherlands","no.skilled.attendant","primary","rural",,,,,,,,16804432
"Netherlands","no.skilled.attendant","primary","secondary",,,,,,,,16804432
"Netherlands","no.skilled.attendant","primary","stunted",,,,,,,,16804432
"Netherlands","no.skilled.attendant","primary","under5",,,,,,,,16804432
"Netherlands","no.skilled.attendant","primary","urban",,,,,,,,16804432
"Netherlands","no.skilled.attendant","rural","secondary",,,,,,,,16804432
"Netherlands","no.skilled.attendant","rural","stunted",,,,,,,,16804432
"Netherlands","no.skilled.attendant","rural","under5",,,,,,,,16804432
"Netherlands","no.skilled.attendant","rural","urban",,,,,,,,16804432
"Netherlands","no.skilled.attendant","secondary","stunted",,,,,,,,16804432
"Netherlands","no.skilled.attendant","secondary","under5",,,,,,,,16804432
"Netherlands","no.skilled.attendant","secondary","urban",,,,,,,,16804432
"Netherlands","no.skilled.attendant","stunted","under5",,,,,,,,16804432
"Netherlands","no.skilled.attendant","stunted","urban",,,,,,,,16804432
"Netherlands","no.skilled.attendant","under5","urban",,,,,,,,16804432
"Netherlands","non.p20","p20","primary",,,,0,,,0,16804432
"Netherlands","non.p20","p20","rural",100,0,,0,,,0,16804432
"Netherlands","non.p20","p20","secondary",,,,0,,,0,16804432
"Netherlands","non.p20","p20","stunted",,,,0,,,0,16804432
"Netherlands","non.p20","p20","under5",100,0,,0,,,0,16804432
"Netherlands","non.p20","p20","urban",100,0,,0,,,0,16804432
"Netherlands","non.p20","primary","rural",,,,,,,,16804432
"Netherlands","non.p20","primary","secondary",,,,,,,,16804432
"Netherlands","non.p20","primary","stunted",,,,,,,,16804432
"Netherlands","non.p20","primary","under5",,,,,,,,16804432
"Netherlands","non.p20","primary","urban",,,,,,,,16804432
"Netherlands","non.p20","rural","secondary",,,,,,,,16804432
"Netherlands","non.p20","rural","stunted",,,,,,,,16804432
"Netherlands","non.p20","rural","under5",100,,,,,,,16804432
"Netherlands","non.p20","rural","urban",100,,,,,,,16804432
"Netherlands","non.p20","secondary","stunted",,,,,,,,16804432
"Netherlands","non.p20","secondary","under5",,,,,,,,16804432
"Netherlands","non.p20","secondary","urban",,,,,,,,16804432
"Netherlands","non.p20","stunted","under5",,,,,,,,16804432
"Netherlands","non.p20","stunted","urban",,,,,,,,16804432
"Netherlands","non.p20","under5","urban",100,,,,,,,16804432
"Netherlands","p20","primary","rural",,,,,,,,16804432
"Netherlands","p20","primary","secondary",,,,,,,,16804432
"Netherlands","p20","primary","stunted",,,,,,,,16804432
"Netherlands","p20","primary","under5",,,,,,,,16804432
"Netherlands","p20","primary","urban",,,,,,,,16804432
"Netherlands","p20","rural","secondary",,,,,,,,16804432
"Netherlands","p20","rural","stunted",,,,,,,,16804432
"Netherlands","p20","rural","under5",0,,,,,,,16804432
"Netherlands","p20","rural","urban",0,,,,,,,16804432
"Netherlands","p20","secondary","stunted",,,,,,,,16804432
"Netherlands","p20","secondary","under5",,,,,,,,16804432
"Netherlands","p20","secondary","urban",,,,,,,,16804432
"Netherlands","p20","stunted","under5",,,,,,,,16804432
"Netherlands","p20","stunted","urban",,,,,,,,16804432
"Netherlands","p20","under5","urban",0,,,,,,,16804432
"Netherlands","primary","rural","secondary",,,,,,,,16804432
"Netherlands","primary","rural","stunted",,,,,,,,16804432
"Netherlands","primary","rural","under5",,,,,,,,16804432
"Netherlands","primary","rural","urban",,,,,,,,16804432
"Netherlands","primary","secondary","stunted",,,,,,,,16804432
"Netherlands","primary","secondary","under5",,,,,,,,16804432
"Netherlands","primary","secondary","urban",,,,,,,,16804432
"Netherlands","primary","stunted","under5",,,,,,,,16804432
"Netherlands","primary","stunted","urban",,,,,,,,16804432
"Netherlands","primary","under5","urban",,,,,,,,16804432
"Netherlands","rural","secondary","stunted",,,,,,,,16804432
"Netherlands","rural","secondary","under5",,,,,,,,16804432
"Netherlands","rural","secondary","urban",,,,,,,,16804432
"Netherlands","rural","stunted","under5",,,,,,,,16804432
"Netherlands","rural","stunted","urban",,,,,,,,16804432
"Netherlands","rural","under5","urban",,,,,,,,16804432
"Netherlands","secondary","stunted","under5",,,,,,,,16804432
"Netherlands","secondary","stunted","urban",,,,,,,,16804432
"Netherlands","secondary","under5","urban",,,,,,,,16804432
"Netherlands","stunted","under5","urban",,,,,,,,16804432
