"filename","indicator1","indicator2","indicator3","X","Y","Z","X,Y","Y,Z","X,Z","X,Y,Z","pop"
"pehr6idt","blank1","blank2","ext",100,100,4,100,4,4,4,30566000
"pehr6idt","blank1","blank2","female",100,100,51,100,51,51,51,30566000
"pehr6idt","blank1","blank2","fifteento49",100,100,50,100,50,50,50,30566000
"pehr6idt","blank1","blank2","fiveto14",100,100,20,100,20,20,20,30566000
"pehr6idt","blank1","blank2","gt49",100,100,20,100,20,20,20,30566000
"pehr6idt","blank1","blank2","higher",100,100,26,100,26,26,26,16260000
"pehr6idt","blank1","blank2","male",100,100,49,100,49,49,49,30566000
"pehr6idt","blank1","blank2","no.birth.reg",100,100,,100,,,,2993000
"pehr6idt","blank1","blank2","no.educ",100,100,33,100,33,33,33,16260000
"pehr6idt","blank1","blank2","no.skilled.attendant",100,100,10,100,10,10,10,8149000
"pehr6idt","blank1","blank2","non.p20",100,100,93,100,93,93,93,30566000
"pehr6idt","blank1","blank2","p20",100,100,7,100,7,7,7,30566000
"pehr6idt","blank1","blank2","primary",100,100,67,100,67,67,67,16260000
"pehr6idt","blank1","blank2","rural",100,100,30,100,30,30,30,30566000
"pehr6idt","blank1","blank2","secondary",100,100,50,100,50,50,50,16260000
"pehr6idt","blank1","blank2","stunted",100,100,18,100,18,18,18,2993000
"pehr6idt","blank1","blank2","under5",100,100,10,100,10,10,10,30566000
"pehr6idt","blank1","blank2","urban",100,100,70,100,70,70,70,30566000
"pehr6idt","blank1","ext","female",100,4,51,4,2,51,2,30566000
"pehr6idt","blank1","ext","fifteento49",100,4,50,4,1,50,1,30566000
"pehr6idt","blank1","ext","fiveto14",100,4,20,4,1,20,1,30566000
"pehr6idt","blank1","ext","gt49",100,4,20,4,1,20,1,30566000
"pehr6idt","blank1","ext","higher",100,3,26,3,0,26,0,16260000
"pehr6idt","blank1","ext","male",100,4,49,4,2,49,2,30566000
"pehr6idt","blank1","ext","no.birth.reg",100,5,,5,0,,0,2993000
"pehr6idt","blank1","ext","no.educ",100,3,33,3,2,33,2,16260000
"pehr6idt","blank1","ext","no.skilled.attendant",100,4,10,4,2,10,2,8149000
"pehr6idt","blank1","ext","non.p20",100,4,93,4,0,93,0,30566000
"pehr6idt","blank1","ext","p20",100,4,7,4,4,7,4,30566000
"pehr6idt","blank1","ext","primary",100,3,67,3,1,67,1,16260000
"pehr6idt","blank1","ext","rural",100,4,30,4,4,30,4,30566000
"pehr6idt","blank1","ext","secondary",100,3,50,3,0,50,0,16260000
"pehr6idt","blank1","ext","stunted",100,5,18,5,3,18,3,2993000
"pehr6idt","blank1","ext","under5",100,4,10,4,1,10,1,30566000
"pehr6idt","blank1","ext","urban",100,4,70,4,0,70,0,30566000
"pehr6idt","blank1","female","fifteento49",100,51,50,51,26,50,26,30566000
"pehr6idt","blank1","female","fiveto14",100,51,20,51,10,20,10,30566000
"pehr6idt","blank1","female","gt49",100,51,20,51,11,20,11,30566000
"pehr6idt","blank1","female","higher",100,53,26,53,13,26,13,16260000
"pehr6idt","blank1","female","male",100,51,49,51,0,49,0,30566000
"pehr6idt","blank1","female","no.birth.reg",100,49,,49,0,,0,2993000
"pehr6idt","blank1","female","no.educ",100,53,33,53,20,33,20,16260000
"pehr6idt","blank1","female","no.skilled.attendant",100,100,10,100,10,10,10,8149000
"pehr6idt","blank1","female","non.p20",100,51,93,51,47,93,47,30566000
"pehr6idt","blank1","female","p20",100,51,7,51,3,7,3,30566000
"pehr6idt","blank1","female","primary",100,53,67,53,32,67,32,16260000
"pehr6idt","blank1","female","rural",100,51,30,51,15,30,15,30566000
"pehr6idt","blank1","female","secondary",100,53,50,53,24,50,24,16260000
"pehr6idt","blank1","female","stunted",100,49,18,49,9,18,9,2993000
"pehr6idt","blank1","female","under5",100,51,10,51,5,10,5,30566000
"pehr6idt","blank1","female","urban",100,51,70,51,36,70,36,30566000
"pehr6idt","blank1","fifteento49","fiveto14",100,50,20,50,0,20,0,30566000
"pehr6idt","blank1","fifteento49","gt49",100,50,20,50,0,20,0,30566000
"pehr6idt","blank1","fifteento49","higher",100,62,26,62,19,26,19,16260000
"pehr6idt","blank1","fifteento49","male",100,50,49,50,25,49,25,30566000
"pehr6idt","blank1","fifteento49","no.birth.reg",100,0,,0,0,,0,2993000
"pehr6idt","blank1","fifteento49","no.educ",100,62,33,62,11,33,11,16260000
"pehr6idt","blank1","fifteento49","no.skilled.attendant",100,100,10,100,10,10,10,8149000
"pehr6idt","blank1","fifteento49","non.p20",100,50,93,50,48,93,48,30566000
"pehr6idt","blank1","fifteento49","p20",100,50,7,50,3,7,3,30566000
"pehr6idt","blank1","fifteento49","primary",100,62,67,62,51,67,51,16260000
"pehr6idt","blank1","fifteento49","rural",100,50,30,50,14,30,14,30566000
"pehr6idt","blank1","fifteento49","secondary",100,62,50,62,37,50,37,16260000
"pehr6idt","blank1","fifteento49","stunted",100,0,18,0,0,18,0,2993000
"pehr6idt","blank1","fifteento49","under5",100,50,10,50,0,10,0,30566000
"pehr6idt","blank1","fifteento49","urban",100,50,70,50,37,70,37,30566000
"pehr6idt","blank1","fiveto14","gt49",100,20,20,20,0,20,0,30566000
"pehr6idt","blank1","fiveto14","higher",100,0,26,0,0,26,0,16260000
"pehr6idt","blank1","fiveto14","male",100,20,49,20,10,49,10,30566000
"pehr6idt","blank1","fiveto14","no.birth.reg",100,0,,0,0,,0,2993000
"pehr6idt","blank1","fiveto14","no.educ",100,0,33,0,0,33,0,16260000
"pehr6idt","blank1","fiveto14","no.skilled.attendant",100,0,10,0,0,10,0,8149000
"pehr6idt","blank1","fiveto14","non.p20",100,20,93,20,18,93,18,30566000
"pehr6idt","blank1","fiveto14","p20",100,20,7,20,2,7,2,30566000
"pehr6idt","blank1","fiveto14","primary",100,0,67,0,0,67,0,16260000
"pehr6idt","blank1","fiveto14","rural",100,20,30,20,7,30,7,30566000
"pehr6idt","blank1","fiveto14","secondary",100,0,50,0,0,50,0,16260000
"pehr6idt","blank1","fiveto14","stunted",100,0,18,0,0,18,0,2993000
"pehr6idt","blank1","fiveto14","under5",100,20,10,20,0,10,0,30566000
"pehr6idt","blank1","fiveto14","urban",100,20,70,20,13,70,13,30566000
"pehr6idt","blank1","gt49","higher",100,38,26,38,7,26,7,16260000
"pehr6idt","blank1","gt49","male",100,20,49,20,9,49,9,30566000
"pehr6idt","blank1","gt49","no.birth.reg",100,0,,0,0,,0,2993000
"pehr6idt","blank1","gt49","no.educ",100,38,33,38,22,33,22,16260000
"pehr6idt","blank1","gt49","no.skilled.attendant",100,0,10,0,0,10,0,8149000
"pehr6idt","blank1","gt49","non.p20",100,20,93,20,19,93,19,30566000
"pehr6idt","blank1","gt49","p20",100,20,7,20,1,7,1,30566000
"pehr6idt","blank1","gt49","primary",100,38,67,38,17,67,17,16260000
"pehr6idt","blank1","gt49","rural",100,20,30,20,6,30,6,30566000
"pehr6idt","blank1","gt49","secondary",100,38,50,38,13,50,13,16260000
"pehr6idt","blank1","gt49","stunted",100,0,18,0,0,18,0,2993000
"pehr6idt","blank1","gt49","under5",100,20,10,20,0,10,0,30566000
"pehr6idt","blank1","gt49","urban",100,20,70,20,14,70,14,30566000
"pehr6idt","blank1","higher","male",100,26,47,26,13,47,13,16260000
"pehr6idt","blank1","higher","no.birth.reg",,,,,,,,16260000
"pehr6idt","blank1","higher","no.educ",100,26,33,26,0,33,0,16260000
"pehr6idt","blank1","higher","no.skilled.attendant",100,27,10,27,0,10,0,5399000
"pehr6idt","blank1","higher","non.p20",100,26,94,26,26,94,26,16260000
"pehr6idt","blank1","higher","p20",100,26,6,26,0,6,0,16260000
"pehr6idt","blank1","higher","primary",100,26,67,26,26,67,26,16260000
"pehr6idt","blank1","higher","rural",100,26,28,26,2,28,2,16260000
"pehr6idt","blank1","higher","secondary",100,26,50,26,26,50,26,16260000
"pehr6idt","blank1","higher","stunted",,,,,,,,16260000
"pehr6idt","blank1","higher","under5",100,26,0,26,0,0,0,16260000
"pehr6idt","blank1","higher","urban",100,26,72,26,24,72,24,16260000
"pehr6idt","blank1","male","no.birth.reg",100,51,,51,0,,0,2993000
"pehr6idt","blank1","male","no.educ",100,47,33,47,13,33,13,16260000
"pehr6idt","blank1","male","no.skilled.attendant",100,0,10,0,0,10,0,8149000
"pehr6idt","blank1","male","non.p20",100,49,93,49,46,93,46,30566000
"pehr6idt","blank1","male","p20",100,49,7,49,3,7,3,30566000
"pehr6idt","blank1","male","primary",100,47,67,47,35,67,35,16260000
"pehr6idt","blank1","male","rural",100,49,30,49,15,30,15,30566000
"pehr6idt","blank1","male","secondary",100,47,50,47,26,50,26,16260000
"pehr6idt","blank1","male","stunted",100,51,18,51,9,18,9,2993000
"pehr6idt","blank1","male","under5",100,49,10,49,5,10,5,30566000
"pehr6idt","blank1","male","urban",100,49,70,49,34,70,34,30566000
"pehr6idt","blank1","no.birth.reg","no.educ",,,,,,,,16260000
"pehr6idt","blank1","no.birth.reg","no.skilled.attendant",,,,,,,,2993000
"pehr6idt","blank1","no.birth.reg","non.p20",100,,91,,0,91,0,2993000
"pehr6idt","blank1","no.birth.reg","p20",100,,9,,0,9,0,2993000
"pehr6idt","blank1","no.birth.reg","primary",,,,,,,,16260000
"pehr6idt","blank1","no.birth.reg","rural",100,,35,,0,35,0,2993000
"pehr6idt","blank1","no.birth.reg","secondary",,,,,,,,16260000
"pehr6idt","blank1","no.birth.reg","stunted",100,,18,,0,18,0,2993000
"pehr6idt","blank1","no.birth.reg","under5",100,,100,,,100,,2993000
"pehr6idt","blank1","no.birth.reg","urban",100,,65,,0,65,0,2993000
"pehr6idt","blank1","no.educ","no.skilled.attendant",100,21,10,21,5,10,5,5399000
"pehr6idt","blank1","no.educ","non.p20",100,33,94,33,28,94,28,16260000
"pehr6idt","blank1","no.educ","p20",100,33,6,33,4,6,4,16260000
"pehr6idt","blank1","no.educ","primary",100,33,67,33,0,67,0,16260000
"pehr6idt","blank1","no.educ","rural",100,33,28,33,17,28,17,16260000
"pehr6idt","blank1","no.educ","secondary",100,33,50,33,0,50,0,16260000
"pehr6idt","blank1","no.educ","stunted",,,,,,,,16260000
"pehr6idt","blank1","no.educ","under5",100,33,0,33,0,0,0,16260000
"pehr6idt","blank1","no.educ","urban",100,33,72,33,16,72,16,16260000
"pehr6idt","blank1","no.skilled.attendant","non.p20",100,10,92,10,6,92,6,8149000
"pehr6idt","blank1","no.skilled.attendant","p20",100,10,8,10,3,8,3,8149000
"pehr6idt","blank1","no.skilled.attendant","primary",100,10,79,10,5,79,5,5399000
"pehr6idt","blank1","no.skilled.attendant","rural",100,10,33,10,7,33,7,8149000
"pehr6idt","blank1","no.skilled.attendant","secondary",100,10,53,10,1,53,1,5399000
"pehr6idt","blank1","no.skilled.attendant","stunted",,,,,,,,2993000
"pehr6idt","blank1","no.skilled.attendant","under5",100,10,0,10,0,0,0,8149000
"pehr6idt","blank1","no.skilled.attendant","urban",100,10,67,10,2,67,2,8149000
"pehr6idt","blank1","non.p20","p20",100,93,7,93,0,7,0,30566000
"pehr6idt","blank1","non.p20","primary",100,94,67,94,66,67,66,16260000
"pehr6idt","blank1","non.p20","rural",100,93,30,93,24,30,24,30566000
"pehr6idt","blank1","non.p20","secondary",100,94,50,94,50,50,50,16260000
"pehr6idt","blank1","non.p20","stunted",100,91,18,91,14,18,14,2993000
"pehr6idt","blank1","non.p20","under5",100,93,10,93,9,10,9,30566000
"pehr6idt","blank1","non.p20","urban",100,93,70,93,69,70,69,30566000
"pehr6idt","blank1","p20","primary",100,6,67,6,2,67,2,16260000
"pehr6idt","blank1","p20","rural",100,7,30,7,6,30,6,30566000
"pehr6idt","blank1","p20","secondary",100,6,50,6,0,50,0,16260000
"pehr6idt","blank1","p20","stunted",100,9,18,9,4,18,4,2993000
"pehr6idt","blank1","p20","under5",100,7,10,7,1,10,1,30566000
"pehr6idt","blank1","p20","urban",100,7,70,7,0,70,0,30566000
"pehr6idt","blank1","primary","rural",100,67,28,67,12,28,12,16260000
"pehr6idt","blank1","primary","secondary",100,67,50,67,50,50,50,16260000
"pehr6idt","blank1","primary","stunted",,,,,,,,16260000
"pehr6idt","blank1","primary","under5",100,67,0,67,0,0,0,16260000
"pehr6idt","blank1","primary","urban",100,67,72,67,56,72,56,16260000
"pehr6idt","blank1","rural","secondary",100,28,50,28,6,50,6,16260000
"pehr6idt","blank1","rural","stunted",100,35,18,35,11,18,11,2993000
"pehr6idt","blank1","rural","under5",100,30,10,30,3,10,3,30566000
"pehr6idt","blank1","rural","urban",100,30,70,30,0,70,0,30566000
"pehr6idt","blank1","secondary","stunted",,,,,,,,16260000
"pehr6idt","blank1","secondary","under5",100,50,0,50,0,0,0,16260000
"pehr6idt","blank1","secondary","urban",100,50,72,50,45,72,45,16260000
"pehr6idt","blank1","stunted","under5",100,18,100,18,18,100,18,2993000
"pehr6idt","blank1","stunted","urban",100,18,65,18,7,65,7,2993000
"pehr6idt","blank1","under5","urban",100,10,70,10,6,70,6,30566000
"pehr6idt","blank2","ext","female",100,4,51,4,2,51,2,30566000
"pehr6idt","blank2","ext","fifteento49",100,4,50,4,1,50,1,30566000
"pehr6idt","blank2","ext","fiveto14",100,4,20,4,1,20,1,30566000
"pehr6idt","blank2","ext","gt49",100,4,20,4,1,20,1,30566000
"pehr6idt","blank2","ext","higher",100,3,26,3,0,26,0,16260000
"pehr6idt","blank2","ext","male",100,4,49,4,2,49,2,30566000
"pehr6idt","blank2","ext","no.birth.reg",100,5,,5,0,,0,2993000
"pehr6idt","blank2","ext","no.educ",100,3,33,3,2,33,2,16260000
"pehr6idt","blank2","ext","no.skilled.attendant",100,4,10,4,2,10,2,8149000
"pehr6idt","blank2","ext","non.p20",100,4,93,4,0,93,0,30566000
"pehr6idt","blank2","ext","p20",100,4,7,4,4,7,4,30566000
"pehr6idt","blank2","ext","primary",100,3,67,3,1,67,1,16260000
"pehr6idt","blank2","ext","rural",100,4,30,4,4,30,4,30566000
"pehr6idt","blank2","ext","secondary",100,3,50,3,0,50,0,16260000
"pehr6idt","blank2","ext","stunted",100,5,18,5,3,18,3,2993000
"pehr6idt","blank2","ext","under5",100,4,10,4,1,10,1,30566000
"pehr6idt","blank2","ext","urban",100,4,70,4,0,70,0,30566000
"pehr6idt","blank2","female","fifteento49",100,51,50,51,26,50,26,30566000
"pehr6idt","blank2","female","fiveto14",100,51,20,51,10,20,10,30566000
"pehr6idt","blank2","female","gt49",100,51,20,51,11,20,11,30566000
"pehr6idt","blank2","female","higher",100,53,26,53,13,26,13,16260000
"pehr6idt","blank2","female","male",100,51,49,51,0,49,0,30566000
"pehr6idt","blank2","female","no.birth.reg",100,49,,49,0,,0,2993000
"pehr6idt","blank2","female","no.educ",100,53,33,53,20,33,20,16260000
"pehr6idt","blank2","female","no.skilled.attendant",100,100,10,100,10,10,10,8149000
"pehr6idt","blank2","female","non.p20",100,51,93,51,47,93,47,30566000
"pehr6idt","blank2","female","p20",100,51,7,51,3,7,3,30566000
"pehr6idt","blank2","female","primary",100,53,67,53,32,67,32,16260000
"pehr6idt","blank2","female","rural",100,51,30,51,15,30,15,30566000
"pehr6idt","blank2","female","secondary",100,53,50,53,24,50,24,16260000
"pehr6idt","blank2","female","stunted",100,49,18,49,9,18,9,2993000
"pehr6idt","blank2","female","under5",100,51,10,51,5,10,5,30566000
"pehr6idt","blank2","female","urban",100,51,70,51,36,70,36,30566000
"pehr6idt","blank2","fifteento49","fiveto14",100,50,20,50,0,20,0,30566000
"pehr6idt","blank2","fifteento49","gt49",100,50,20,50,0,20,0,30566000
"pehr6idt","blank2","fifteento49","higher",100,62,26,62,19,26,19,16260000
"pehr6idt","blank2","fifteento49","male",100,50,49,50,25,49,25,30566000
"pehr6idt","blank2","fifteento49","no.birth.reg",100,0,,0,0,,0,2993000
"pehr6idt","blank2","fifteento49","no.educ",100,62,33,62,11,33,11,16260000
"pehr6idt","blank2","fifteento49","no.skilled.attendant",100,100,10,100,10,10,10,8149000
"pehr6idt","blank2","fifteento49","non.p20",100,50,93,50,48,93,48,30566000
"pehr6idt","blank2","fifteento49","p20",100,50,7,50,3,7,3,30566000
"pehr6idt","blank2","fifteento49","primary",100,62,67,62,51,67,51,16260000
"pehr6idt","blank2","fifteento49","rural",100,50,30,50,14,30,14,30566000
"pehr6idt","blank2","fifteento49","secondary",100,62,50,62,37,50,37,16260000
"pehr6idt","blank2","fifteento49","stunted",100,0,18,0,0,18,0,2993000
"pehr6idt","blank2","fifteento49","under5",100,50,10,50,0,10,0,30566000
"pehr6idt","blank2","fifteento49","urban",100,50,70,50,37,70,37,30566000
"pehr6idt","blank2","fiveto14","gt49",100,20,20,20,0,20,0,30566000
"pehr6idt","blank2","fiveto14","higher",100,0,26,0,0,26,0,16260000
"pehr6idt","blank2","fiveto14","male",100,20,49,20,10,49,10,30566000
"pehr6idt","blank2","fiveto14","no.birth.reg",100,0,,0,0,,0,2993000
"pehr6idt","blank2","fiveto14","no.educ",100,0,33,0,0,33,0,16260000
"pehr6idt","blank2","fiveto14","no.skilled.attendant",100,0,10,0,0,10,0,8149000
"pehr6idt","blank2","fiveto14","non.p20",100,20,93,20,18,93,18,30566000
"pehr6idt","blank2","fiveto14","p20",100,20,7,20,2,7,2,30566000
"pehr6idt","blank2","fiveto14","primary",100,0,67,0,0,67,0,16260000
"pehr6idt","blank2","fiveto14","rural",100,20,30,20,7,30,7,30566000
"pehr6idt","blank2","fiveto14","secondary",100,0,50,0,0,50,0,16260000
"pehr6idt","blank2","fiveto14","stunted",100,0,18,0,0,18,0,2993000
"pehr6idt","blank2","fiveto14","under5",100,20,10,20,0,10,0,30566000
"pehr6idt","blank2","fiveto14","urban",100,20,70,20,13,70,13,30566000
"pehr6idt","blank2","gt49","higher",100,38,26,38,7,26,7,16260000
"pehr6idt","blank2","gt49","male",100,20,49,20,9,49,9,30566000
"pehr6idt","blank2","gt49","no.birth.reg",100,0,,0,0,,0,2993000
"pehr6idt","blank2","gt49","no.educ",100,38,33,38,22,33,22,16260000
"pehr6idt","blank2","gt49","no.skilled.attendant",100,0,10,0,0,10,0,8149000
"pehr6idt","blank2","gt49","non.p20",100,20,93,20,19,93,19,30566000
"pehr6idt","blank2","gt49","p20",100,20,7,20,1,7,1,30566000
"pehr6idt","blank2","gt49","primary",100,38,67,38,17,67,17,16260000
"pehr6idt","blank2","gt49","rural",100,20,30,20,6,30,6,30566000
"pehr6idt","blank2","gt49","secondary",100,38,50,38,13,50,13,16260000
"pehr6idt","blank2","gt49","stunted",100,0,18,0,0,18,0,2993000
"pehr6idt","blank2","gt49","under5",100,20,10,20,0,10,0,30566000
"pehr6idt","blank2","gt49","urban",100,20,70,20,14,70,14,30566000
"pehr6idt","blank2","higher","male",100,26,47,26,13,47,13,16260000
"pehr6idt","blank2","higher","no.birth.reg",,,,,,,,16260000
"pehr6idt","blank2","higher","no.educ",100,26,33,26,0,33,0,16260000
"pehr6idt","blank2","higher","no.skilled.attendant",100,27,10,27,0,10,0,5399000
"pehr6idt","blank2","higher","non.p20",100,26,94,26,26,94,26,16260000
"pehr6idt","blank2","higher","p20",100,26,6,26,0,6,0,16260000
"pehr6idt","blank2","higher","primary",100,26,67,26,26,67,26,16260000
"pehr6idt","blank2","higher","rural",100,26,28,26,2,28,2,16260000
"pehr6idt","blank2","higher","secondary",100,26,50,26,26,50,26,16260000
"pehr6idt","blank2","higher","stunted",,,,,,,,16260000
"pehr6idt","blank2","higher","under5",100,26,0,26,0,0,0,16260000
"pehr6idt","blank2","higher","urban",100,26,72,26,24,72,24,16260000
"pehr6idt","blank2","male","no.birth.reg",100,51,,51,0,,0,2993000
"pehr6idt","blank2","male","no.educ",100,47,33,47,13,33,13,16260000
"pehr6idt","blank2","male","no.skilled.attendant",100,0,10,0,0,10,0,8149000
"pehr6idt","blank2","male","non.p20",100,49,93,49,46,93,46,30566000
"pehr6idt","blank2","male","p20",100,49,7,49,3,7,3,30566000
"pehr6idt","blank2","male","primary",100,47,67,47,35,67,35,16260000
"pehr6idt","blank2","male","rural",100,49,30,49,15,30,15,30566000
"pehr6idt","blank2","male","secondary",100,47,50,47,26,50,26,16260000
"pehr6idt","blank2","male","stunted",100,51,18,51,9,18,9,2993000
"pehr6idt","blank2","male","under5",100,49,10,49,5,10,5,30566000
"pehr6idt","blank2","male","urban",100,49,70,49,34,70,34,30566000
"pehr6idt","blank2","no.birth.reg","no.educ",,,,,,,,16260000
"pehr6idt","blank2","no.birth.reg","no.skilled.attendant",,,,,,,,2993000
"pehr6idt","blank2","no.birth.reg","non.p20",100,,91,,0,91,0,2993000
"pehr6idt","blank2","no.birth.reg","p20",100,,9,,0,9,0,2993000
"pehr6idt","blank2","no.birth.reg","primary",,,,,,,,16260000
"pehr6idt","blank2","no.birth.reg","rural",100,,35,,0,35,0,2993000
"pehr6idt","blank2","no.birth.reg","secondary",,,,,,,,16260000
"pehr6idt","blank2","no.birth.reg","stunted",100,,18,,0,18,0,2993000
"pehr6idt","blank2","no.birth.reg","under5",100,,100,,,100,,2993000
"pehr6idt","blank2","no.birth.reg","urban",100,,65,,0,65,0,2993000
"pehr6idt","blank2","no.educ","no.skilled.attendant",100,21,10,21,5,10,5,5399000
"pehr6idt","blank2","no.educ","non.p20",100,33,94,33,28,94,28,16260000
"pehr6idt","blank2","no.educ","p20",100,33,6,33,4,6,4,16260000
"pehr6idt","blank2","no.educ","primary",100,33,67,33,0,67,0,16260000
"pehr6idt","blank2","no.educ","rural",100,33,28,33,17,28,17,16260000
"pehr6idt","blank2","no.educ","secondary",100,33,50,33,0,50,0,16260000
"pehr6idt","blank2","no.educ","stunted",,,,,,,,16260000
"pehr6idt","blank2","no.educ","under5",100,33,0,33,0,0,0,16260000
"pehr6idt","blank2","no.educ","urban",100,33,72,33,16,72,16,16260000
"pehr6idt","blank2","no.skilled.attendant","non.p20",100,10,92,10,6,92,6,8149000
"pehr6idt","blank2","no.skilled.attendant","p20",100,10,8,10,3,8,3,8149000
"pehr6idt","blank2","no.skilled.attendant","primary",100,10,79,10,5,79,5,5399000
"pehr6idt","blank2","no.skilled.attendant","rural",100,10,33,10,7,33,7,8149000
"pehr6idt","blank2","no.skilled.attendant","secondary",100,10,53,10,1,53,1,5399000
"pehr6idt","blank2","no.skilled.attendant","stunted",,,,,,,,2993000
"pehr6idt","blank2","no.skilled.attendant","under5",100,10,0,10,0,0,0,8149000
"pehr6idt","blank2","no.skilled.attendant","urban",100,10,67,10,2,67,2,8149000
"pehr6idt","blank2","non.p20","p20",100,93,7,93,0,7,0,30566000
"pehr6idt","blank2","non.p20","primary",100,94,67,94,66,67,66,16260000
"pehr6idt","blank2","non.p20","rural",100,93,30,93,24,30,24,30566000
"pehr6idt","blank2","non.p20","secondary",100,94,50,94,50,50,50,16260000
"pehr6idt","blank2","non.p20","stunted",100,91,18,91,14,18,14,2993000
"pehr6idt","blank2","non.p20","under5",100,93,10,93,9,10,9,30566000
"pehr6idt","blank2","non.p20","urban",100,93,70,93,69,70,69,30566000
"pehr6idt","blank2","p20","primary",100,6,67,6,2,67,2,16260000
"pehr6idt","blank2","p20","rural",100,7,30,7,6,30,6,30566000
"pehr6idt","blank2","p20","secondary",100,6,50,6,0,50,0,16260000
"pehr6idt","blank2","p20","stunted",100,9,18,9,4,18,4,2993000
"pehr6idt","blank2","p20","under5",100,7,10,7,1,10,1,30566000
"pehr6idt","blank2","p20","urban",100,7,70,7,0,70,0,30566000
"pehr6idt","blank2","primary","rural",100,67,28,67,12,28,12,16260000
"pehr6idt","blank2","primary","secondary",100,67,50,67,50,50,50,16260000
"pehr6idt","blank2","primary","stunted",,,,,,,,16260000
"pehr6idt","blank2","primary","under5",100,67,0,67,0,0,0,16260000
"pehr6idt","blank2","primary","urban",100,67,72,67,56,72,56,16260000
"pehr6idt","blank2","rural","secondary",100,28,50,28,6,50,6,16260000
"pehr6idt","blank2","rural","stunted",100,35,18,35,11,18,11,2993000
"pehr6idt","blank2","rural","under5",100,30,10,30,3,10,3,30566000
"pehr6idt","blank2","rural","urban",100,30,70,30,0,70,0,30566000
"pehr6idt","blank2","secondary","stunted",,,,,,,,16260000
"pehr6idt","blank2","secondary","under5",100,50,0,50,0,0,0,16260000
"pehr6idt","blank2","secondary","urban",100,50,72,50,45,72,45,16260000
"pehr6idt","blank2","stunted","under5",100,18,100,18,18,100,18,2993000
"pehr6idt","blank2","stunted","urban",100,18,65,18,7,65,7,2993000
"pehr6idt","blank2","under5","urban",100,10,70,10,6,70,6,30566000
"pehr6idt","ext","female","fifteento49",4,51,50,2,26,1,1,30566000
"pehr6idt","ext","female","fiveto14",4,51,20,2,10,1,1,30566000
"pehr6idt","ext","female","gt49",4,51,20,2,11,1,0,30566000
"pehr6idt","ext","female","higher",3,53,26,2,13,0,0,16260000
"pehr6idt","ext","female","male",4,51,49,2,0,2,0,30566000
"pehr6idt","ext","female","no.birth.reg",5,49,,3,0,0,0,2993000
"pehr6idt","ext","female","no.educ",3,53,33,2,20,2,1,16260000
"pehr6idt","ext","female","no.skilled.attendant",4,100,10,4,10,2,2,8149000
"pehr6idt","ext","female","non.p20",4,51,93,2,47,0,0,30566000
"pehr6idt","ext","female","p20",4,51,7,2,3,4,2,30566000
"pehr6idt","ext","female","primary",3,53,67,2,32,1,0,16260000
"pehr6idt","ext","female","rural",4,51,30,2,15,4,2,30566000
"pehr6idt","ext","female","secondary",3,53,50,2,24,0,0,16260000
"pehr6idt","ext","female","stunted",5,49,18,3,9,3,1,2993000
"pehr6idt","ext","female","under5",4,51,10,2,5,1,0,30566000
"pehr6idt","ext","female","urban",4,51,70,2,36,0,0,30566000
"pehr6idt","ext","fifteento49","fiveto14",4,50,20,1,0,1,0,30566000
"pehr6idt","ext","fifteento49","gt49",4,50,20,1,0,1,0,30566000
"pehr6idt","ext","fifteento49","higher",3,62,26,2,19,0,0,16260000
"pehr6idt","ext","fifteento49","male",4,50,49,1,25,2,1,30566000
"pehr6idt","ext","fifteento49","no.birth.reg",5,0,,0,0,0,0,2993000
"pehr6idt","ext","fifteento49","no.educ",3,62,33,2,11,2,1,16260000
"pehr6idt","ext","fifteento49","no.skilled.attendant",4,100,10,4,10,2,2,8149000
"pehr6idt","ext","fifteento49","non.p20",4,50,93,1,48,0,0,30566000
"pehr6idt","ext","fifteento49","p20",4,50,7,1,3,4,1,30566000
"pehr6idt","ext","fifteento49","primary",3,62,67,2,51,1,1,16260000
"pehr6idt","ext","fifteento49","rural",4,50,30,1,14,4,1,30566000
"pehr6idt","ext","fifteento49","secondary",3,62,50,2,37,0,0,16260000
"pehr6idt","ext","fifteento49","stunted",5,0,18,0,0,3,0,2993000
"pehr6idt","ext","fifteento49","under5",4,50,10,1,0,1,0,30566000
"pehr6idt","ext","fifteento49","urban",4,50,70,1,37,0,0,30566000
"pehr6idt","ext","fiveto14","gt49",4,20,20,1,0,1,0,30566000
"pehr6idt","ext","fiveto14","higher",3,0,26,0,0,0,0,16260000
"pehr6idt","ext","fiveto14","male",4,20,49,1,10,2,1,30566000
"pehr6idt","ext","fiveto14","no.birth.reg",5,0,,0,0,0,0,2993000
"pehr6idt","ext","fiveto14","no.educ",3,0,33,0,0,2,0,16260000
"pehr6idt","ext","fiveto14","no.skilled.attendant",4,0,10,0,0,2,0,8149000
"pehr6idt","ext","fiveto14","non.p20",4,20,93,1,18,0,0,30566000
"pehr6idt","ext","fiveto14","p20",4,20,7,1,2,4,1,30566000
"pehr6idt","ext","fiveto14","primary",3,0,67,0,0,1,0,16260000
"pehr6idt","ext","fiveto14","rural",4,20,30,1,7,4,1,30566000
"pehr6idt","ext","fiveto14","secondary",3,0,50,0,0,0,0,16260000
"pehr6idt","ext","fiveto14","stunted",5,0,18,0,0,3,0,2993000
"pehr6idt","ext","fiveto14","under5",4,20,10,1,0,1,0,30566000
"pehr6idt","ext","fiveto14","urban",4,20,70,1,13,0,0,30566000
"pehr6idt","ext","gt49","higher",3,38,26,1,7,0,0,16260000
"pehr6idt","ext","gt49","male",4,20,49,1,9,2,0,30566000
"pehr6idt","ext","gt49","no.birth.reg",5,0,,0,0,0,0,2993000
"pehr6idt","ext","gt49","no.educ",3,38,33,1,22,2,1,16260000
"pehr6idt","ext","gt49","no.skilled.attendant",4,0,10,0,0,2,0,8149000
"pehr6idt","ext","gt49","non.p20",4,20,93,1,19,0,0,30566000
"pehr6idt","ext","gt49","p20",4,20,7,1,1,4,1,30566000
"pehr6idt","ext","gt49","primary",3,38,67,1,17,1,0,16260000
"pehr6idt","ext","gt49","rural",4,20,30,1,6,4,1,30566000
"pehr6idt","ext","gt49","secondary",3,38,50,1,13,0,0,16260000
"pehr6idt","ext","gt49","stunted",5,0,18,0,0,3,0,2993000
"pehr6idt","ext","gt49","under5",4,20,10,1,0,1,0,30566000
"pehr6idt","ext","gt49","urban",4,20,70,1,14,0,0,30566000
"pehr6idt","ext","higher","male",3,26,47,0,13,2,0,16260000
"pehr6idt","ext","higher","no.birth.reg",,,,,,,,16260000
"pehr6idt","ext","higher","no.educ",3,26,33,0,0,2,0,16260000
"pehr6idt","ext","higher","no.skilled.attendant",4,27,10,0,0,2,0,5399000
"pehr6idt","ext","higher","non.p20",3,26,94,0,26,0,0,16260000
"pehr6idt","ext","higher","p20",3,26,6,0,0,3,0,16260000
"pehr6idt","ext","higher","primary",3,26,67,0,26,1,0,16260000
"pehr6idt","ext","higher","rural",3,26,28,0,2,3,0,16260000
"pehr6idt","ext","higher","secondary",3,26,50,0,26,0,0,16260000
"pehr6idt","ext","higher","stunted",,,,,,,,16260000
"pehr6idt","ext","higher","under5",3,26,0,0,0,0,0,16260000
"pehr6idt","ext","higher","urban",3,26,72,0,24,0,0,16260000
"pehr6idt","ext","male","no.birth.reg",5,51,,3,0,0,0,2993000
"pehr6idt","ext","male","no.educ",3,47,33,2,13,2,1,16260000
"pehr6idt","ext","male","no.skilled.attendant",4,0,10,0,0,2,0,8149000
"pehr6idt","ext","male","non.p20",4,49,93,2,46,0,0,30566000
"pehr6idt","ext","male","p20",4,49,7,2,3,4,2,30566000
"pehr6idt","ext","male","primary",3,47,67,2,35,1,1,16260000
"pehr6idt","ext","male","rural",4,49,30,2,15,4,2,30566000
"pehr6idt","ext","male","secondary",3,47,50,2,26,0,0,16260000
"pehr6idt","ext","male","stunted",5,51,18,3,9,3,1,2993000
"pehr6idt","ext","male","under5",4,49,10,2,5,1,0,30566000
"pehr6idt","ext","male","urban",4,49,70,2,34,0,0,30566000
"pehr6idt","ext","no.birth.reg","no.educ",,,,,,,,16260000
"pehr6idt","ext","no.birth.reg","no.skilled.attendant",,,,,,,,2993000
"pehr6idt","ext","no.birth.reg","non.p20",5,,91,0,0,0,0,2993000
"pehr6idt","ext","no.birth.reg","p20",5,,9,0,0,5,0,2993000
"pehr6idt","ext","no.birth.reg","primary",,,,,,,,16260000
"pehr6idt","ext","no.birth.reg","rural",5,,35,0,0,5,0,2993000
"pehr6idt","ext","no.birth.reg","secondary",,,,,,,,16260000
"pehr6idt","ext","no.birth.reg","stunted",5,,18,0,0,3,0,2993000
"pehr6idt","ext","no.birth.reg","under5",5,,100,0,,5,0,2993000
"pehr6idt","ext","no.birth.reg","urban",5,,65,0,0,0,0,2993000
"pehr6idt","ext","no.educ","no.skilled.attendant",4,21,10,3,5,2,2,5399000
"pehr6idt","ext","no.educ","non.p20",3,33,94,2,28,0,0,16260000
"pehr6idt","ext","no.educ","p20",3,33,6,2,4,3,2,16260000
"pehr6idt","ext","no.educ","primary",3,33,67,2,0,1,0,16260000
"pehr6idt","ext","no.educ","rural",3,33,28,2,17,3,2,16260000
"pehr6idt","ext","no.educ","secondary",3,33,50,2,0,0,0,16260000
"pehr6idt","ext","no.educ","stunted",,,,,,,,16260000
"pehr6idt","ext","no.educ","under5",3,33,0,2,0,0,0,16260000
"pehr6idt","ext","no.educ","urban",3,33,72,2,16,0,0,16260000
"pehr6idt","ext","no.skilled.attendant","non.p20",4,10,92,2,6,0,0,8149000
"pehr6idt","ext","no.skilled.attendant","p20",4,10,8,2,3,4,2,8149000
"pehr6idt","ext","no.skilled.attendant","primary",4,10,79,2,5,1,1,5399000
"pehr6idt","ext","no.skilled.attendant","rural",4,10,33,2,7,4,2,8149000
"pehr6idt","ext","no.skilled.attendant","secondary",4,10,53,2,1,0,0,5399000
"pehr6idt","ext","no.skilled.attendant","stunted",,,,,,,,2993000
"pehr6idt","ext","no.skilled.attendant","under5",4,10,0,2,0,0,0,8149000
"pehr6idt","ext","no.skilled.attendant","urban",4,10,67,2,2,0,0,8149000
"pehr6idt","ext","non.p20","p20",4,93,7,0,0,4,0,30566000
"pehr6idt","ext","non.p20","primary",3,94,67,0,66,1,0,16260000
"pehr6idt","ext","non.p20","rural",4,93,30,0,24,4,0,30566000
"pehr6idt","ext","non.p20","secondary",3,94,50,0,50,0,0,16260000
"pehr6idt","ext","non.p20","stunted",5,91,18,0,14,3,0,2993000
"pehr6idt","ext","non.p20","under5",4,93,10,0,9,1,0,30566000
"pehr6idt","ext","non.p20","urban",4,93,70,0,69,0,0,30566000
"pehr6idt","ext","p20","primary",3,6,67,3,2,1,1,16260000
"pehr6idt","ext","p20","rural",4,7,30,4,6,4,4,30566000
"pehr6idt","ext","p20","secondary",3,6,50,3,0,0,0,16260000
"pehr6idt","ext","p20","stunted",5,9,18,5,4,3,3,2993000
"pehr6idt","ext","p20","under5",4,7,10,4,1,1,1,30566000
"pehr6idt","ext","p20","urban",4,7,70,4,0,0,0,30566000
"pehr6idt","ext","primary","rural",3,67,28,1,12,3,1,16260000
"pehr6idt","ext","primary","secondary",3,67,50,1,50,0,0,16260000
"pehr6idt","ext","primary","stunted",,,,,,,,16260000
"pehr6idt","ext","primary","under5",3,67,0,1,0,0,0,16260000
"pehr6idt","ext","primary","urban",3,67,72,1,56,0,0,16260000
"pehr6idt","ext","rural","secondary",3,28,50,3,6,0,0,16260000
"pehr6idt","ext","rural","stunted",5,35,18,5,11,3,2,2993000
"pehr6idt","ext","rural","under5",4,30,10,4,3,1,0,30566000
"pehr6idt","ext","rural","urban",4,30,70,4,0,0,0,30566000
"pehr6idt","ext","secondary","stunted",,,,,,,,16260000
"pehr6idt","ext","secondary","under5",3,50,0,0,0,0,0,16260000
"pehr6idt","ext","secondary","urban",3,50,72,0,45,0,0,16260000
"pehr6idt","ext","stunted","under5",5,18,100,3,18,5,3,2993000
"pehr6idt","ext","stunted","urban",5,18,65,3,7,0,0,2993000
"pehr6idt","ext","under5","urban",4,10,70,1,6,0,0,30566000
"pehr6idt","female","fifteento49","fiveto14",51,50,20,26,0,10,0,30566000
"pehr6idt","female","fifteento49","gt49",51,50,20,26,0,11,0,30566000
"pehr6idt","female","fifteento49","higher",53,62,26,32,19,13,10,16260000
"pehr6idt","female","fifteento49","male",51,50,49,26,25,0,0,30566000
"pehr6idt","female","fifteento49","no.birth.reg",49,0,,0,0,0,0,2993000
"pehr6idt","female","fifteento49","no.educ",53,62,33,32,11,20,7,16260000
"pehr6idt","female","fifteento49","no.skilled.attendant",100,100,10,100,10,10,10,8149000
"pehr6idt","female","fifteento49","non.p20",51,50,93,26,48,47,24,30566000
"pehr6idt","female","fifteento49","p20",51,50,7,26,3,3,1,30566000
"pehr6idt","female","fifteento49","primary",53,62,67,32,51,32,25,16260000
"pehr6idt","female","fifteento49","rural",51,50,30,26,14,15,7,30566000
"pehr6idt","female","fifteento49","secondary",53,62,50,32,37,24,18,16260000
"pehr6idt","female","fifteento49","stunted",49,0,18,0,0,9,0,2993000
"pehr6idt","female","fifteento49","under5",51,50,10,26,0,5,0,30566000
"pehr6idt","female","fifteento49","urban",51,50,70,26,37,36,19,30566000
"pehr6idt","female","fiveto14","gt49",51,20,20,10,0,11,0,30566000
"pehr6idt","female","fiveto14","higher",53,0,26,0,0,13,0,16260000
"pehr6idt","female","fiveto14","male",51,20,49,10,10,0,0,30566000
"pehr6idt","female","fiveto14","no.birth.reg",49,0,,0,0,0,0,2993000
"pehr6idt","female","fiveto14","no.educ",53,0,33,0,0,20,0,16260000
"pehr6idt","female","fiveto14","no.skilled.attendant",100,0,10,0,0,10,0,8149000
"pehr6idt","female","fiveto14","non.p20",51,20,93,10,18,47,9,30566000
"pehr6idt","female","fiveto14","p20",51,20,7,10,2,3,1,30566000
"pehr6idt","female","fiveto14","primary",53,0,67,0,0,32,0,16260000
"pehr6idt","female","fiveto14","rural",51,20,30,10,7,15,4,30566000
"pehr6idt","female","fiveto14","secondary",53,0,50,0,0,24,0,16260000
"pehr6idt","female","fiveto14","stunted",49,0,18,0,0,9,0,2993000
"pehr6idt","female","fiveto14","under5",51,20,10,10,0,5,0,30566000
"pehr6idt","female","fiveto14","urban",51,20,70,10,13,36,6,30566000
"pehr6idt","female","gt49","higher",53,38,26,20,7,13,3,16260000
"pehr6idt","female","gt49","male",51,20,49,11,9,0,0,30566000
"pehr6idt","female","gt49","no.birth.reg",49,0,,0,0,0,0,2993000
"pehr6idt","female","gt49","no.educ",53,38,33,20,22,20,13,16260000
"pehr6idt","female","gt49","no.skilled.attendant",100,0,10,0,0,10,0,8149000
"pehr6idt","female","gt49","non.p20",51,20,93,11,19,47,10,30566000
"pehr6idt","female","gt49","p20",51,20,7,11,1,3,1,30566000
"pehr6idt","female","gt49","primary",53,38,67,20,17,32,7,16260000
"pehr6idt","female","gt49","rural",51,20,30,11,6,15,3,30566000
"pehr6idt","female","gt49","secondary",53,38,50,20,13,24,6,16260000
"pehr6idt","female","gt49","stunted",49,0,18,0,0,9,0,2993000
"pehr6idt","female","gt49","under5",51,20,10,11,0,5,0,30566000
"pehr6idt","female","gt49","urban",51,20,70,11,14,36,7,30566000
"pehr6idt","female","higher","male",53,26,47,13,13,0,0,16260000
"pehr6idt","female","higher","no.birth.reg",,,,,,,,16260000
"pehr6idt","female","higher","no.educ",53,26,33,13,0,20,0,16260000
"pehr6idt","female","higher","no.skilled.attendant",100,27,10,27,0,10,0,5399000
"pehr6idt","female","higher","non.p20",53,26,94,13,26,50,13,16260000
"pehr6idt","female","higher","p20",53,26,6,13,0,3,0,16260000
"pehr6idt","female","higher","primary",53,26,67,13,26,32,13,16260000
"pehr6idt","female","higher","rural",53,26,28,13,2,14,1,16260000
"pehr6idt","female","higher","secondary",53,26,50,13,26,24,13,16260000
"pehr6idt","female","higher","stunted",,,,,,,,16260000
"pehr6idt","female","higher","under5",53,26,0,13,0,0,0,16260000
"pehr6idt","female","higher","urban",53,26,72,13,24,38,12,16260000
"pehr6idt","female","male","no.birth.reg",49,51,,0,0,0,0,2993000
"pehr6idt","female","male","no.educ",53,47,33,0,13,20,0,16260000
"pehr6idt","female","male","no.skilled.attendant",100,0,10,0,0,10,0,8149000
"pehr6idt","female","male","non.p20",51,49,93,0,46,47,0,30566000
"pehr6idt","female","male","p20",51,49,7,0,3,3,0,30566000
"pehr6idt","female","male","primary",53,47,67,0,35,32,0,16260000
"pehr6idt","female","male","rural",51,49,30,0,15,15,0,30566000
"pehr6idt","female","male","secondary",53,47,50,0,26,24,0,16260000
"pehr6idt","female","male","stunted",49,51,18,0,9,9,0,2993000
"pehr6idt","female","male","under5",51,49,10,0,5,5,0,30566000
"pehr6idt","female","male","urban",51,49,70,0,34,36,0,30566000
"pehr6idt","female","no.birth.reg","no.educ",,,,,,,,16260000
"pehr6idt","female","no.birth.reg","no.skilled.attendant",,,,,,,,2993000
"pehr6idt","female","no.birth.reg","non.p20",49,,91,0,0,44,0,2993000
"pehr6idt","female","no.birth.reg","p20",49,,9,0,0,5,0,2993000
"pehr6idt","female","no.birth.reg","primary",,,,,,,,16260000
"pehr6idt","female","no.birth.reg","rural",49,,35,0,0,17,0,2993000
"pehr6idt","female","no.birth.reg","secondary",,,,,,,,16260000
"pehr6idt","female","no.birth.reg","stunted",49,,18,0,0,9,0,2993000
"pehr6idt","female","no.birth.reg","under5",49,,100,0,,49,0,2993000
"pehr6idt","female","no.birth.reg","urban",49,,65,0,0,32,0,2993000
"pehr6idt","female","no.educ","no.skilled.attendant",100,21,10,21,5,10,5,5399000
"pehr6idt","female","no.educ","non.p20",53,33,94,20,28,50,18,16260000
"pehr6idt","female","no.educ","p20",53,33,6,20,4,3,2,16260000
"pehr6idt","female","no.educ","primary",53,33,67,20,0,32,0,16260000
"pehr6idt","female","no.educ","rural",53,33,28,20,17,14,10,16260000
"pehr6idt","female","no.educ","secondary",53,33,50,20,0,24,0,16260000
"pehr6idt","female","no.educ","stunted",,,,,,,,16260000
"pehr6idt","female","no.educ","under5",53,33,0,20,0,0,0,16260000
"pehr6idt","female","no.educ","urban",53,33,72,20,16,38,10,16260000
"pehr6idt","female","no.skilled.attendant","non.p20",100,10,92,10,6,92,6,8149000
"pehr6idt","female","no.skilled.attendant","p20",100,10,8,10,3,8,3,8149000
"pehr6idt","female","no.skilled.attendant","primary",100,10,79,10,5,79,5,5399000
"pehr6idt","female","no.skilled.attendant","rural",100,10,33,10,7,33,7,8149000
"pehr6idt","female","no.skilled.attendant","secondary",100,10,53,10,1,53,1,5399000
"pehr6idt","female","no.skilled.attendant","stunted",,,,,,,,2993000
"pehr6idt","female","no.skilled.attendant","under5",100,10,0,10,0,0,0,8149000
"pehr6idt","female","no.skilled.attendant","urban",100,10,67,10,2,67,2,8149000
"pehr6idt","female","non.p20","p20",51,93,7,47,0,3,0,30566000
"pehr6idt","female","non.p20","primary",53,94,67,50,66,32,32,16260000
"pehr6idt","female","non.p20","rural",51,93,30,47,24,15,12,30566000
"pehr6idt","female","non.p20","secondary",53,94,50,50,50,24,24,16260000
"pehr6idt","female","non.p20","stunted",49,91,18,44,14,9,7,2993000
"pehr6idt","female","non.p20","under5",51,93,10,47,9,5,4,30566000
"pehr6idt","female","non.p20","urban",51,93,70,47,69,36,35,30566000
"pehr6idt","female","p20","primary",53,6,67,3,2,32,1,16260000
"pehr6idt","female","p20","rural",51,7,30,3,6,15,3,30566000
"pehr6idt","female","p20","secondary",53,6,50,3,0,24,0,16260000
"pehr6idt","female","p20","stunted",49,9,18,5,4,9,2,2993000
"pehr6idt","female","p20","under5",51,7,10,3,1,5,0,30566000
"pehr6idt","female","p20","urban",51,7,70,3,0,36,0,30566000
"pehr6idt","female","primary","rural",53,67,28,32,12,14,5,16260000
"pehr6idt","female","primary","secondary",53,67,50,32,50,24,24,16260000
"pehr6idt","female","primary","stunted",,,,,,,,16260000
"pehr6idt","female","primary","under5",53,67,0,32,0,0,0,16260000
"pehr6idt","female","primary","urban",53,67,72,32,56,38,28,16260000
"pehr6idt","female","rural","secondary",53,28,50,14,6,24,2,16260000
"pehr6idt","female","rural","stunted",49,35,18,17,11,9,5,2993000
"pehr6idt","female","rural","under5",51,30,10,15,3,5,2,30566000
"pehr6idt","female","rural","urban",51,30,70,15,0,36,0,30566000
"pehr6idt","female","secondary","stunted",,,,,,,,16260000
"pehr6idt","female","secondary","under5",53,50,0,24,0,0,0,16260000
"pehr6idt","female","secondary","urban",53,50,72,24,45,38,22,16260000
"pehr6idt","female","stunted","under5",49,18,100,9,18,49,9,2993000
"pehr6idt","female","stunted","urban",49,18,65,9,7,32,3,2993000
"pehr6idt","female","under5","urban",51,10,70,5,6,36,3,30566000
"pehr6idt","fifteento49","fiveto14","gt49",50,20,20,0,0,0,0,30566000
"pehr6idt","fifteento49","fiveto14","higher",62,0,26,0,0,19,0,16260000
"pehr6idt","fifteento49","fiveto14","male",50,20,49,0,10,25,0,30566000
"pehr6idt","fifteento49","fiveto14","no.birth.reg",0,0,,0,0,0,0,2993000
"pehr6idt","fifteento49","fiveto14","no.educ",62,0,33,0,0,11,0,16260000
"pehr6idt","fifteento49","fiveto14","no.skilled.attendant",100,0,10,0,0,10,0,8149000
"pehr6idt","fifteento49","fiveto14","non.p20",50,20,93,0,18,48,0,30566000
"pehr6idt","fifteento49","fiveto14","p20",50,20,7,0,2,3,0,30566000
"pehr6idt","fifteento49","fiveto14","primary",62,0,67,0,0,51,0,16260000
"pehr6idt","fifteento49","fiveto14","rural",50,20,30,0,7,14,0,30566000
"pehr6idt","fifteento49","fiveto14","secondary",62,0,50,0,0,37,0,16260000
"pehr6idt","fifteento49","fiveto14","stunted",0,0,18,0,0,0,0,2993000
"pehr6idt","fifteento49","fiveto14","under5",50,20,10,0,0,0,0,30566000
"pehr6idt","fifteento49","fiveto14","urban",50,20,70,0,13,37,0,30566000
"pehr6idt","fifteento49","gt49","higher",62,38,26,0,7,19,0,16260000
"pehr6idt","fifteento49","gt49","male",50,20,49,0,9,25,0,30566000
"pehr6idt","fifteento49","gt49","no.birth.reg",0,0,,0,0,0,0,2993000
"pehr6idt","fifteento49","gt49","no.educ",62,38,33,0,22,11,0,16260000
"pehr6idt","fifteento49","gt49","no.skilled.attendant",100,0,10,0,0,10,0,8149000
"pehr6idt","fifteento49","gt49","non.p20",50,20,93,0,19,48,0,30566000
"pehr6idt","fifteento49","gt49","p20",50,20,7,0,1,3,0,30566000
"pehr6idt","fifteento49","gt49","primary",62,38,67,0,17,51,0,16260000
"pehr6idt","fifteento49","gt49","rural",50,20,30,0,6,14,0,30566000
"pehr6idt","fifteento49","gt49","secondary",62,38,50,0,13,37,0,16260000
"pehr6idt","fifteento49","gt49","stunted",0,0,18,0,0,0,0,2993000
"pehr6idt","fifteento49","gt49","under5",50,20,10,0,0,0,0,30566000
"pehr6idt","fifteento49","gt49","urban",50,20,70,0,14,37,0,30566000
"pehr6idt","fifteento49","higher","male",62,26,47,19,13,30,9,16260000
"pehr6idt","fifteento49","higher","no.birth.reg",,,,,,,,16260000
"pehr6idt","fifteento49","higher","no.educ",62,26,33,19,0,11,0,16260000
"pehr6idt","fifteento49","higher","no.skilled.attendant",100,27,10,27,0,10,0,5399000
"pehr6idt","fifteento49","higher","non.p20",62,26,94,19,26,58,19,16260000
"pehr6idt","fifteento49","higher","p20",62,26,6,19,0,3,0,16260000
"pehr6idt","fifteento49","higher","primary",62,26,67,19,26,51,19,16260000
"pehr6idt","fifteento49","higher","rural",62,26,28,19,2,17,1,16260000
"pehr6idt","fifteento49","higher","secondary",62,26,50,19,26,37,19,16260000
"pehr6idt","fifteento49","higher","stunted",,,,,,,,16260000
"pehr6idt","fifteento49","higher","under5",62,26,0,19,0,0,0,16260000
"pehr6idt","fifteento49","higher","urban",62,26,72,19,24,45,17,16260000
"pehr6idt","fifteento49","male","no.birth.reg",0,51,,0,0,0,0,2993000
"pehr6idt","fifteento49","male","no.educ",62,47,33,30,13,11,4,16260000
"pehr6idt","fifteento49","male","no.skilled.attendant",100,0,10,0,0,10,0,8149000
"pehr6idt","fifteento49","male","non.p20",50,49,93,25,46,48,23,30566000
"pehr6idt","fifteento49","male","p20",50,49,7,25,3,3,1,30566000
"pehr6idt","fifteento49","male","primary",62,47,67,30,35,51,25,16260000
"pehr6idt","fifteento49","male","rural",50,49,30,25,15,14,7,30566000
"pehr6idt","fifteento49","male","secondary",62,47,50,30,26,37,19,16260000
"pehr6idt","fifteento49","male","stunted",0,51,18,0,9,0,0,2993000
"pehr6idt","fifteento49","male","under5",50,49,10,25,5,0,0,30566000
"pehr6idt","fifteento49","male","urban",50,49,70,25,34,37,18,30566000
"pehr6idt","fifteento49","no.birth.reg","no.educ",,,,,,,,16260000
"pehr6idt","fifteento49","no.birth.reg","no.skilled.attendant",,,,,,,,2993000
"pehr6idt","fifteento49","no.birth.reg","non.p20",0,,91,0,0,0,0,2993000
"pehr6idt","fifteento49","no.birth.reg","p20",0,,9,0,0,0,0,2993000
"pehr6idt","fifteento49","no.birth.reg","primary",,,,,,,,16260000
"pehr6idt","fifteento49","no.birth.reg","rural",0,,35,0,0,0,0,2993000
"pehr6idt","fifteento49","no.birth.reg","secondary",,,,,,,,16260000
"pehr6idt","fifteento49","no.birth.reg","stunted",0,,18,0,0,0,0,2993000
"pehr6idt","fifteento49","no.birth.reg","under5",0,,100,0,,0,0,2993000
"pehr6idt","fifteento49","no.birth.reg","urban",0,,65,0,0,0,0,2993000
"pehr6idt","fifteento49","no.educ","no.skilled.attendant",100,21,10,21,5,10,5,5399000
"pehr6idt","fifteento49","no.educ","non.p20",62,33,94,11,28,58,9,16260000
"pehr6idt","fifteento49","no.educ","p20",62,33,6,11,4,3,2,16260000
"pehr6idt","fifteento49","no.educ","primary",62,33,67,11,0,51,0,16260000
"pehr6idt","fifteento49","no.educ","rural",62,33,28,11,17,17,7,16260000
"pehr6idt","fifteento49","no.educ","secondary",62,33,50,11,0,37,0,16260000
"pehr6idt","fifteento49","no.educ","stunted",,,,,,,,16260000
"pehr6idt","fifteento49","no.educ","under5",62,33,0,11,0,0,0,16260000
"pehr6idt","fifteento49","no.educ","urban",62,33,72,11,16,45,5,16260000
"pehr6idt","fifteento49","no.skilled.attendant","non.p20",100,10,92,10,6,92,6,8149000
"pehr6idt","fifteento49","no.skilled.attendant","p20",100,10,8,10,3,8,3,8149000
"pehr6idt","fifteento49","no.skilled.attendant","primary",100,10,79,10,5,79,5,5399000
"pehr6idt","fifteento49","no.skilled.attendant","rural",100,10,33,10,7,33,7,8149000
"pehr6idt","fifteento49","no.skilled.attendant","secondary",100,10,53,10,1,53,1,5399000
"pehr6idt","fifteento49","no.skilled.attendant","stunted",,,,,,,,2993000
"pehr6idt","fifteento49","no.skilled.attendant","under5",100,10,0,10,0,0,0,8149000
"pehr6idt","fifteento49","no.skilled.attendant","urban",100,10,67,10,2,67,2,8149000
"pehr6idt","fifteento49","non.p20","p20",50,93,7,48,0,3,0,30566000
"pehr6idt","fifteento49","non.p20","primary",62,94,67,58,66,51,49,16260000
"pehr6idt","fifteento49","non.p20","rural",50,93,30,48,24,14,11,30566000
"pehr6idt","fifteento49","non.p20","secondary",62,94,50,58,50,37,37,16260000
"pehr6idt","fifteento49","non.p20","stunted",0,91,18,0,14,0,0,2993000
"pehr6idt","fifteento49","non.p20","under5",50,93,10,48,9,0,0,30566000
"pehr6idt","fifteento49","non.p20","urban",50,93,70,48,69,37,37,30566000
"pehr6idt","fifteento49","p20","primary",62,6,67,3,2,51,1,16260000
"pehr6idt","fifteento49","p20","rural",50,7,30,3,6,14,3,30566000
"pehr6idt","fifteento49","p20","secondary",62,6,50,3,0,37,0,16260000
"pehr6idt","fifteento49","p20","stunted",0,9,18,0,4,0,0,2993000
"pehr6idt","fifteento49","p20","under5",50,7,10,3,1,0,0,30566000
"pehr6idt","fifteento49","p20","urban",50,7,70,3,0,37,0,30566000
"pehr6idt","fifteento49","primary","rural",62,67,28,51,12,17,10,16260000
"pehr6idt","fifteento49","primary","secondary",62,67,50,51,50,37,37,16260000
"pehr6idt","fifteento49","primary","stunted",,,,,,,,16260000
"pehr6idt","fifteento49","primary","under5",62,67,0,51,0,0,0,16260000
"pehr6idt","fifteento49","primary","urban",62,67,72,51,56,45,41,16260000
"pehr6idt","fifteento49","rural","secondary",62,28,50,17,6,37,5,16260000
"pehr6idt","fifteento49","rural","stunted",0,35,18,0,11,0,0,2993000
"pehr6idt","fifteento49","rural","under5",50,30,10,14,3,0,0,30566000
"pehr6idt","fifteento49","rural","urban",50,30,70,14,0,37,0,30566000
"pehr6idt","fifteento49","secondary","stunted",,,,,,,,16260000
"pehr6idt","fifteento49","secondary","under5",62,50,0,37,0,0,0,16260000
"pehr6idt","fifteento49","secondary","urban",62,50,72,37,45,45,32,16260000
"pehr6idt","fifteento49","stunted","under5",0,18,100,0,18,0,0,2993000
"pehr6idt","fifteento49","stunted","urban",0,18,65,0,7,0,0,2993000
"pehr6idt","fifteento49","under5","urban",50,10,70,0,6,37,0,30566000
"pehr6idt","fiveto14","gt49","higher",0,38,26,0,7,0,0,16260000
"pehr6idt","fiveto14","gt49","male",20,20,49,0,9,10,0,30566000
"pehr6idt","fiveto14","gt49","no.birth.reg",0,0,,0,0,0,0,2993000
"pehr6idt","fiveto14","gt49","no.educ",0,38,33,0,22,0,0,16260000
"pehr6idt","fiveto14","gt49","no.skilled.attendant",0,0,10,0,0,0,0,8149000
"pehr6idt","fiveto14","gt49","non.p20",20,20,93,0,19,18,0,30566000
"pehr6idt","fiveto14","gt49","p20",20,20,7,0,1,2,0,30566000
"pehr6idt","fiveto14","gt49","primary",0,38,67,0,17,0,0,16260000
"pehr6idt","fiveto14","gt49","rural",20,20,30,0,6,7,0,30566000
"pehr6idt","fiveto14","gt49","secondary",0,38,50,0,13,0,0,16260000
"pehr6idt","fiveto14","gt49","stunted",0,0,18,0,0,0,0,2993000
"pehr6idt","fiveto14","gt49","under5",20,20,10,0,0,0,0,30566000
"pehr6idt","fiveto14","gt49","urban",20,20,70,0,14,13,0,30566000
"pehr6idt","fiveto14","higher","male",0,26,47,0,13,0,0,16260000
"pehr6idt","fiveto14","higher","no.birth.reg",,,,,,,,16260000
"pehr6idt","fiveto14","higher","no.educ",0,26,33,0,0,0,0,16260000
"pehr6idt","fiveto14","higher","no.skilled.attendant",0,27,10,0,0,0,0,5399000
"pehr6idt","fiveto14","higher","non.p20",0,26,94,0,26,0,0,16260000
"pehr6idt","fiveto14","higher","p20",0,26,6,0,0,0,0,16260000
"pehr6idt","fiveto14","higher","primary",0,26,67,0,26,0,0,16260000
"pehr6idt","fiveto14","higher","rural",0,26,28,0,2,0,0,16260000
"pehr6idt","fiveto14","higher","secondary",0,26,50,0,26,0,0,16260000
"pehr6idt","fiveto14","higher","stunted",,,,,,,,16260000
"pehr6idt","fiveto14","higher","under5",0,26,0,0,0,0,0,16260000
"pehr6idt","fiveto14","higher","urban",0,26,72,0,24,0,0,16260000
"pehr6idt","fiveto14","male","no.birth.reg",0,51,,0,0,0,0,2993000
"pehr6idt","fiveto14","male","no.educ",0,47,33,0,13,0,0,16260000
"pehr6idt","fiveto14","male","no.skilled.attendant",0,0,10,0,0,0,0,8149000
"pehr6idt","fiveto14","male","non.p20",20,49,93,10,46,18,9,30566000
"pehr6idt","fiveto14","male","p20",20,49,7,10,3,2,1,30566000
"pehr6idt","fiveto14","male","primary",0,47,67,0,35,0,0,16260000
"pehr6idt","fiveto14","male","rural",20,49,30,10,15,7,4,30566000
"pehr6idt","fiveto14","male","secondary",0,47,50,0,26,0,0,16260000
"pehr6idt","fiveto14","male","stunted",0,51,18,0,9,0,0,2993000
"pehr6idt","fiveto14","male","under5",20,49,10,10,5,0,0,30566000
"pehr6idt","fiveto14","male","urban",20,49,70,10,34,13,7,30566000
"pehr6idt","fiveto14","no.birth.reg","no.educ",,,,,,,,16260000
"pehr6idt","fiveto14","no.birth.reg","no.skilled.attendant",,,,,,,,2993000
"pehr6idt","fiveto14","no.birth.reg","non.p20",0,,91,0,0,0,0,2993000
"pehr6idt","fiveto14","no.birth.reg","p20",0,,9,0,0,0,0,2993000
"pehr6idt","fiveto14","no.birth.reg","primary",,,,,,,,16260000
"pehr6idt","fiveto14","no.birth.reg","rural",0,,35,0,0,0,0,2993000
"pehr6idt","fiveto14","no.birth.reg","secondary",,,,,,,,16260000
"pehr6idt","fiveto14","no.birth.reg","stunted",0,,18,0,0,0,0,2993000
"pehr6idt","fiveto14","no.birth.reg","under5",0,,100,0,,0,0,2993000
"pehr6idt","fiveto14","no.birth.reg","urban",0,,65,0,0,0,0,2993000
"pehr6idt","fiveto14","no.educ","no.skilled.attendant",0,21,10,0,5,0,0,5399000
"pehr6idt","fiveto14","no.educ","non.p20",0,33,94,0,28,0,0,16260000
"pehr6idt","fiveto14","no.educ","p20",0,33,6,0,4,0,0,16260000
"pehr6idt","fiveto14","no.educ","primary",0,33,67,0,0,0,0,16260000
"pehr6idt","fiveto14","no.educ","rural",0,33,28,0,17,0,0,16260000
"pehr6idt","fiveto14","no.educ","secondary",0,33,50,0,0,0,0,16260000
"pehr6idt","fiveto14","no.educ","stunted",,,,,,,,16260000
"pehr6idt","fiveto14","no.educ","under5",0,33,0,0,0,0,0,16260000
"pehr6idt","fiveto14","no.educ","urban",0,33,72,0,16,0,0,16260000
"pehr6idt","fiveto14","no.skilled.attendant","non.p20",0,10,92,0,6,0,0,8149000
"pehr6idt","fiveto14","no.skilled.attendant","p20",0,10,8,0,3,0,0,8149000
"pehr6idt","fiveto14","no.skilled.attendant","primary",0,10,79,0,5,0,0,5399000
"pehr6idt","fiveto14","no.skilled.attendant","rural",0,10,33,0,7,0,0,8149000
"pehr6idt","fiveto14","no.skilled.attendant","secondary",0,10,53,0,1,0,0,5399000
"pehr6idt","fiveto14","no.skilled.attendant","stunted",,,,,,,,2993000
"pehr6idt","fiveto14","no.skilled.attendant","under5",0,10,0,0,0,0,0,8149000
"pehr6idt","fiveto14","no.skilled.attendant","urban",0,10,67,0,2,0,0,8149000
"pehr6idt","fiveto14","non.p20","p20",20,93,7,18,0,2,0,30566000
"pehr6idt","fiveto14","non.p20","primary",0,94,67,0,66,0,0,16260000
"pehr6idt","fiveto14","non.p20","rural",20,93,30,18,24,7,6,30566000
"pehr6idt","fiveto14","non.p20","secondary",0,94,50,0,50,0,0,16260000
"pehr6idt","fiveto14","non.p20","stunted",0,91,18,0,14,0,0,2993000
"pehr6idt","fiveto14","non.p20","under5",20,93,10,18,9,0,0,30566000
"pehr6idt","fiveto14","non.p20","urban",20,93,70,18,69,13,12,30566000
"pehr6idt","fiveto14","p20","primary",0,6,67,0,2,0,0,16260000
"pehr6idt","fiveto14","p20","rural",20,7,30,2,6,7,2,30566000
"pehr6idt","fiveto14","p20","secondary",0,6,50,0,0,0,0,16260000
"pehr6idt","fiveto14","p20","stunted",0,9,18,0,4,0,0,2993000
"pehr6idt","fiveto14","p20","under5",20,7,10,2,1,0,0,30566000
"pehr6idt","fiveto14","p20","urban",20,7,70,2,0,13,0,30566000
"pehr6idt","fiveto14","primary","rural",0,67,28,0,12,0,0,16260000
"pehr6idt","fiveto14","primary","secondary",0,67,50,0,50,0,0,16260000
"pehr6idt","fiveto14","primary","stunted",,,,,,,,16260000
"pehr6idt","fiveto14","primary","under5",0,67,0,0,0,0,0,16260000
"pehr6idt","fiveto14","primary","urban",0,67,72,0,56,0,0,16260000
"pehr6idt","fiveto14","rural","secondary",0,28,50,0,6,0,0,16260000
"pehr6idt","fiveto14","rural","stunted",0,35,18,0,11,0,0,2993000
"pehr6idt","fiveto14","rural","under5",20,30,10,7,3,0,0,30566000
"pehr6idt","fiveto14","rural","urban",20,30,70,7,0,13,0,30566000
"pehr6idt","fiveto14","secondary","stunted",,,,,,,,16260000
"pehr6idt","fiveto14","secondary","under5",0,50,0,0,0,0,0,16260000
"pehr6idt","fiveto14","secondary","urban",0,50,72,0,45,0,0,16260000
"pehr6idt","fiveto14","stunted","under5",0,18,100,0,18,0,0,2993000
"pehr6idt","fiveto14","stunted","urban",0,18,65,0,7,0,0,2993000
"pehr6idt","fiveto14","under5","urban",20,10,70,0,6,13,0,30566000
"pehr6idt","gt49","higher","male",38,26,47,7,13,18,4,16260000
"pehr6idt","gt49","higher","no.birth.reg",,,,,,,,16260000
"pehr6idt","gt49","higher","no.educ",38,26,33,7,0,22,0,16260000
"pehr6idt","gt49","higher","no.skilled.attendant",0,27,10,0,0,0,0,5399000
"pehr6idt","gt49","higher","non.p20",38,26,94,7,26,36,7,16260000
"pehr6idt","gt49","higher","p20",38,26,6,7,0,3,0,16260000
"pehr6idt","gt49","higher","primary",38,26,67,7,26,17,7,16260000
"pehr6idt","gt49","higher","rural",38,26,28,7,2,12,0,16260000
"pehr6idt","gt49","higher","secondary",38,26,50,7,26,13,7,16260000
"pehr6idt","gt49","higher","stunted",,,,,,,,16260000
"pehr6idt","gt49","higher","under5",38,26,0,7,0,0,0,16260000
"pehr6idt","gt49","higher","urban",38,26,72,7,24,26,7,16260000
"pehr6idt","gt49","male","no.birth.reg",0,51,,0,0,0,0,2993000
"pehr6idt","gt49","male","no.educ",38,47,33,18,13,22,9,16260000
"pehr6idt","gt49","male","no.skilled.attendant",0,0,10,0,0,0,0,8149000
"pehr6idt","gt49","male","non.p20",20,49,93,9,46,19,9,30566000
"pehr6idt","gt49","male","p20",20,49,7,9,3,1,1,30566000
"pehr6idt","gt49","male","primary",38,47,67,18,35,17,9,16260000
"pehr6idt","gt49","male","rural",20,49,30,9,15,6,3,30566000
"pehr6idt","gt49","male","secondary",38,47,50,18,26,13,7,16260000
"pehr6idt","gt49","male","stunted",0,51,18,0,9,0,0,2993000
"pehr6idt","gt49","male","under5",20,49,10,9,5,0,0,30566000
"pehr6idt","gt49","male","urban",20,49,70,9,34,14,6,30566000
"pehr6idt","gt49","no.birth.reg","no.educ",,,,,,,,16260000
"pehr6idt","gt49","no.birth.reg","no.skilled.attendant",,,,,,,,2993000
"pehr6idt","gt49","no.birth.reg","non.p20",0,,91,0,0,0,0,2993000
"pehr6idt","gt49","no.birth.reg","p20",0,,9,0,0,0,0,2993000
"pehr6idt","gt49","no.birth.reg","primary",,,,,,,,16260000
"pehr6idt","gt49","no.birth.reg","rural",0,,35,0,0,0,0,2993000
"pehr6idt","gt49","no.birth.reg","secondary",,,,,,,,16260000
"pehr6idt","gt49","no.birth.reg","stunted",0,,18,0,0,0,0,2993000
"pehr6idt","gt49","no.birth.reg","under5",0,,100,0,,0,0,2993000
"pehr6idt","gt49","no.birth.reg","urban",0,,65,0,0,0,0,2993000
"pehr6idt","gt49","no.educ","no.skilled.attendant",0,21,10,0,5,0,0,5399000
"pehr6idt","gt49","no.educ","non.p20",38,33,94,22,28,36,19,16260000
"pehr6idt","gt49","no.educ","p20",38,33,6,22,4,3,3,16260000
"pehr6idt","gt49","no.educ","primary",38,33,67,22,0,17,0,16260000
"pehr6idt","gt49","no.educ","rural",38,33,28,22,17,12,10,16260000
"pehr6idt","gt49","no.educ","secondary",38,33,50,22,0,13,0,16260000
"pehr6idt","gt49","no.educ","stunted",,,,,,,,16260000
"pehr6idt","gt49","no.educ","under5",38,33,0,22,0,0,0,16260000
"pehr6idt","gt49","no.educ","urban",38,33,72,22,16,26,11,16260000
"pehr6idt","gt49","no.skilled.attendant","non.p20",0,10,92,0,6,0,0,8149000
"pehr6idt","gt49","no.skilled.attendant","p20",0,10,8,0,3,0,0,8149000
"pehr6idt","gt49","no.skilled.attendant","primary",0,10,79,0,5,0,0,5399000
"pehr6idt","gt49","no.skilled.attendant","rural",0,10,33,0,7,0,0,8149000
"pehr6idt","gt49","no.skilled.attendant","secondary",0,10,53,0,1,0,0,5399000
"pehr6idt","gt49","no.skilled.attendant","stunted",,,,,,,,2993000
"pehr6idt","gt49","no.skilled.attendant","under5",0,10,0,0,0,0,0,8149000
"pehr6idt","gt49","no.skilled.attendant","urban",0,10,67,0,2,0,0,8149000
"pehr6idt","gt49","non.p20","p20",20,93,7,19,0,1,0,30566000
"pehr6idt","gt49","non.p20","primary",38,94,67,36,66,17,16,16260000
"pehr6idt","gt49","non.p20","rural",20,93,30,19,24,6,5,30566000
"pehr6idt","gt49","non.p20","secondary",38,94,50,36,50,13,13,16260000
"pehr6idt","gt49","non.p20","stunted",0,91,18,0,14,0,0,2993000
"pehr6idt","gt49","non.p20","under5",20,93,10,19,9,0,0,30566000
"pehr6idt","gt49","non.p20","urban",20,93,70,19,69,14,14,30566000
"pehr6idt","gt49","p20","primary",38,6,67,3,2,17,0,16260000
"pehr6idt","gt49","p20","rural",20,7,30,1,6,6,1,30566000
"pehr6idt","gt49","p20","secondary",38,6,50,3,0,13,0,16260000
"pehr6idt","gt49","p20","stunted",0,9,18,0,4,0,0,2993000
"pehr6idt","gt49","p20","under5",20,7,10,1,1,0,0,30566000
"pehr6idt","gt49","p20","urban",20,7,70,1,0,14,0,30566000
"pehr6idt","gt49","primary","rural",38,67,28,17,12,12,2,16260000
"pehr6idt","gt49","primary","secondary",38,67,50,17,50,13,13,16260000
"pehr6idt","gt49","primary","stunted",,,,,,,,16260000
"pehr6idt","gt49","primary","under5",38,67,0,17,0,0,0,16260000
"pehr6idt","gt49","primary","urban",38,67,72,17,56,26,15,16260000
"pehr6idt","gt49","rural","secondary",38,28,50,12,6,13,1,16260000
"pehr6idt","gt49","rural","stunted",0,35,18,0,11,0,0,2993000
"pehr6idt","gt49","rural","under5",20,30,10,6,3,0,0,30566000
"pehr6idt","gt49","rural","urban",20,30,70,6,0,14,0,30566000
"pehr6idt","gt49","secondary","stunted",,,,,,,,16260000
"pehr6idt","gt49","secondary","under5",38,50,0,13,0,0,0,16260000
"pehr6idt","gt49","secondary","urban",38,50,72,13,45,26,12,16260000
"pehr6idt","gt49","stunted","under5",0,18,100,0,18,0,0,2993000
"pehr6idt","gt49","stunted","urban",0,18,65,0,7,0,0,2993000
"pehr6idt","gt49","under5","urban",20,10,70,0,6,14,0,30566000
"pehr6idt","higher","male","no.birth.reg",,,,,,,,16260000
"pehr6idt","higher","male","no.educ",26,47,33,13,13,0,0,16260000
"pehr6idt","higher","male","no.skilled.attendant",27,0,10,0,0,0,0,5399000
"pehr6idt","higher","male","non.p20",26,47,94,13,44,26,13,16260000
"pehr6idt","higher","male","p20",26,47,6,13,3,0,0,16260000
"pehr6idt","higher","male","primary",26,47,67,13,35,26,13,16260000
"pehr6idt","higher","male","rural",26,47,28,13,14,2,1,16260000
"pehr6idt","higher","male","secondary",26,47,50,13,26,26,13,16260000
"pehr6idt","higher","male","stunted",,,,,,,,16260000
"pehr6idt","higher","male","under5",26,47,0,13,0,0,0,16260000
"pehr6idt","higher","male","urban",26,47,72,13,33,24,12,16260000
"pehr6idt","higher","no.birth.reg","no.educ",,,,,,,,16260000
"pehr6idt","higher","no.birth.reg","no.skilled.attendant",,,,,,,,5399000
"pehr6idt","higher","no.birth.reg","non.p20",,,,,,,,16260000
"pehr6idt","higher","no.birth.reg","p20",,,,,,,,16260000
"pehr6idt","higher","no.birth.reg","primary",,,,,,,,16260000
"pehr6idt","higher","no.birth.reg","rural",,,,,,,,16260000
"pehr6idt","higher","no.birth.reg","secondary",,,,,,,,16260000
"pehr6idt","higher","no.birth.reg","stunted",,,,,,,,16260000
"pehr6idt","higher","no.birth.reg","under5",,,,,,,,16260000
"pehr6idt","higher","no.birth.reg","urban",,,,,,,,16260000
"pehr6idt","higher","no.educ","no.skilled.attendant",27,21,10,0,5,0,0,5399000
"pehr6idt","higher","no.educ","non.p20",26,33,94,0,28,26,0,16260000
"pehr6idt","higher","no.educ","p20",26,33,6,0,4,0,0,16260000
"pehr6idt","higher","no.educ","primary",26,33,67,0,0,26,0,16260000
"pehr6idt","higher","no.educ","rural",26,33,28,0,17,2,0,16260000
"pehr6idt","higher","no.educ","secondary",26,33,50,0,0,26,0,16260000
"pehr6idt","higher","no.educ","stunted",,,,,,,,16260000
"pehr6idt","higher","no.educ","under5",26,33,0,0,0,0,0,16260000
"pehr6idt","higher","no.educ","urban",26,33,72,0,16,24,0,16260000
"pehr6idt","higher","no.skilled.attendant","non.p20",27,10,92,0,7,27,0,5399000
"pehr6idt","higher","no.skilled.attendant","p20",27,10,8,0,3,0,0,5399000
"pehr6idt","higher","no.skilled.attendant","primary",27,10,79,0,5,27,0,5399000
"pehr6idt","higher","no.skilled.attendant","rural",27,10,32,0,8,2,0,5399000
"pehr6idt","higher","no.skilled.attendant","secondary",27,10,53,0,1,27,0,5399000
"pehr6idt","higher","no.skilled.attendant","stunted",,,,,,,,5399000
"pehr6idt","higher","no.skilled.attendant","under5",27,10,0,0,0,0,0,5399000
"pehr6idt","higher","no.skilled.attendant","urban",27,10,68,0,2,25,0,5399000
"pehr6idt","higher","non.p20","p20",26,94,6,26,0,0,0,16260000
"pehr6idt","higher","non.p20","primary",26,94,67,26,66,26,26,16260000
"pehr6idt","higher","non.p20","rural",26,94,28,26,23,2,2,16260000
"pehr6idt","higher","non.p20","secondary",26,94,50,26,50,26,26,16260000
"pehr6idt","higher","non.p20","stunted",,,,,,,,16260000
"pehr6idt","higher","non.p20","under5",26,94,0,26,0,0,0,16260000
"pehr6idt","higher","non.p20","urban",26,94,72,26,71,24,24,16260000
"pehr6idt","higher","p20","primary",26,6,67,0,2,26,0,16260000
"pehr6idt","higher","p20","rural",26,6,28,0,6,2,0,16260000
"pehr6idt","higher","p20","secondary",26,6,50,0,0,26,0,16260000
"pehr6idt","higher","p20","stunted",,,,,,,,16260000
"pehr6idt","higher","p20","under5",26,6,0,0,0,0,0,16260000
"pehr6idt","higher","p20","urban",26,6,72,0,0,24,0,16260000
"pehr6idt","higher","primary","rural",26,67,28,26,12,2,2,16260000
"pehr6idt","higher","primary","secondary",26,67,50,26,50,26,26,16260000
"pehr6idt","higher","primary","stunted",,,,,,,,16260000
"pehr6idt","higher","primary","under5",26,67,0,26,0,0,0,16260000
"pehr6idt","higher","primary","urban",26,67,72,26,56,24,24,16260000
"pehr6idt","higher","rural","secondary",26,28,50,2,6,26,2,16260000
"pehr6idt","higher","rural","stunted",,,,,,,,16260000
"pehr6idt","higher","rural","under5",26,28,0,2,0,0,0,16260000
"pehr6idt","higher","rural","urban",26,28,72,2,0,24,0,16260000
"pehr6idt","higher","secondary","stunted",,,,,,,,16260000
"pehr6idt","higher","secondary","under5",26,50,0,26,0,0,0,16260000
"pehr6idt","higher","secondary","urban",26,50,72,26,45,24,24,16260000
"pehr6idt","higher","stunted","under5",,,,,,,,16260000
"pehr6idt","higher","stunted","urban",,,,,,,,16260000
"pehr6idt","higher","under5","urban",26,0,72,0,0,24,0,16260000
"pehr6idt","male","no.birth.reg","no.educ",,,,,,,,16260000
"pehr6idt","male","no.birth.reg","no.skilled.attendant",,,,,,,,2993000
"pehr6idt","male","no.birth.reg","non.p20",51,,91,0,0,46,0,2993000
"pehr6idt","male","no.birth.reg","p20",51,,9,0,0,5,0,2993000
"pehr6idt","male","no.birth.reg","primary",,,,,,,,16260000
"pehr6idt","male","no.birth.reg","rural",51,,35,0,0,18,0,2993000
"pehr6idt","male","no.birth.reg","secondary",,,,,,,,16260000
"pehr6idt","male","no.birth.reg","stunted",51,,18,0,0,9,0,2993000
"pehr6idt","male","no.birth.reg","under5",51,,100,0,,51,0,2993000
"pehr6idt","male","no.birth.reg","urban",51,,65,0,0,33,0,2993000
"pehr6idt","male","no.educ","no.skilled.attendant",0,21,10,0,5,0,0,5399000
"pehr6idt","male","no.educ","non.p20",47,33,94,13,28,44,11,16260000
"pehr6idt","male","no.educ","p20",47,33,6,13,4,3,2,16260000
"pehr6idt","male","no.educ","primary",47,33,67,13,0,35,0,16260000
"pehr6idt","male","no.educ","rural",47,33,28,13,17,14,7,16260000
"pehr6idt","male","no.educ","secondary",47,33,50,13,0,26,0,16260000
"pehr6idt","male","no.educ","stunted",,,,,,,,16260000
"pehr6idt","male","no.educ","under5",47,33,0,13,0,0,0,16260000
"pehr6idt","male","no.educ","urban",47,33,72,13,16,33,6,16260000
"pehr6idt","male","no.skilled.attendant","non.p20",0,10,92,0,6,0,0,8149000
"pehr6idt","male","no.skilled.attendant","p20",0,10,8,0,3,0,0,8149000
"pehr6idt","male","no.skilled.attendant","primary",0,10,79,0,5,0,0,5399000
"pehr6idt","male","no.skilled.attendant","rural",0,10,33,0,7,0,0,8149000
"pehr6idt","male","no.skilled.attendant","secondary",0,10,53,0,1,0,0,5399000
"pehr6idt","male","no.skilled.attendant","stunted",,,,,,,,2993000
"pehr6idt","male","no.skilled.attendant","under5",0,10,0,0,0,0,0,8149000
"pehr6idt","male","no.skilled.attendant","urban",0,10,67,0,2,0,0,8149000
"pehr6idt","male","non.p20","p20",49,93,7,46,0,3,0,30566000
"pehr6idt","male","non.p20","primary",47,94,67,44,66,35,34,16260000
"pehr6idt","male","non.p20","rural",49,93,30,46,24,15,12,30566000
"pehr6idt","male","non.p20","secondary",47,94,50,44,50,26,26,16260000
"pehr6idt","male","non.p20","stunted",51,91,18,46,14,9,7,2993000
"pehr6idt","male","non.p20","under5",49,93,10,46,9,5,4,30566000
"pehr6idt","male","non.p20","urban",49,93,70,46,69,34,34,30566000
"pehr6idt","male","p20","primary",47,6,67,3,2,35,1,16260000
"pehr6idt","male","p20","rural",49,7,30,3,6,15,3,30566000
"pehr6idt","male","p20","secondary",47,6,50,3,0,26,0,16260000
"pehr6idt","male","p20","stunted",51,9,18,5,4,9,2,2993000
"pehr6idt","male","p20","under5",49,7,10,3,1,5,0,30566000
"pehr6idt","male","p20","urban",49,7,70,3,0,34,0,30566000
"pehr6idt","male","primary","rural",47,67,28,35,12,14,7,16260000
"pehr6idt","male","primary","secondary",47,67,50,35,50,26,26,16260000
"pehr6idt","male","primary","stunted",,,,,,,,16260000
"pehr6idt","male","primary","under5",47,67,0,35,0,0,0,16260000
"pehr6idt","male","primary","urban",47,67,72,35,56,33,28,16260000
"pehr6idt","male","rural","secondary",47,28,50,14,6,26,4,16260000
"pehr6idt","male","rural","stunted",51,35,18,18,11,9,6,2993000
"pehr6idt","male","rural","under5",49,30,10,15,3,5,2,30566000
"pehr6idt","male","rural","urban",49,30,70,15,0,34,0,30566000
"pehr6idt","male","secondary","stunted",,,,,,,,16260000
"pehr6idt","male","secondary","under5",47,50,0,26,0,0,0,16260000
"pehr6idt","male","secondary","urban",47,50,72,26,45,33,23,16260000
"pehr6idt","male","stunted","under5",51,18,100,9,18,51,9,2993000
"pehr6idt","male","stunted","urban",51,18,65,9,7,33,3,2993000
"pehr6idt","male","under5","urban",49,10,70,5,6,34,3,30566000
"pehr6idt","no.birth.reg","no.educ","no.skilled.attendant",,,,,,,,5399000
"pehr6idt","no.birth.reg","no.educ","non.p20",,,,,,,,16260000
"pehr6idt","no.birth.reg","no.educ","p20",,,,,,,,16260000
"pehr6idt","no.birth.reg","no.educ","primary",,,,,,,,16260000
"pehr6idt","no.birth.reg","no.educ","rural",,,,,,,,16260000
"pehr6idt","no.birth.reg","no.educ","secondary",,,,,,,,16260000
"pehr6idt","no.birth.reg","no.educ","stunted",,,,,,,,16260000
"pehr6idt","no.birth.reg","no.educ","under5",,,,,,,,16260000
"pehr6idt","no.birth.reg","no.educ","urban",,,,,,,,16260000
"pehr6idt","no.birth.reg","no.skilled.attendant","non.p20",,,,,,,,2993000
"pehr6idt","no.birth.reg","no.skilled.attendant","p20",,,,,,,,2993000
"pehr6idt","no.birth.reg","no.skilled.attendant","primary",,,,,,,,5399000
"pehr6idt","no.birth.reg","no.skilled.attendant","rural",,,,,,,,2993000
"pehr6idt","no.birth.reg","no.skilled.attendant","secondary",,,,,,,,5399000
"pehr6idt","no.birth.reg","no.skilled.attendant","stunted",,,,,,,,2993000
"pehr6idt","no.birth.reg","no.skilled.attendant","under5",,,,,,,,2993000
"pehr6idt","no.birth.reg","no.skilled.attendant","urban",,,,,,,,2993000
"pehr6idt","no.birth.reg","non.p20","p20",,91,9,0,0,0,0,2993000
"pehr6idt","no.birth.reg","non.p20","primary",,,,,,,,16260000
"pehr6idt","no.birth.reg","non.p20","rural",,91,35,0,26,0,0,2993000
"pehr6idt","no.birth.reg","non.p20","secondary",,,,,,,,16260000
"pehr6idt","no.birth.reg","non.p20","stunted",,91,18,0,14,0,0,2993000
"pehr6idt","no.birth.reg","non.p20","under5",,91,100,0,91,,0,2993000
"pehr6idt","no.birth.reg","non.p20","urban",,91,65,0,65,0,0,2993000
"pehr6idt","no.birth.reg","p20","primary",,,,,,,,16260000
"pehr6idt","no.birth.reg","p20","rural",,9,35,0,9,0,0,2993000
"pehr6idt","no.birth.reg","p20","secondary",,,,,,,,16260000
"pehr6idt","no.birth.reg","p20","stunted",,9,18,0,4,0,0,2993000
"pehr6idt","no.birth.reg","p20","under5",,9,100,0,9,,0,2993000
"pehr6idt","no.birth.reg","p20","urban",,9,65,0,0,0,0,2993000
"pehr6idt","no.birth.reg","primary","rural",,,,,,,,16260000
"pehr6idt","no.birth.reg","primary","secondary",,,,,,,,16260000
"pehr6idt","no.birth.reg","primary","stunted",,,,,,,,16260000
"pehr6idt","no.birth.reg","primary","under5",,,,,,,,16260000
"pehr6idt","no.birth.reg","primary","urban",,,,,,,,16260000
"pehr6idt","no.birth.reg","rural","secondary",,,,,,,,16260000
"pehr6idt","no.birth.reg","rural","stunted",,35,18,0,11,0,0,2993000
"pehr6idt","no.birth.reg","rural","under5",,35,100,0,35,,0,2993000
"pehr6idt","no.birth.reg","rural","urban",,35,65,0,0,0,0,2993000
"pehr6idt","no.birth.reg","secondary","stunted",,,,,,,,16260000
"pehr6idt","no.birth.reg","secondary","under5",,,,,,,,16260000
"pehr6idt","no.birth.reg","secondary","urban",,,,,,,,16260000
"pehr6idt","no.birth.reg","stunted","under5",,18,100,0,18,,0,2993000
"pehr6idt","no.birth.reg","stunted","urban",,18,65,0,7,0,0,2993000
"pehr6idt","no.birth.reg","under5","urban",,100,65,,65,0,0,2993000
"pehr6idt","no.educ","no.skilled.attendant","non.p20",21,10,92,5,7,16,3,5399000
"pehr6idt","no.educ","no.skilled.attendant","p20",21,10,8,5,3,5,2,5399000
"pehr6idt","no.educ","no.skilled.attendant","primary",21,10,79,5,5,0,0,5399000
"pehr6idt","no.educ","no.skilled.attendant","rural",21,10,32,5,8,14,5,5399000
"pehr6idt","no.educ","no.skilled.attendant","secondary",21,10,53,5,1,0,0,5399000
"pehr6idt","no.educ","no.skilled.attendant","stunted",,,,,,,,5399000
"pehr6idt","no.educ","no.skilled.attendant","under5",21,10,0,5,0,0,0,5399000
"pehr6idt","no.educ","no.skilled.attendant","urban",21,10,68,5,2,7,1,5399000
"pehr6idt","no.educ","non.p20","p20",33,94,6,28,0,4,0,16260000
"pehr6idt","no.educ","non.p20","primary",33,94,67,28,66,0,0,16260000
"pehr6idt","no.educ","non.p20","rural",33,94,28,28,23,17,13,16260000
"pehr6idt","no.educ","non.p20","secondary",33,94,50,28,50,0,0,16260000
"pehr6idt","no.educ","non.p20","stunted",,,,,,,,16260000
"pehr6idt","no.educ","non.p20","under5",33,94,0,28,0,0,0,16260000
"pehr6idt","no.educ","non.p20","urban",33,94,72,28,71,16,16,16260000
"pehr6idt","no.educ","p20","primary",33,6,67,4,2,0,0,16260000
"pehr6idt","no.educ","p20","rural",33,6,28,4,6,17,4,16260000
"pehr6idt","no.educ","p20","secondary",33,6,50,4,0,0,0,16260000
"pehr6idt","no.educ","p20","stunted",,,,,,,,16260000
"pehr6idt","no.educ","p20","under5",33,6,0,4,0,0,0,16260000
"pehr6idt","no.educ","p20","urban",33,6,72,4,0,16,0,16260000
"pehr6idt","no.educ","primary","rural",33,67,28,0,12,17,0,16260000
"pehr6idt","no.educ","primary","secondary",33,67,50,0,50,0,0,16260000
"pehr6idt","no.educ","primary","stunted",,,,,,,,16260000
"pehr6idt","no.educ","primary","under5",33,67,0,0,0,0,0,16260000
"pehr6idt","no.educ","primary","urban",33,67,72,0,56,16,0,16260000
"pehr6idt","no.educ","rural","secondary",33,28,50,17,6,0,0,16260000
"pehr6idt","no.educ","rural","stunted",,,,,,,,16260000
"pehr6idt","no.educ","rural","under5",33,28,0,17,0,0,0,16260000
"pehr6idt","no.educ","rural","urban",33,28,72,17,0,16,0,16260000
"pehr6idt","no.educ","secondary","stunted",,,,,,,,16260000
"pehr6idt","no.educ","secondary","under5",33,50,0,0,0,0,0,16260000
"pehr6idt","no.educ","secondary","urban",33,50,72,0,45,16,0,16260000
"pehr6idt","no.educ","stunted","under5",,,,,,,,16260000
"pehr6idt","no.educ","stunted","urban",,,,,,,,16260000
"pehr6idt","no.educ","under5","urban",33,0,72,0,0,16,0,16260000
"pehr6idt","no.skilled.attendant","non.p20","p20",10,92,8,6,0,3,0,8149000
"pehr6idt","no.skilled.attendant","non.p20","primary",10,92,79,7,76,5,4,5399000
"pehr6idt","no.skilled.attendant","non.p20","rural",10,92,33,6,25,7,4,8149000
"pehr6idt","no.skilled.attendant","non.p20","secondary",10,92,53,7,53,1,1,5399000
"pehr6idt","no.skilled.attendant","non.p20","stunted",,,,,,,,2993000
"pehr6idt","no.skilled.attendant","non.p20","under5",10,92,0,6,0,0,0,8149000
"pehr6idt","no.skilled.attendant","non.p20","urban",10,92,67,6,67,2,2,8149000
"pehr6idt","no.skilled.attendant","p20","primary",10,8,79,3,3,5,1,5399000
"pehr6idt","no.skilled.attendant","p20","rural",10,8,33,3,8,7,3,8149000
"pehr6idt","no.skilled.attendant","p20","secondary",10,8,53,3,0,1,0,5399000
"pehr6idt","no.skilled.attendant","p20","stunted",,,,,,,,2993000
"pehr6idt","no.skilled.attendant","p20","under5",10,8,0,3,0,0,0,8149000
"pehr6idt","no.skilled.attendant","p20","urban",10,8,67,3,0,2,0,8149000
"pehr6idt","no.skilled.attendant","primary","rural",10,79,32,5,18,8,3,5399000
"pehr6idt","no.skilled.attendant","primary","secondary",10,79,53,5,53,1,1,5399000
"pehr6idt","no.skilled.attendant","primary","stunted",,,,,,,,5399000
"pehr6idt","no.skilled.attendant","primary","under5",10,79,0,5,0,0,0,5399000
"pehr6idt","no.skilled.attendant","primary","urban",10,79,68,5,61,2,2,5399000
"pehr6idt","no.skilled.attendant","rural","secondary",10,32,53,8,6,1,0,5399000
"pehr6idt","no.skilled.attendant","rural","stunted",,,,,,,,2993000
"pehr6idt","no.skilled.attendant","rural","under5",10,33,0,7,0,0,0,8149000
"pehr6idt","no.skilled.attendant","rural","urban",10,33,67,7,0,2,0,8149000
"pehr6idt","no.skilled.attendant","secondary","stunted",,,,,,,,5399000
"pehr6idt","no.skilled.attendant","secondary","under5",10,53,0,1,0,0,0,5399000
"pehr6idt","no.skilled.attendant","secondary","urban",10,53,68,1,46,2,1,5399000
"pehr6idt","no.skilled.attendant","stunted","under5",,,,,,,,2993000
"pehr6idt","no.skilled.attendant","stunted","urban",,,,,,,,2993000
"pehr6idt","no.skilled.attendant","under5","urban",10,0,67,0,0,2,0,8149000
"pehr6idt","non.p20","p20","primary",94,6,67,0,2,66,0,16260000
"pehr6idt","non.p20","p20","rural",93,7,30,0,6,24,0,30566000
"pehr6idt","non.p20","p20","secondary",94,6,50,0,0,50,0,16260000
"pehr6idt","non.p20","p20","stunted",91,9,18,0,4,14,0,2993000
"pehr6idt","non.p20","p20","under5",93,7,10,0,1,9,0,30566000
"pehr6idt","non.p20","p20","urban",93,7,70,0,0,69,0,30566000
"pehr6idt","non.p20","primary","rural",94,67,28,66,12,23,10,16260000
"pehr6idt","non.p20","primary","secondary",94,67,50,66,50,50,50,16260000
"pehr6idt","non.p20","primary","stunted",,,,,,,,16260000
"pehr6idt","non.p20","primary","under5",94,67,0,66,0,0,0,16260000
"pehr6idt","non.p20","primary","urban",94,67,72,66,56,71,55,16260000
"pehr6idt","non.p20","rural","secondary",94,28,50,23,6,50,5,16260000
"pehr6idt","non.p20","rural","stunted",91,35,18,26,11,14,7,2993000
"pehr6idt","non.p20","rural","under5",93,30,10,24,3,9,2,30566000
"pehr6idt","non.p20","rural","urban",93,30,70,24,0,69,0,30566000
"pehr6idt","non.p20","secondary","stunted",,,,,,,,16260000
"pehr6idt","non.p20","secondary","under5",94,50,0,50,0,0,0,16260000
"pehr6idt","non.p20","secondary","urban",94,50,72,50,45,71,45,16260000
"pehr6idt","non.p20","stunted","under5",91,18,100,14,18,91,14,2993000
"pehr6idt","non.p20","stunted","urban",91,18,65,14,7,65,7,2993000
"pehr6idt","non.p20","under5","urban",93,10,70,9,6,69,6,30566000
"pehr6idt","p20","primary","rural",6,67,28,2,12,6,2,16260000
"pehr6idt","p20","primary","secondary",6,67,50,2,50,0,0,16260000
"pehr6idt","p20","primary","stunted",,,,,,,,16260000
"pehr6idt","p20","primary","under5",6,67,0,2,0,0,0,16260000
"pehr6idt","p20","primary","urban",6,67,72,2,56,0,0,16260000
"pehr6idt","p20","rural","secondary",6,28,50,6,6,0,0,16260000
"pehr6idt","p20","rural","stunted",9,35,18,9,11,4,4,2993000
"pehr6idt","p20","rural","under5",7,30,10,6,3,1,1,30566000
"pehr6idt","p20","rural","urban",7,30,70,6,0,0,0,30566000
"pehr6idt","p20","secondary","stunted",,,,,,,,16260000
"pehr6idt","p20","secondary","under5",6,50,0,0,0,0,0,16260000
"pehr6idt","p20","secondary","urban",6,50,72,0,45,0,0,16260000
"pehr6idt","p20","stunted","under5",9,18,100,4,18,9,4,2993000
"pehr6idt","p20","stunted","urban",9,18,65,4,7,0,0,2993000
"pehr6idt","p20","under5","urban",7,10,70,1,6,0,0,30566000
"pehr6idt","primary","rural","secondary",67,28,50,12,6,50,6,16260000
"pehr6idt","primary","rural","stunted",,,,,,,,16260000
"pehr6idt","primary","rural","under5",67,28,0,12,0,0,0,16260000
"pehr6idt","primary","rural","urban",67,28,72,12,0,56,0,16260000
"pehr6idt","primary","secondary","stunted",,,,,,,,16260000
"pehr6idt","primary","secondary","under5",67,50,0,50,0,0,0,16260000
"pehr6idt","primary","secondary","urban",67,50,72,50,45,56,45,16260000
"pehr6idt","primary","stunted","under5",,,,,,,,16260000
"pehr6idt","primary","stunted","urban",,,,,,,,16260000
"pehr6idt","primary","under5","urban",67,0,72,0,0,56,0,16260000
"pehr6idt","rural","secondary","stunted",,,,,,,,16260000
"pehr6idt","rural","secondary","under5",28,50,0,6,0,0,0,16260000
"pehr6idt","rural","secondary","urban",28,50,72,6,45,0,0,16260000
"pehr6idt","rural","stunted","under5",35,18,100,11,18,35,11,2993000
"pehr6idt","rural","stunted","urban",35,18,65,11,7,0,0,2993000
"pehr6idt","rural","under5","urban",30,10,70,3,6,0,0,30566000
"pehr6idt","secondary","stunted","under5",,,,,,,,16260000
"pehr6idt","secondary","stunted","urban",,,,,,,,16260000
"pehr6idt","secondary","under5","urban",50,0,72,0,0,45,0,16260000
"pehr6idt","stunted","under5","urban",18,100,65,18,65,7,7,2993000
