"filename","indicator1","indicator2","indicator3","X","Y","Z","X,Y","Y,Z","X,Z","X,Y,Z","pop"
"Slovak Republic","blank1","blank2","ext",100,100,0,100,0,0,0,5410000
"Slovak Republic","blank1","blank2","female",100,100,,100,,,,5410000
"Slovak Republic","blank1","blank2","fifteento49",100,100,,100,,,,5410000
"Slovak Republic","blank1","blank2","fiveto14",100,100,,100,,,,5410000
"Slovak Republic","blank1","blank2","gt49",100,100,,100,,,,5410000
"Slovak Republic","blank1","blank2","higher",,,,,,,,5410000
"Slovak Republic","blank1","blank2","male",100,100,,100,,,,5410000
"Slovak Republic","blank1","blank2","no.birth.reg",,,,,,,,5410000
"Slovak Republic","blank1","blank2","no.educ",,,,,,,,5410000
"Slovak Republic","blank1","blank2","no.skilled.attendant",,,,,,,,5410000
"Slovak Republic","blank1","blank2","non.p20",100,100,100,100,100,100,100,5410000
"Slovak Republic","blank1","blank2","p20",100,100,0,100,0,0,0,5410000
"Slovak Republic","blank1","blank2","primary",,,,,,,,5410000
"Slovak Republic","blank1","blank2","rural",100,100,,100,,,,5410000
"Slovak Republic","blank1","blank2","secondary",,,,,,,,5410000
"Slovak Republic","blank1","blank2","stunted",,,,,,,,5410000
"Slovak Republic","blank1","blank2","under5",100,100,,100,,,,5410000
"Slovak Republic","blank1","blank2","urban",100,100,,100,,,,5410000
"Slovak Republic","blank1","ext","female",100,0,,0,,,,5410000
"Slovak Republic","blank1","ext","fifteento49",100,0,,0,,,,5410000
"Slovak Republic","blank1","ext","fiveto14",100,0,,0,,,,5410000
"Slovak Republic","blank1","ext","gt49",100,0,,0,,,,5410000
"Slovak Republic","blank1","ext","higher",,,,,,,,5410000
"Slovak Republic","blank1","ext","male",100,0,,0,,,,5410000
"Slovak Republic","blank1","ext","no.birth.reg",,,,,,,,5410000
"Slovak Republic","blank1","ext","no.educ",,,,,,,,5410000
"Slovak Republic","blank1","ext","no.skilled.attendant",,,,,,,,5410000
"Slovak Republic","blank1","ext","non.p20",100,0,100,0,0,100,0,5410000
"Slovak Republic","blank1","ext","p20",100,0,0,0,0,0,0,5410000
"Slovak Republic","blank1","ext","primary",,,,,,,,5410000
"Slovak Republic","blank1","ext","rural",100,0,,0,,,,5410000
"Slovak Republic","blank1","ext","secondary",,,,,,,,5410000
"Slovak Republic","blank1","ext","stunted",,,,,,,,5410000
"Slovak Republic","blank1","ext","under5",100,0,,0,,,,5410000
"Slovak Republic","blank1","ext","urban",100,0,,0,,,,5410000
"Slovak Republic","blank1","female","fifteento49",100,,,,,,,5410000
"Slovak Republic","blank1","female","fiveto14",100,,,,,,,5410000
"Slovak Republic","blank1","female","gt49",100,,,,,,,5410000
"Slovak Republic","blank1","female","higher",,,,,,,,5410000
"Slovak Republic","blank1","female","male",100,,,,,,,5410000
"Slovak Republic","blank1","female","no.birth.reg",,,,,,,,5410000
"Slovak Republic","blank1","female","no.educ",,,,,,,,5410000
"Slovak Republic","blank1","female","no.skilled.attendant",,,,,,,,5410000
"Slovak Republic","blank1","female","non.p20",100,,100,,,100,,5410000
"Slovak Republic","blank1","female","p20",100,,0,,,0,,5410000
"Slovak Republic","blank1","female","primary",,,,,,,,5410000
"Slovak Republic","blank1","female","rural",100,,,,,,,5410000
"Slovak Republic","blank1","female","secondary",,,,,,,,5410000
"Slovak Republic","blank1","female","stunted",,,,,,,,5410000
"Slovak Republic","blank1","female","under5",100,,,,,,,5410000
"Slovak Republic","blank1","female","urban",100,,,,,,,5410000
"Slovak Republic","blank1","fifteento49","fiveto14",100,,,,,,,5410000
"Slovak Republic","blank1","fifteento49","gt49",100,,,,,,,5410000
"Slovak Republic","blank1","fifteento49","higher",,,,,,,,5410000
"Slovak Republic","blank1","fifteento49","male",100,,,,,,,5410000
"Slovak Republic","blank1","fifteento49","no.birth.reg",,,,,,,,5410000
"Slovak Republic","blank1","fifteento49","no.educ",,,,,,,,5410000
"Slovak Republic","blank1","fifteento49","no.skilled.attendant",,,,,,,,5410000
"Slovak Republic","blank1","fifteento49","non.p20",100,,100,,,100,,5410000
"Slovak Republic","blank1","fifteento49","p20",100,,0,,,0,,5410000
"Slovak Republic","blank1","fifteento49","primary",,,,,,,,5410000
"Slovak Republic","blank1","fifteento49","rural",100,,,,,,,5410000
"Slovak Republic","blank1","fifteento49","secondary",,,,,,,,5410000
"Slovak Republic","blank1","fifteento49","stunted",,,,,,,,5410000
"Slovak Republic","blank1","fifteento49","under5",100,,,,,,,5410000
"Slovak Republic","blank1","fifteento49","urban",100,,,,,,,5410000
"Slovak Republic","blank1","fiveto14","gt49",100,,,,,,,5410000
"Slovak Republic","blank1","fiveto14","higher",,,,,,,,5410000
"Slovak Republic","blank1","fiveto14","male",100,,,,,,,5410000
"Slovak Republic","blank1","fiveto14","no.birth.reg",,,,,,,,5410000
"Slovak Republic","blank1","fiveto14","no.educ",,,,,,,,5410000
"Slovak Republic","blank1","fiveto14","no.skilled.attendant",,,,,,,,5410000
"Slovak Republic","blank1","fiveto14","non.p20",100,,100,,,100,,5410000
"Slovak Republic","blank1","fiveto14","p20",100,,0,,,0,,5410000
"Slovak Republic","blank1","fiveto14","primary",,,,,,,,5410000
"Slovak Republic","blank1","fiveto14","rural",100,,,,,,,5410000
"Slovak Republic","blank1","fiveto14","secondary",,,,,,,,5410000
"Slovak Republic","blank1","fiveto14","stunted",,,,,,,,5410000
"Slovak Republic","blank1","fiveto14","under5",100,,,,,,,5410000
"Slovak Republic","blank1","fiveto14","urban",100,,,,,,,5410000
"Slovak Republic","blank1","gt49","higher",,,,,,,,5410000
"Slovak Republic","blank1","gt49","male",100,,,,,,,5410000
"Slovak Republic","blank1","gt49","no.birth.reg",,,,,,,,5410000
"Slovak Republic","blank1","gt49","no.educ",,,,,,,,5410000
"Slovak Republic","blank1","gt49","no.skilled.attendant",,,,,,,,5410000
"Slovak Republic","blank1","gt49","non.p20",100,,100,,,100,,5410000
"Slovak Republic","blank1","gt49","p20",100,,0,,,0,,5410000
"Slovak Republic","blank1","gt49","primary",,,,,,,,5410000
"Slovak Republic","blank1","gt49","rural",100,,,,,,,5410000
"Slovak Republic","blank1","gt49","secondary",,,,,,,,5410000
"Slovak Republic","blank1","gt49","stunted",,,,,,,,5410000
"Slovak Republic","blank1","gt49","under5",100,,,,,,,5410000
"Slovak Republic","blank1","gt49","urban",100,,,,,,,5410000
"Slovak Republic","blank1","higher","male",,,,,,,,5410000
"Slovak Republic","blank1","higher","no.birth.reg",,,,,,,,5410000
"Slovak Republic","blank1","higher","no.educ",,,,,,,,5410000
"Slovak Republic","blank1","higher","no.skilled.attendant",,,,,,,,5410000
"Slovak Republic","blank1","higher","non.p20",,,,,,,,5410000
"Slovak Republic","blank1","higher","p20",,,,,,,,5410000
"Slovak Republic","blank1","higher","primary",,,,,,,,5410000
"Slovak Republic","blank1","higher","rural",,,,,,,,5410000
"Slovak Republic","blank1","higher","secondary",,,,,,,,5410000
"Slovak Republic","blank1","higher","stunted",,,,,,,,5410000
"Slovak Republic","blank1","higher","under5",,,,,,,,5410000
"Slovak Republic","blank1","higher","urban",,,,,,,,5410000
"Slovak Republic","blank1","male","no.birth.reg",,,,,,,,5410000
"Slovak Republic","blank1","male","no.educ",,,,,,,,5410000
"Slovak Republic","blank1","male","no.skilled.attendant",,,,,,,,5410000
"Slovak Republic","blank1","male","non.p20",100,,100,,,100,,5410000
"Slovak Republic","blank1","male","p20",100,,0,,,0,,5410000
"Slovak Republic","blank1","male","primary",,,,,,,,5410000
"Slovak Republic","blank1","male","rural",100,,,,,,,5410000
"Slovak Republic","blank1","male","secondary",,,,,,,,5410000
"Slovak Republic","blank1","male","stunted",,,,,,,,5410000
"Slovak Republic","blank1","male","under5",100,,,,,,,5410000
"Slovak Republic","blank1","male","urban",100,,,,,,,5410000
"Slovak Republic","blank1","no.birth.reg","no.educ",,,,,,,,5410000
"Slovak Republic","blank1","no.birth.reg","no.skilled.attendant",,,,,,,,5410000
"Slovak Republic","blank1","no.birth.reg","non.p20",,,,,,,,5410000
"Slovak Republic","blank1","no.birth.reg","p20",,,,,,,,5410000
"Slovak Republic","blank1","no.birth.reg","primary",,,,,,,,5410000
"Slovak Republic","blank1","no.birth.reg","rural",,,,,,,,5410000
"Slovak Republic","blank1","no.birth.reg","secondary",,,,,,,,5410000
"Slovak Republic","blank1","no.birth.reg","stunted",,,,,,,,5410000
"Slovak Republic","blank1","no.birth.reg","under5",,,,,,,,5410000
"Slovak Republic","blank1","no.birth.reg","urban",,,,,,,,5410000
"Slovak Republic","blank1","no.educ","no.skilled.attendant",,,,,,,,5410000
"Slovak Republic","blank1","no.educ","non.p20",,,,,,,,5410000
"Slovak Republic","blank1","no.educ","p20",,,,,,,,5410000
"Slovak Republic","blank1","no.educ","primary",,,,,,,,5410000
"Slovak Republic","blank1","no.educ","rural",,,,,,,,5410000
"Slovak Republic","blank1","no.educ","secondary",,,,,,,,5410000
"Slovak Republic","blank1","no.educ","stunted",,,,,,,,5410000
"Slovak Republic","blank1","no.educ","under5",,,,,,,,5410000
"Slovak Republic","blank1","no.educ","urban",,,,,,,,5410000
"Slovak Republic","blank1","no.skilled.attendant","non.p20",,,,,,,,5410000
"Slovak Republic","blank1","no.skilled.attendant","p20",,,,,,,,5410000
"Slovak Republic","blank1","no.skilled.attendant","primary",,,,,,,,5410000
"Slovak Republic","blank1","no.skilled.attendant","rural",,,,,,,,5410000
"Slovak Republic","blank1","no.skilled.attendant","secondary",,,,,,,,5410000
"Slovak Republic","blank1","no.skilled.attendant","stunted",,,,,,,,5410000
"Slovak Republic","blank1","no.skilled.attendant","under5",,,,,,,,5410000
"Slovak Republic","blank1","no.skilled.attendant","urban",,,,,,,,5410000
"Slovak Republic","blank1","non.p20","p20",100,100,0,100,0,0,0,5410000
"Slovak Republic","blank1","non.p20","primary",,,,,,,,5410000
"Slovak Republic","blank1","non.p20","rural",100,100,,100,,,,5410000
"Slovak Republic","blank1","non.p20","secondary",,,,,,,,5410000
"Slovak Republic","blank1","non.p20","stunted",,,,,,,,5410000
"Slovak Republic","blank1","non.p20","under5",100,100,,100,,,,5410000
"Slovak Republic","blank1","non.p20","urban",100,100,,100,,,,5410000
"Slovak Republic","blank1","p20","primary",,,,,,,,5410000
"Slovak Republic","blank1","p20","rural",100,0,,0,,,,5410000
"Slovak Republic","blank1","p20","secondary",,,,,,,,5410000
"Slovak Republic","blank1","p20","stunted",,,,,,,,5410000
"Slovak Republic","blank1","p20","under5",100,0,,0,,,,5410000
"Slovak Republic","blank1","p20","urban",100,0,,0,,,,5410000
"Slovak Republic","blank1","primary","rural",,,,,,,,5410000
"Slovak Republic","blank1","primary","secondary",,,,,,,,5410000
"Slovak Republic","blank1","primary","stunted",,,,,,,,5410000
"Slovak Republic","blank1","primary","under5",,,,,,,,5410000
"Slovak Republic","blank1","primary","urban",,,,,,,,5410000
"Slovak Republic","blank1","rural","secondary",,,,,,,,5410000
"Slovak Republic","blank1","rural","stunted",,,,,,,,5410000
"Slovak Republic","blank1","rural","under5",100,,,,,,,5410000
"Slovak Republic","blank1","rural","urban",100,,,,,,,5410000
"Slovak Republic","blank1","secondary","stunted",,,,,,,,5410000
"Slovak Republic","blank1","secondary","under5",,,,,,,,5410000
"Slovak Republic","blank1","secondary","urban",,,,,,,,5410000
"Slovak Republic","blank1","stunted","under5",,,,,,,,5410000
"Slovak Republic","blank1","stunted","urban",,,,,,,,5410000
"Slovak Republic","blank1","under5","urban",100,,,,,,,5410000
"Slovak Republic","blank2","ext","female",100,0,,0,,,,5410000
"Slovak Republic","blank2","ext","fifteento49",100,0,,0,,,,5410000
"Slovak Republic","blank2","ext","fiveto14",100,0,,0,,,,5410000
"Slovak Republic","blank2","ext","gt49",100,0,,0,,,,5410000
"Slovak Republic","blank2","ext","higher",,,,,,,,5410000
"Slovak Republic","blank2","ext","male",100,0,,0,,,,5410000
"Slovak Republic","blank2","ext","no.birth.reg",,,,,,,,5410000
"Slovak Republic","blank2","ext","no.educ",,,,,,,,5410000
"Slovak Republic","blank2","ext","no.skilled.attendant",,,,,,,,5410000
"Slovak Republic","blank2","ext","non.p20",100,0,100,0,0,100,0,5410000
"Slovak Republic","blank2","ext","p20",100,0,0,0,0,0,0,5410000
"Slovak Republic","blank2","ext","primary",,,,,,,,5410000
"Slovak Republic","blank2","ext","rural",100,0,,0,,,,5410000
"Slovak Republic","blank2","ext","secondary",,,,,,,,5410000
"Slovak Republic","blank2","ext","stunted",,,,,,,,5410000
"Slovak Republic","blank2","ext","under5",100,0,,0,,,,5410000
"Slovak Republic","blank2","ext","urban",100,0,,0,,,,5410000
"Slovak Republic","blank2","female","fifteento49",100,,,,,,,5410000
"Slovak Republic","blank2","female","fiveto14",100,,,,,,,5410000
"Slovak Republic","blank2","female","gt49",100,,,,,,,5410000
"Slovak Republic","blank2","female","higher",,,,,,,,5410000
"Slovak Republic","blank2","female","male",100,,,,,,,5410000
"Slovak Republic","blank2","female","no.birth.reg",,,,,,,,5410000
"Slovak Republic","blank2","female","no.educ",,,,,,,,5410000
"Slovak Republic","blank2","female","no.skilled.attendant",,,,,,,,5410000
"Slovak Republic","blank2","female","non.p20",100,,100,,,100,,5410000
"Slovak Republic","blank2","female","p20",100,,0,,,0,,5410000
"Slovak Republic","blank2","female","primary",,,,,,,,5410000
"Slovak Republic","blank2","female","rural",100,,,,,,,5410000
"Slovak Republic","blank2","female","secondary",,,,,,,,5410000
"Slovak Republic","blank2","female","stunted",,,,,,,,5410000
"Slovak Republic","blank2","female","under5",100,,,,,,,5410000
"Slovak Republic","blank2","female","urban",100,,,,,,,5410000
"Slovak Republic","blank2","fifteento49","fiveto14",100,,,,,,,5410000
"Slovak Republic","blank2","fifteento49","gt49",100,,,,,,,5410000
"Slovak Republic","blank2","fifteento49","higher",,,,,,,,5410000
"Slovak Republic","blank2","fifteento49","male",100,,,,,,,5410000
"Slovak Republic","blank2","fifteento49","no.birth.reg",,,,,,,,5410000
"Slovak Republic","blank2","fifteento49","no.educ",,,,,,,,5410000
"Slovak Republic","blank2","fifteento49","no.skilled.attendant",,,,,,,,5410000
"Slovak Republic","blank2","fifteento49","non.p20",100,,100,,,100,,5410000
"Slovak Republic","blank2","fifteento49","p20",100,,0,,,0,,5410000
"Slovak Republic","blank2","fifteento49","primary",,,,,,,,5410000
"Slovak Republic","blank2","fifteento49","rural",100,,,,,,,5410000
"Slovak Republic","blank2","fifteento49","secondary",,,,,,,,5410000
"Slovak Republic","blank2","fifteento49","stunted",,,,,,,,5410000
"Slovak Republic","blank2","fifteento49","under5",100,,,,,,,5410000
"Slovak Republic","blank2","fifteento49","urban",100,,,,,,,5410000
"Slovak Republic","blank2","fiveto14","gt49",100,,,,,,,5410000
"Slovak Republic","blank2","fiveto14","higher",,,,,,,,5410000
"Slovak Republic","blank2","fiveto14","male",100,,,,,,,5410000
"Slovak Republic","blank2","fiveto14","no.birth.reg",,,,,,,,5410000
"Slovak Republic","blank2","fiveto14","no.educ",,,,,,,,5410000
"Slovak Republic","blank2","fiveto14","no.skilled.attendant",,,,,,,,5410000
"Slovak Republic","blank2","fiveto14","non.p20",100,,100,,,100,,5410000
"Slovak Republic","blank2","fiveto14","p20",100,,0,,,0,,5410000
"Slovak Republic","blank2","fiveto14","primary",,,,,,,,5410000
"Slovak Republic","blank2","fiveto14","rural",100,,,,,,,5410000
"Slovak Republic","blank2","fiveto14","secondary",,,,,,,,5410000
"Slovak Republic","blank2","fiveto14","stunted",,,,,,,,5410000
"Slovak Republic","blank2","fiveto14","under5",100,,,,,,,5410000
"Slovak Republic","blank2","fiveto14","urban",100,,,,,,,5410000
"Slovak Republic","blank2","gt49","higher",,,,,,,,5410000
"Slovak Republic","blank2","gt49","male",100,,,,,,,5410000
"Slovak Republic","blank2","gt49","no.birth.reg",,,,,,,,5410000
"Slovak Republic","blank2","gt49","no.educ",,,,,,,,5410000
"Slovak Republic","blank2","gt49","no.skilled.attendant",,,,,,,,5410000
"Slovak Republic","blank2","gt49","non.p20",100,,100,,,100,,5410000
"Slovak Republic","blank2","gt49","p20",100,,0,,,0,,5410000
"Slovak Republic","blank2","gt49","primary",,,,,,,,5410000
"Slovak Republic","blank2","gt49","rural",100,,,,,,,5410000
"Slovak Republic","blank2","gt49","secondary",,,,,,,,5410000
"Slovak Republic","blank2","gt49","stunted",,,,,,,,5410000
"Slovak Republic","blank2","gt49","under5",100,,,,,,,5410000
"Slovak Republic","blank2","gt49","urban",100,,,,,,,5410000
"Slovak Republic","blank2","higher","male",,,,,,,,5410000
"Slovak Republic","blank2","higher","no.birth.reg",,,,,,,,5410000
"Slovak Republic","blank2","higher","no.educ",,,,,,,,5410000
"Slovak Republic","blank2","higher","no.skilled.attendant",,,,,,,,5410000
"Slovak Republic","blank2","higher","non.p20",,,,,,,,5410000
"Slovak Republic","blank2","higher","p20",,,,,,,,5410000
"Slovak Republic","blank2","higher","primary",,,,,,,,5410000
"Slovak Republic","blank2","higher","rural",,,,,,,,5410000
"Slovak Republic","blank2","higher","secondary",,,,,,,,5410000
"Slovak Republic","blank2","higher","stunted",,,,,,,,5410000
"Slovak Republic","blank2","higher","under5",,,,,,,,5410000
"Slovak Republic","blank2","higher","urban",,,,,,,,5410000
"Slovak Republic","blank2","male","no.birth.reg",,,,,,,,5410000
"Slovak Republic","blank2","male","no.educ",,,,,,,,5410000
"Slovak Republic","blank2","male","no.skilled.attendant",,,,,,,,5410000
"Slovak Republic","blank2","male","non.p20",100,,100,,,100,,5410000
"Slovak Republic","blank2","male","p20",100,,0,,,0,,5410000
"Slovak Republic","blank2","male","primary",,,,,,,,5410000
"Slovak Republic","blank2","male","rural",100,,,,,,,5410000
"Slovak Republic","blank2","male","secondary",,,,,,,,5410000
"Slovak Republic","blank2","male","stunted",,,,,,,,5410000
"Slovak Republic","blank2","male","under5",100,,,,,,,5410000
"Slovak Republic","blank2","male","urban",100,,,,,,,5410000
"Slovak Republic","blank2","no.birth.reg","no.educ",,,,,,,,5410000
"Slovak Republic","blank2","no.birth.reg","no.skilled.attendant",,,,,,,,5410000
"Slovak Republic","blank2","no.birth.reg","non.p20",,,,,,,,5410000
"Slovak Republic","blank2","no.birth.reg","p20",,,,,,,,5410000
"Slovak Republic","blank2","no.birth.reg","primary",,,,,,,,5410000
"Slovak Republic","blank2","no.birth.reg","rural",,,,,,,,5410000
"Slovak Republic","blank2","no.birth.reg","secondary",,,,,,,,5410000
"Slovak Republic","blank2","no.birth.reg","stunted",,,,,,,,5410000
"Slovak Republic","blank2","no.birth.reg","under5",,,,,,,,5410000
"Slovak Republic","blank2","no.birth.reg","urban",,,,,,,,5410000
"Slovak Republic","blank2","no.educ","no.skilled.attendant",,,,,,,,5410000
"Slovak Republic","blank2","no.educ","non.p20",,,,,,,,5410000
"Slovak Republic","blank2","no.educ","p20",,,,,,,,5410000
"Slovak Republic","blank2","no.educ","primary",,,,,,,,5410000
"Slovak Republic","blank2","no.educ","rural",,,,,,,,5410000
"Slovak Republic","blank2","no.educ","secondary",,,,,,,,5410000
"Slovak Republic","blank2","no.educ","stunted",,,,,,,,5410000
"Slovak Republic","blank2","no.educ","under5",,,,,,,,5410000
"Slovak Republic","blank2","no.educ","urban",,,,,,,,5410000
"Slovak Republic","blank2","no.skilled.attendant","non.p20",,,,,,,,5410000
"Slovak Republic","blank2","no.skilled.attendant","p20",,,,,,,,5410000
"Slovak Republic","blank2","no.skilled.attendant","primary",,,,,,,,5410000
"Slovak Republic","blank2","no.skilled.attendant","rural",,,,,,,,5410000
"Slovak Republic","blank2","no.skilled.attendant","secondary",,,,,,,,5410000
"Slovak Republic","blank2","no.skilled.attendant","stunted",,,,,,,,5410000
"Slovak Republic","blank2","no.skilled.attendant","under5",,,,,,,,5410000
"Slovak Republic","blank2","no.skilled.attendant","urban",,,,,,,,5410000
"Slovak Republic","blank2","non.p20","p20",100,100,0,100,0,0,0,5410000
"Slovak Republic","blank2","non.p20","primary",,,,,,,,5410000
"Slovak Republic","blank2","non.p20","rural",100,100,,100,,,,5410000
"Slovak Republic","blank2","non.p20","secondary",,,,,,,,5410000
"Slovak Republic","blank2","non.p20","stunted",,,,,,,,5410000
"Slovak Republic","blank2","non.p20","under5",100,100,,100,,,,5410000
"Slovak Republic","blank2","non.p20","urban",100,100,,100,,,,5410000
"Slovak Republic","blank2","p20","primary",,,,,,,,5410000
"Slovak Republic","blank2","p20","rural",100,0,,0,,,,5410000
"Slovak Republic","blank2","p20","secondary",,,,,,,,5410000
"Slovak Republic","blank2","p20","stunted",,,,,,,,5410000
"Slovak Republic","blank2","p20","under5",100,0,,0,,,,5410000
"Slovak Republic","blank2","p20","urban",100,0,,0,,,,5410000
"Slovak Republic","blank2","primary","rural",,,,,,,,5410000
"Slovak Republic","blank2","primary","secondary",,,,,,,,5410000
"Slovak Republic","blank2","primary","stunted",,,,,,,,5410000
"Slovak Republic","blank2","primary","under5",,,,,,,,5410000
"Slovak Republic","blank2","primary","urban",,,,,,,,5410000
"Slovak Republic","blank2","rural","secondary",,,,,,,,5410000
"Slovak Republic","blank2","rural","stunted",,,,,,,,5410000
"Slovak Republic","blank2","rural","under5",100,,,,,,,5410000
"Slovak Republic","blank2","rural","urban",100,,,,,,,5410000
"Slovak Republic","blank2","secondary","stunted",,,,,,,,5410000
"Slovak Republic","blank2","secondary","under5",,,,,,,,5410000
"Slovak Republic","blank2","secondary","urban",,,,,,,,5410000
"Slovak Republic","blank2","stunted","under5",,,,,,,,5410000
"Slovak Republic","blank2","stunted","urban",,,,,,,,5410000
"Slovak Republic","blank2","under5","urban",100,,,,,,,5410000
"Slovak Republic","ext","female","fifteento49",0,,,,,,,5410000
"Slovak Republic","ext","female","fiveto14",0,,,,,,,5410000
"Slovak Republic","ext","female","gt49",0,,,,,,,5410000
"Slovak Republic","ext","female","higher",,,,,,,,5410000
"Slovak Republic","ext","female","male",0,,,,,,,5410000
"Slovak Republic","ext","female","no.birth.reg",,,,,,,,5410000
"Slovak Republic","ext","female","no.educ",,,,,,,,5410000
"Slovak Republic","ext","female","no.skilled.attendant",,,,,,,,5410000
"Slovak Republic","ext","female","non.p20",0,,100,,,0,0,5410000
"Slovak Republic","ext","female","p20",0,,0,,,0,,5410000
"Slovak Republic","ext","female","primary",,,,,,,,5410000
"Slovak Republic","ext","female","rural",0,,,,,,,5410000
"Slovak Republic","ext","female","secondary",,,,,,,,5410000
"Slovak Republic","ext","female","stunted",,,,,,,,5410000
"Slovak Republic","ext","female","under5",0,,,,,,,5410000
"Slovak Republic","ext","female","urban",0,,,,,,,5410000
"Slovak Republic","ext","fifteento49","fiveto14",0,,,,,,,5410000
"Slovak Republic","ext","fifteento49","gt49",0,,,,,,,5410000
"Slovak Republic","ext","fifteento49","higher",,,,,,,,5410000
"Slovak Republic","ext","fifteento49","male",0,,,,,,,5410000
"Slovak Republic","ext","fifteento49","no.birth.reg",,,,,,,,5410000
"Slovak Republic","ext","fifteento49","no.educ",,,,,,,,5410000
"Slovak Republic","ext","fifteento49","no.skilled.attendant",,,,,,,,5410000
"Slovak Republic","ext","fifteento49","non.p20",0,,100,,,0,0,5410000
"Slovak Republic","ext","fifteento49","p20",0,,0,,,0,,5410000
"Slovak Republic","ext","fifteento49","primary",,,,,,,,5410000
"Slovak Republic","ext","fifteento49","rural",0,,,,,,,5410000
"Slovak Republic","ext","fifteento49","secondary",,,,,,,,5410000
"Slovak Republic","ext","fifteento49","stunted",,,,,,,,5410000
"Slovak Republic","ext","fifteento49","under5",0,,,,,,,5410000
"Slovak Republic","ext","fifteento49","urban",0,,,,,,,5410000
"Slovak Republic","ext","fiveto14","gt49",0,,,,,,,5410000
"Slovak Republic","ext","fiveto14","higher",,,,,,,,5410000
"Slovak Republic","ext","fiveto14","male",0,,,,,,,5410000
"Slovak Republic","ext","fiveto14","no.birth.reg",,,,,,,,5410000
"Slovak Republic","ext","fiveto14","no.educ",,,,,,,,5410000
"Slovak Republic","ext","fiveto14","no.skilled.attendant",,,,,,,,5410000
"Slovak Republic","ext","fiveto14","non.p20",0,,100,,,0,0,5410000
"Slovak Republic","ext","fiveto14","p20",0,,0,,,0,,5410000
"Slovak Republic","ext","fiveto14","primary",,,,,,,,5410000
"Slovak Republic","ext","fiveto14","rural",0,,,,,,,5410000
"Slovak Republic","ext","fiveto14","secondary",,,,,,,,5410000
"Slovak Republic","ext","fiveto14","stunted",,,,,,,,5410000
"Slovak Republic","ext","fiveto14","under5",0,,,,,,,5410000
"Slovak Republic","ext","fiveto14","urban",0,,,,,,,5410000
"Slovak Republic","ext","gt49","higher",,,,,,,,5410000
"Slovak Republic","ext","gt49","male",0,,,,,,,5410000
"Slovak Republic","ext","gt49","no.birth.reg",,,,,,,,5410000
"Slovak Republic","ext","gt49","no.educ",,,,,,,,5410000
"Slovak Republic","ext","gt49","no.skilled.attendant",,,,,,,,5410000
"Slovak Republic","ext","gt49","non.p20",0,,100,,,0,0,5410000
"Slovak Republic","ext","gt49","p20",0,,0,,,0,,5410000
"Slovak Republic","ext","gt49","primary",,,,,,,,5410000
"Slovak Republic","ext","gt49","rural",0,,,,,,,5410000
"Slovak Republic","ext","gt49","secondary",,,,,,,,5410000
"Slovak Republic","ext","gt49","stunted",,,,,,,,5410000
"Slovak Republic","ext","gt49","under5",0,,,,,,,5410000
"Slovak Republic","ext","gt49","urban",0,,,,,,,5410000
"Slovak Republic","ext","higher","male",,,,,,,,5410000
"Slovak Republic","ext","higher","no.birth.reg",,,,,,,,5410000
"Slovak Republic","ext","higher","no.educ",,,,,,,,5410000
"Slovak Republic","ext","higher","no.skilled.attendant",,,,,,,,5410000
"Slovak Republic","ext","higher","non.p20",,,,,,0,0,5410000
"Slovak Republic","ext","higher","p20",,,,,,,,5410000
"Slovak Republic","ext","higher","primary",,,,,,,,5410000
"Slovak Republic","ext","higher","rural",,,,,,,,5410000
"Slovak Republic","ext","higher","secondary",,,,,,,,5410000
"Slovak Republic","ext","higher","stunted",,,,,,,,5410000
"Slovak Republic","ext","higher","under5",,,,,,,,5410000
"Slovak Republic","ext","higher","urban",,,,,,,,5410000
"Slovak Republic","ext","male","no.birth.reg",,,,,,,,5410000
"Slovak Republic","ext","male","no.educ",,,,,,,,5410000
"Slovak Republic","ext","male","no.skilled.attendant",,,,,,,,5410000
"Slovak Republic","ext","male","non.p20",0,,100,,,0,0,5410000
"Slovak Republic","ext","male","p20",0,,0,,,0,,5410000
"Slovak Republic","ext","male","primary",,,,,,,,5410000
"Slovak Republic","ext","male","rural",0,,,,,,,5410000
"Slovak Republic","ext","male","secondary",,,,,,,,5410000
"Slovak Republic","ext","male","stunted",,,,,,,,5410000
"Slovak Republic","ext","male","under5",0,,,,,,,5410000
"Slovak Republic","ext","male","urban",0,,,,,,,5410000
"Slovak Republic","ext","no.birth.reg","no.educ",,,,,,,,5410000
"Slovak Republic","ext","no.birth.reg","no.skilled.attendant",,,,,,,,5410000
"Slovak Republic","ext","no.birth.reg","non.p20",,,,,,0,0,5410000
"Slovak Republic","ext","no.birth.reg","p20",,,,,,,,5410000
"Slovak Republic","ext","no.birth.reg","primary",,,,,,,,5410000
"Slovak Republic","ext","no.birth.reg","rural",,,,,,,,5410000
"Slovak Republic","ext","no.birth.reg","secondary",,,,,,,,5410000
"Slovak Republic","ext","no.birth.reg","stunted",,,,,,,,5410000
"Slovak Republic","ext","no.birth.reg","under5",,,,,,,,5410000
"Slovak Republic","ext","no.birth.reg","urban",,,,,,,,5410000
"Slovak Republic","ext","no.educ","no.skilled.attendant",,,,,,,,5410000
"Slovak Republic","ext","no.educ","non.p20",,,,,,0,0,5410000
"Slovak Republic","ext","no.educ","p20",,,,,,,,5410000
"Slovak Republic","ext","no.educ","primary",,,,,,,,5410000
"Slovak Republic","ext","no.educ","rural",,,,,,,,5410000
"Slovak Republic","ext","no.educ","secondary",,,,,,,,5410000
"Slovak Republic","ext","no.educ","stunted",,,,,,,,5410000
"Slovak Republic","ext","no.educ","under5",,,,,,,,5410000
"Slovak Republic","ext","no.educ","urban",,,,,,,,5410000
"Slovak Republic","ext","no.skilled.attendant","non.p20",,,,,,0,0,5410000
"Slovak Republic","ext","no.skilled.attendant","p20",,,,,,,,5410000
"Slovak Republic","ext","no.skilled.attendant","primary",,,,,,,,5410000
"Slovak Republic","ext","no.skilled.attendant","rural",,,,,,,,5410000
"Slovak Republic","ext","no.skilled.attendant","secondary",,,,,,,,5410000
"Slovak Republic","ext","no.skilled.attendant","stunted",,,,,,,,5410000
"Slovak Republic","ext","no.skilled.attendant","under5",,,,,,,,5410000
"Slovak Republic","ext","no.skilled.attendant","urban",,,,,,,,5410000
"Slovak Republic","ext","non.p20","p20",0,100,0,0,0,0,0,5410000
"Slovak Republic","ext","non.p20","primary",,,,0,,,0,5410000
"Slovak Republic","ext","non.p20","rural",0,100,,0,,,0,5410000
"Slovak Republic","ext","non.p20","secondary",,,,0,,,0,5410000
"Slovak Republic","ext","non.p20","stunted",,,,0,,,0,5410000
"Slovak Republic","ext","non.p20","under5",0,100,,0,,,0,5410000
"Slovak Republic","ext","non.p20","urban",0,100,,0,,,0,5410000
"Slovak Republic","ext","p20","primary",,,,,,,,5410000
"Slovak Republic","ext","p20","rural",0,0,,0,,,,5410000
"Slovak Republic","ext","p20","secondary",,,,,,,,5410000
"Slovak Republic","ext","p20","stunted",,,,,,,,5410000
"Slovak Republic","ext","p20","under5",0,0,,0,,,,5410000
"Slovak Republic","ext","p20","urban",0,0,,0,,,,5410000
"Slovak Republic","ext","primary","rural",,,,,,,,5410000
"Slovak Republic","ext","primary","secondary",,,,,,,,5410000
"Slovak Republic","ext","primary","stunted",,,,,,,,5410000
"Slovak Republic","ext","primary","under5",,,,,,,,5410000
"Slovak Republic","ext","primary","urban",,,,,,,,5410000
"Slovak Republic","ext","rural","secondary",,,,,,,,5410000
"Slovak Republic","ext","rural","stunted",,,,,,,,5410000
"Slovak Republic","ext","rural","under5",0,,,,,,,5410000
"Slovak Republic","ext","rural","urban",0,,,,,,,5410000
"Slovak Republic","ext","secondary","stunted",,,,,,,,5410000
"Slovak Republic","ext","secondary","under5",,,,,,,,5410000
"Slovak Republic","ext","secondary","urban",,,,,,,,5410000
"Slovak Republic","ext","stunted","under5",,,,,,,,5410000
"Slovak Republic","ext","stunted","urban",,,,,,,,5410000
"Slovak Republic","ext","under5","urban",0,,,,,,,5410000
"Slovak Republic","female","fifteento49","fiveto14",,,,,,,,5410000
"Slovak Republic","female","fifteento49","gt49",,,,,,,,5410000
"Slovak Republic","female","fifteento49","higher",,,,,,,,5410000
"Slovak Republic","female","fifteento49","male",,,,,,,,5410000
"Slovak Republic","female","fifteento49","no.birth.reg",,,,,,,,5410000
"Slovak Republic","female","fifteento49","no.educ",,,,,,,,5410000
"Slovak Republic","female","fifteento49","no.skilled.attendant",,,,,,,,5410000
"Slovak Republic","female","fifteento49","non.p20",,,100,,,,,5410000
"Slovak Republic","female","fifteento49","p20",,,0,,,,,5410000
"Slovak Republic","female","fifteento49","primary",,,,,,,,5410000
"Slovak Republic","female","fifteento49","rural",,,,,,,,5410000
"Slovak Republic","female","fifteento49","secondary",,,,,,,,5410000
"Slovak Republic","female","fifteento49","stunted",,,,,,,,5410000
"Slovak Republic","female","fifteento49","under5",,,,,,,,5410000
"Slovak Republic","female","fifteento49","urban",,,,,,,,5410000
"Slovak Republic","female","fiveto14","gt49",,,,,,,,5410000
"Slovak Republic","female","fiveto14","higher",,,,,,,,5410000
"Slovak Republic","female","fiveto14","male",,,,,,,,5410000
"Slovak Republic","female","fiveto14","no.birth.reg",,,,,,,,5410000
"Slovak Republic","female","fiveto14","no.educ",,,,,,,,5410000
"Slovak Republic","female","fiveto14","no.skilled.attendant",,,,,,,,5410000
"Slovak Republic","female","fiveto14","non.p20",,,100,,,,,5410000
"Slovak Republic","female","fiveto14","p20",,,0,,,,,5410000
"Slovak Republic","female","fiveto14","primary",,,,,,,,5410000
"Slovak Republic","female","fiveto14","rural",,,,,,,,5410000
"Slovak Republic","female","fiveto14","secondary",,,,,,,,5410000
"Slovak Republic","female","fiveto14","stunted",,,,,,,,5410000
"Slovak Republic","female","fiveto14","under5",,,,,,,,5410000
"Slovak Republic","female","fiveto14","urban",,,,,,,,5410000
"Slovak Republic","female","gt49","higher",,,,,,,,5410000
"Slovak Republic","female","gt49","male",,,,,,,,5410000
"Slovak Republic","female","gt49","no.birth.reg",,,,,,,,5410000
"Slovak Republic","female","gt49","no.educ",,,,,,,,5410000
"Slovak Republic","female","gt49","no.skilled.attendant",,,,,,,,5410000
"Slovak Republic","female","gt49","non.p20",,,100,,,,,5410000
"Slovak Republic","female","gt49","p20",,,0,,,,,5410000
"Slovak Republic","female","gt49","primary",,,,,,,,5410000
"Slovak Republic","female","gt49","rural",,,,,,,,5410000
"Slovak Republic","female","gt49","secondary",,,,,,,,5410000
"Slovak Republic","female","gt49","stunted",,,,,,,,5410000
"Slovak Republic","female","gt49","under5",,,,,,,,5410000
"Slovak Republic","female","gt49","urban",,,,,,,,5410000
"Slovak Republic","female","higher","male",,,,,,,,5410000
"Slovak Republic","female","higher","no.birth.reg",,,,,,,,5410000
"Slovak Republic","female","higher","no.educ",,,,,,,,5410000
"Slovak Republic","female","higher","no.skilled.attendant",,,,,,,,5410000
"Slovak Republic","female","higher","non.p20",,,,,,,,5410000
"Slovak Republic","female","higher","p20",,,,,,,,5410000
"Slovak Republic","female","higher","primary",,,,,,,,5410000
"Slovak Republic","female","higher","rural",,,,,,,,5410000
"Slovak Republic","female","higher","secondary",,,,,,,,5410000
"Slovak Republic","female","higher","stunted",,,,,,,,5410000
"Slovak Republic","female","higher","under5",,,,,,,,5410000
"Slovak Republic","female","higher","urban",,,,,,,,5410000
"Slovak Republic","female","male","no.birth.reg",,,,,,,,5410000
"Slovak Republic","female","male","no.educ",,,,,,,,5410000
"Slovak Republic","female","male","no.skilled.attendant",,,,,,,,5410000
"Slovak Republic","female","male","non.p20",,,100,,,,,5410000
"Slovak Republic","female","male","p20",,,0,,,,,5410000
"Slovak Republic","female","male","primary",,,,,,,,5410000
"Slovak Republic","female","male","rural",,,,,,,,5410000
"Slovak Republic","female","male","secondary",,,,,,,,5410000
"Slovak Republic","female","male","stunted",,,,,,,,5410000
"Slovak Republic","female","male","under5",,,,,,,,5410000
"Slovak Republic","female","male","urban",,,,,,,,5410000
"Slovak Republic","female","no.birth.reg","no.educ",,,,,,,,5410000
"Slovak Republic","female","no.birth.reg","no.skilled.attendant",,,,,,,,5410000
"Slovak Republic","female","no.birth.reg","non.p20",,,,,,,,5410000
"Slovak Republic","female","no.birth.reg","p20",,,,,,,,5410000
"Slovak Republic","female","no.birth.reg","primary",,,,,,,,5410000
"Slovak Republic","female","no.birth.reg","rural",,,,,,,,5410000
"Slovak Republic","female","no.birth.reg","secondary",,,,,,,,5410000
"Slovak Republic","female","no.birth.reg","stunted",,,,,,,,5410000
"Slovak Republic","female","no.birth.reg","under5",,,,,,,,5410000
"Slovak Republic","female","no.birth.reg","urban",,,,,,,,5410000
"Slovak Republic","female","no.educ","no.skilled.attendant",,,,,,,,5410000
"Slovak Republic","female","no.educ","non.p20",,,,,,,,5410000
"Slovak Republic","female","no.educ","p20",,,,,,,,5410000
"Slovak Republic","female","no.educ","primary",,,,,,,,5410000
"Slovak Republic","female","no.educ","rural",,,,,,,,5410000
"Slovak Republic","female","no.educ","secondary",,,,,,,,5410000
"Slovak Republic","female","no.educ","stunted",,,,,,,,5410000
"Slovak Republic","female","no.educ","under5",,,,,,,,5410000
"Slovak Republic","female","no.educ","urban",,,,,,,,5410000
"Slovak Republic","female","no.skilled.attendant","non.p20",,,,,,,,5410000
"Slovak Republic","female","no.skilled.attendant","p20",,,,,,,,5410000
"Slovak Republic","female","no.skilled.attendant","primary",,,,,,,,5410000
"Slovak Republic","female","no.skilled.attendant","rural",,,,,,,,5410000
"Slovak Republic","female","no.skilled.attendant","secondary",,,,,,,,5410000
"Slovak Republic","female","no.skilled.attendant","stunted",,,,,,,,5410000
"Slovak Republic","female","no.skilled.attendant","under5",,,,,,,,5410000
"Slovak Republic","female","no.skilled.attendant","urban",,,,,,,,5410000
"Slovak Republic","female","non.p20","p20",,100,0,,0,,0,5410000
"Slovak Republic","female","non.p20","primary",,,,,,,,5410000
"Slovak Republic","female","non.p20","rural",,100,,,,,,5410000
"Slovak Republic","female","non.p20","secondary",,,,,,,,5410000
"Slovak Republic","female","non.p20","stunted",,,,,,,,5410000
"Slovak Republic","female","non.p20","under5",,100,,,,,,5410000
"Slovak Republic","female","non.p20","urban",,100,,,,,,5410000
"Slovak Republic","female","p20","primary",,,,,,,,5410000
"Slovak Republic","female","p20","rural",,0,,,,,,5410000
"Slovak Republic","female","p20","secondary",,,,,,,,5410000
"Slovak Republic","female","p20","stunted",,,,,,,,5410000
"Slovak Republic","female","p20","under5",,0,,,,,,5410000
"Slovak Republic","female","p20","urban",,0,,,,,,5410000
"Slovak Republic","female","primary","rural",,,,,,,,5410000
"Slovak Republic","female","primary","secondary",,,,,,,,5410000
"Slovak Republic","female","primary","stunted",,,,,,,,5410000
"Slovak Republic","female","primary","under5",,,,,,,,5410000
"Slovak Republic","female","primary","urban",,,,,,,,5410000
"Slovak Republic","female","rural","secondary",,,,,,,,5410000
"Slovak Republic","female","rural","stunted",,,,,,,,5410000
"Slovak Republic","female","rural","under5",,,,,,,,5410000
"Slovak Republic","female","rural","urban",,,,,,,,5410000
"Slovak Republic","female","secondary","stunted",,,,,,,,5410000
"Slovak Republic","female","secondary","under5",,,,,,,,5410000
"Slovak Republic","female","secondary","urban",,,,,,,,5410000
"Slovak Republic","female","stunted","under5",,,,,,,,5410000
"Slovak Republic","female","stunted","urban",,,,,,,,5410000
"Slovak Republic","female","under5","urban",,,,,,,,5410000
"Slovak Republic","fifteento49","fiveto14","gt49",,,,,,,,5410000
"Slovak Republic","fifteento49","fiveto14","higher",,,,,,,,5410000
"Slovak Republic","fifteento49","fiveto14","male",,,,,,,,5410000
"Slovak Republic","fifteento49","fiveto14","no.birth.reg",,,,,,,,5410000
"Slovak Republic","fifteento49","fiveto14","no.educ",,,,,,,,5410000
"Slovak Republic","fifteento49","fiveto14","no.skilled.attendant",,,,,,,,5410000
"Slovak Republic","fifteento49","fiveto14","non.p20",,,100,,,,,5410000
"Slovak Republic","fifteento49","fiveto14","p20",,,0,,,,,5410000
"Slovak Republic","fifteento49","fiveto14","primary",,,,,,,,5410000
"Slovak Republic","fifteento49","fiveto14","rural",,,,,,,,5410000
"Slovak Republic","fifteento49","fiveto14","secondary",,,,,,,,5410000
"Slovak Republic","fifteento49","fiveto14","stunted",,,,,,,,5410000
"Slovak Republic","fifteento49","fiveto14","under5",,,,,,,,5410000
"Slovak Republic","fifteento49","fiveto14","urban",,,,,,,,5410000
"Slovak Republic","fifteento49","gt49","higher",,,,,,,,5410000
"Slovak Republic","fifteento49","gt49","male",,,,,,,,5410000
"Slovak Republic","fifteento49","gt49","no.birth.reg",,,,,,,,5410000
"Slovak Republic","fifteento49","gt49","no.educ",,,,,,,,5410000
"Slovak Republic","fifteento49","gt49","no.skilled.attendant",,,,,,,,5410000
"Slovak Republic","fifteento49","gt49","non.p20",,,100,,,,,5410000
"Slovak Republic","fifteento49","gt49","p20",,,0,,,,,5410000
"Slovak Republic","fifteento49","gt49","primary",,,,,,,,5410000
"Slovak Republic","fifteento49","gt49","rural",,,,,,,,5410000
"Slovak Republic","fifteento49","gt49","secondary",,,,,,,,5410000
"Slovak Republic","fifteento49","gt49","stunted",,,,,,,,5410000
"Slovak Republic","fifteento49","gt49","under5",,,,,,,,5410000
"Slovak Republic","fifteento49","gt49","urban",,,,,,,,5410000
"Slovak Republic","fifteento49","higher","male",,,,,,,,5410000
"Slovak Republic","fifteento49","higher","no.birth.reg",,,,,,,,5410000
"Slovak Republic","fifteento49","higher","no.educ",,,,,,,,5410000
"Slovak Republic","fifteento49","higher","no.skilled.attendant",,,,,,,,5410000
"Slovak Republic","fifteento49","higher","non.p20",,,,,,,,5410000
"Slovak Republic","fifteento49","higher","p20",,,,,,,,5410000
"Slovak Republic","fifteento49","higher","primary",,,,,,,,5410000
"Slovak Republic","fifteento49","higher","rural",,,,,,,,5410000
"Slovak Republic","fifteento49","higher","secondary",,,,,,,,5410000
"Slovak Republic","fifteento49","higher","stunted",,,,,,,,5410000
"Slovak Republic","fifteento49","higher","under5",,,,,,,,5410000
"Slovak Republic","fifteento49","higher","urban",,,,,,,,5410000
"Slovak Republic","fifteento49","male","no.birth.reg",,,,,,,,5410000
"Slovak Republic","fifteento49","male","no.educ",,,,,,,,5410000
"Slovak Republic","fifteento49","male","no.skilled.attendant",,,,,,,,5410000
"Slovak Republic","fifteento49","male","non.p20",,,100,,,,,5410000
"Slovak Republic","fifteento49","male","p20",,,0,,,,,5410000
"Slovak Republic","fifteento49","male","primary",,,,,,,,5410000
"Slovak Republic","fifteento49","male","rural",,,,,,,,5410000
"Slovak Republic","fifteento49","male","secondary",,,,,,,,5410000
"Slovak Republic","fifteento49","male","stunted",,,,,,,,5410000
"Slovak Republic","fifteento49","male","under5",,,,,,,,5410000
"Slovak Republic","fifteento49","male","urban",,,,,,,,5410000
"Slovak Republic","fifteento49","no.birth.reg","no.educ",,,,,,,,5410000
"Slovak Republic","fifteento49","no.birth.reg","no.skilled.attendant",,,,,,,,5410000
"Slovak Republic","fifteento49","no.birth.reg","non.p20",,,,,,,,5410000
"Slovak Republic","fifteento49","no.birth.reg","p20",,,,,,,,5410000
"Slovak Republic","fifteento49","no.birth.reg","primary",,,,,,,,5410000
"Slovak Republic","fifteento49","no.birth.reg","rural",,,,,,,,5410000
"Slovak Republic","fifteento49","no.birth.reg","secondary",,,,,,,,5410000
"Slovak Republic","fifteento49","no.birth.reg","stunted",,,,,,,,5410000
"Slovak Republic","fifteento49","no.birth.reg","under5",,,,,,,,5410000
"Slovak Republic","fifteento49","no.birth.reg","urban",,,,,,,,5410000
"Slovak Republic","fifteento49","no.educ","no.skilled.attendant",,,,,,,,5410000
"Slovak Republic","fifteento49","no.educ","non.p20",,,,,,,,5410000
"Slovak Republic","fifteento49","no.educ","p20",,,,,,,,5410000
"Slovak Republic","fifteento49","no.educ","primary",,,,,,,,5410000
"Slovak Republic","fifteento49","no.educ","rural",,,,,,,,5410000
"Slovak Republic","fifteento49","no.educ","secondary",,,,,,,,5410000
"Slovak Republic","fifteento49","no.educ","stunted",,,,,,,,5410000
"Slovak Republic","fifteento49","no.educ","under5",,,,,,,,5410000
"Slovak Republic","fifteento49","no.educ","urban",,,,,,,,5410000
"Slovak Republic","fifteento49","no.skilled.attendant","non.p20",,,,,,,,5410000
"Slovak Republic","fifteento49","no.skilled.attendant","p20",,,,,,,,5410000
"Slovak Republic","fifteento49","no.skilled.attendant","primary",,,,,,,,5410000
"Slovak Republic","fifteento49","no.skilled.attendant","rural",,,,,,,,5410000
"Slovak Republic","fifteento49","no.skilled.attendant","secondary",,,,,,,,5410000
"Slovak Republic","fifteento49","no.skilled.attendant","stunted",,,,,,,,5410000
"Slovak Republic","fifteento49","no.skilled.attendant","under5",,,,,,,,5410000
"Slovak Republic","fifteento49","no.skilled.attendant","urban",,,,,,,,5410000
"Slovak Republic","fifteento49","non.p20","p20",,100,0,,0,,0,5410000
"Slovak Republic","fifteento49","non.p20","primary",,,,,,,,5410000
"Slovak Republic","fifteento49","non.p20","rural",,100,,,,,,5410000
"Slovak Republic","fifteento49","non.p20","secondary",,,,,,,,5410000
"Slovak Republic","fifteento49","non.p20","stunted",,,,,,,,5410000
"Slovak Republic","fifteento49","non.p20","under5",,100,,,,,,5410000
"Slovak Republic","fifteento49","non.p20","urban",,100,,,,,,5410000
"Slovak Republic","fifteento49","p20","primary",,,,,,,,5410000
"Slovak Republic","fifteento49","p20","rural",,0,,,,,,5410000
"Slovak Republic","fifteento49","p20","secondary",,,,,,,,5410000
"Slovak Republic","fifteento49","p20","stunted",,,,,,,,5410000
"Slovak Republic","fifteento49","p20","under5",,0,,,,,,5410000
"Slovak Republic","fifteento49","p20","urban",,0,,,,,,5410000
"Slovak Republic","fifteento49","primary","rural",,,,,,,,5410000
"Slovak Republic","fifteento49","primary","secondary",,,,,,,,5410000
"Slovak Republic","fifteento49","primary","stunted",,,,,,,,5410000
"Slovak Republic","fifteento49","primary","under5",,,,,,,,5410000
"Slovak Republic","fifteento49","primary","urban",,,,,,,,5410000
"Slovak Republic","fifteento49","rural","secondary",,,,,,,,5410000
"Slovak Republic","fifteento49","rural","stunted",,,,,,,,5410000
"Slovak Republic","fifteento49","rural","under5",,,,,,,,5410000
"Slovak Republic","fifteento49","rural","urban",,,,,,,,5410000
"Slovak Republic","fifteento49","secondary","stunted",,,,,,,,5410000
"Slovak Republic","fifteento49","secondary","under5",,,,,,,,5410000
"Slovak Republic","fifteento49","secondary","urban",,,,,,,,5410000
"Slovak Republic","fifteento49","stunted","under5",,,,,,,,5410000
"Slovak Republic","fifteento49","stunted","urban",,,,,,,,5410000
"Slovak Republic","fifteento49","under5","urban",,,,,,,,5410000
"Slovak Republic","fiveto14","gt49","higher",,,,,,,,5410000
"Slovak Republic","fiveto14","gt49","male",,,,,,,,5410000
"Slovak Republic","fiveto14","gt49","no.birth.reg",,,,,,,,5410000
"Slovak Republic","fiveto14","gt49","no.educ",,,,,,,,5410000
"Slovak Republic","fiveto14","gt49","no.skilled.attendant",,,,,,,,5410000
"Slovak Republic","fiveto14","gt49","non.p20",,,100,,,,,5410000
"Slovak Republic","fiveto14","gt49","p20",,,0,,,,,5410000
"Slovak Republic","fiveto14","gt49","primary",,,,,,,,5410000
"Slovak Republic","fiveto14","gt49","rural",,,,,,,,5410000
"Slovak Republic","fiveto14","gt49","secondary",,,,,,,,5410000
"Slovak Republic","fiveto14","gt49","stunted",,,,,,,,5410000
"Slovak Republic","fiveto14","gt49","under5",,,,,,,,5410000
"Slovak Republic","fiveto14","gt49","urban",,,,,,,,5410000
"Slovak Republic","fiveto14","higher","male",,,,,,,,5410000
"Slovak Republic","fiveto14","higher","no.birth.reg",,,,,,,,5410000
"Slovak Republic","fiveto14","higher","no.educ",,,,,,,,5410000
"Slovak Republic","fiveto14","higher","no.skilled.attendant",,,,,,,,5410000
"Slovak Republic","fiveto14","higher","non.p20",,,,,,,,5410000
"Slovak Republic","fiveto14","higher","p20",,,,,,,,5410000
"Slovak Republic","fiveto14","higher","primary",,,,,,,,5410000
"Slovak Republic","fiveto14","higher","rural",,,,,,,,5410000
"Slovak Republic","fiveto14","higher","secondary",,,,,,,,5410000
"Slovak Republic","fiveto14","higher","stunted",,,,,,,,5410000
"Slovak Republic","fiveto14","higher","under5",,,,,,,,5410000
"Slovak Republic","fiveto14","higher","urban",,,,,,,,5410000
"Slovak Republic","fiveto14","male","no.birth.reg",,,,,,,,5410000
"Slovak Republic","fiveto14","male","no.educ",,,,,,,,5410000
"Slovak Republic","fiveto14","male","no.skilled.attendant",,,,,,,,5410000
"Slovak Republic","fiveto14","male","non.p20",,,100,,,,,5410000
"Slovak Republic","fiveto14","male","p20",,,0,,,,,5410000
"Slovak Republic","fiveto14","male","primary",,,,,,,,5410000
"Slovak Republic","fiveto14","male","rural",,,,,,,,5410000
"Slovak Republic","fiveto14","male","secondary",,,,,,,,5410000
"Slovak Republic","fiveto14","male","stunted",,,,,,,,5410000
"Slovak Republic","fiveto14","male","under5",,,,,,,,5410000
"Slovak Republic","fiveto14","male","urban",,,,,,,,5410000
"Slovak Republic","fiveto14","no.birth.reg","no.educ",,,,,,,,5410000
"Slovak Republic","fiveto14","no.birth.reg","no.skilled.attendant",,,,,,,,5410000
"Slovak Republic","fiveto14","no.birth.reg","non.p20",,,,,,,,5410000
"Slovak Republic","fiveto14","no.birth.reg","p20",,,,,,,,5410000
"Slovak Republic","fiveto14","no.birth.reg","primary",,,,,,,,5410000
"Slovak Republic","fiveto14","no.birth.reg","rural",,,,,,,,5410000
"Slovak Republic","fiveto14","no.birth.reg","secondary",,,,,,,,5410000
"Slovak Republic","fiveto14","no.birth.reg","stunted",,,,,,,,5410000
"Slovak Republic","fiveto14","no.birth.reg","under5",,,,,,,,5410000
"Slovak Republic","fiveto14","no.birth.reg","urban",,,,,,,,5410000
"Slovak Republic","fiveto14","no.educ","no.skilled.attendant",,,,,,,,5410000
"Slovak Republic","fiveto14","no.educ","non.p20",,,,,,,,5410000
"Slovak Republic","fiveto14","no.educ","p20",,,,,,,,5410000
"Slovak Republic","fiveto14","no.educ","primary",,,,,,,,5410000
"Slovak Republic","fiveto14","no.educ","rural",,,,,,,,5410000
"Slovak Republic","fiveto14","no.educ","secondary",,,,,,,,5410000
"Slovak Republic","fiveto14","no.educ","stunted",,,,,,,,5410000
"Slovak Republic","fiveto14","no.educ","under5",,,,,,,,5410000
"Slovak Republic","fiveto14","no.educ","urban",,,,,,,,5410000
"Slovak Republic","fiveto14","no.skilled.attendant","non.p20",,,,,,,,5410000
"Slovak Republic","fiveto14","no.skilled.attendant","p20",,,,,,,,5410000
"Slovak Republic","fiveto14","no.skilled.attendant","primary",,,,,,,,5410000
"Slovak Republic","fiveto14","no.skilled.attendant","rural",,,,,,,,5410000
"Slovak Republic","fiveto14","no.skilled.attendant","secondary",,,,,,,,5410000
"Slovak Republic","fiveto14","no.skilled.attendant","stunted",,,,,,,,5410000
"Slovak Republic","fiveto14","no.skilled.attendant","under5",,,,,,,,5410000
"Slovak Republic","fiveto14","no.skilled.attendant","urban",,,,,,,,5410000
"Slovak Republic","fiveto14","non.p20","p20",,100,0,,0,,0,5410000
"Slovak Republic","fiveto14","non.p20","primary",,,,,,,,5410000
"Slovak Republic","fiveto14","non.p20","rural",,100,,,,,,5410000
"Slovak Republic","fiveto14","non.p20","secondary",,,,,,,,5410000
"Slovak Republic","fiveto14","non.p20","stunted",,,,,,,,5410000
"Slovak Republic","fiveto14","non.p20","under5",,100,,,,,,5410000
"Slovak Republic","fiveto14","non.p20","urban",,100,,,,,,5410000
"Slovak Republic","fiveto14","p20","primary",,,,,,,,5410000
"Slovak Republic","fiveto14","p20","rural",,0,,,,,,5410000
"Slovak Republic","fiveto14","p20","secondary",,,,,,,,5410000
"Slovak Republic","fiveto14","p20","stunted",,,,,,,,5410000
"Slovak Republic","fiveto14","p20","under5",,0,,,,,,5410000
"Slovak Republic","fiveto14","p20","urban",,0,,,,,,5410000
"Slovak Republic","fiveto14","primary","rural",,,,,,,,5410000
"Slovak Republic","fiveto14","primary","secondary",,,,,,,,5410000
"Slovak Republic","fiveto14","primary","stunted",,,,,,,,5410000
"Slovak Republic","fiveto14","primary","under5",,,,,,,,5410000
"Slovak Republic","fiveto14","primary","urban",,,,,,,,5410000
"Slovak Republic","fiveto14","rural","secondary",,,,,,,,5410000
"Slovak Republic","fiveto14","rural","stunted",,,,,,,,5410000
"Slovak Republic","fiveto14","rural","under5",,,,,,,,5410000
"Slovak Republic","fiveto14","rural","urban",,,,,,,,5410000
"Slovak Republic","fiveto14","secondary","stunted",,,,,,,,5410000
"Slovak Republic","fiveto14","secondary","under5",,,,,,,,5410000
"Slovak Republic","fiveto14","secondary","urban",,,,,,,,5410000
"Slovak Republic","fiveto14","stunted","under5",,,,,,,,5410000
"Slovak Republic","fiveto14","stunted","urban",,,,,,,,5410000
"Slovak Republic","fiveto14","under5","urban",,,,,,,,5410000
"Slovak Republic","gt49","higher","male",,,,,,,,5410000
"Slovak Republic","gt49","higher","no.birth.reg",,,,,,,,5410000
"Slovak Republic","gt49","higher","no.educ",,,,,,,,5410000
"Slovak Republic","gt49","higher","no.skilled.attendant",,,,,,,,5410000
"Slovak Republic","gt49","higher","non.p20",,,,,,,,5410000
"Slovak Republic","gt49","higher","p20",,,,,,,,5410000
"Slovak Republic","gt49","higher","primary",,,,,,,,5410000
"Slovak Republic","gt49","higher","rural",,,,,,,,5410000
"Slovak Republic","gt49","higher","secondary",,,,,,,,5410000
"Slovak Republic","gt49","higher","stunted",,,,,,,,5410000
"Slovak Republic","gt49","higher","under5",,,,,,,,5410000
"Slovak Republic","gt49","higher","urban",,,,,,,,5410000
"Slovak Republic","gt49","male","no.birth.reg",,,,,,,,5410000
"Slovak Republic","gt49","male","no.educ",,,,,,,,5410000
"Slovak Republic","gt49","male","no.skilled.attendant",,,,,,,,5410000
"Slovak Republic","gt49","male","non.p20",,,100,,,,,5410000
"Slovak Republic","gt49","male","p20",,,0,,,,,5410000
"Slovak Republic","gt49","male","primary",,,,,,,,5410000
"Slovak Republic","gt49","male","rural",,,,,,,,5410000
"Slovak Republic","gt49","male","secondary",,,,,,,,5410000
"Slovak Republic","gt49","male","stunted",,,,,,,,5410000
"Slovak Republic","gt49","male","under5",,,,,,,,5410000
"Slovak Republic","gt49","male","urban",,,,,,,,5410000
"Slovak Republic","gt49","no.birth.reg","no.educ",,,,,,,,5410000
"Slovak Republic","gt49","no.birth.reg","no.skilled.attendant",,,,,,,,5410000
"Slovak Republic","gt49","no.birth.reg","non.p20",,,,,,,,5410000
"Slovak Republic","gt49","no.birth.reg","p20",,,,,,,,5410000
"Slovak Republic","gt49","no.birth.reg","primary",,,,,,,,5410000
"Slovak Republic","gt49","no.birth.reg","rural",,,,,,,,5410000
"Slovak Republic","gt49","no.birth.reg","secondary",,,,,,,,5410000
"Slovak Republic","gt49","no.birth.reg","stunted",,,,,,,,5410000
"Slovak Republic","gt49","no.birth.reg","under5",,,,,,,,5410000
"Slovak Republic","gt49","no.birth.reg","urban",,,,,,,,5410000
"Slovak Republic","gt49","no.educ","no.skilled.attendant",,,,,,,,5410000
"Slovak Republic","gt49","no.educ","non.p20",,,,,,,,5410000
"Slovak Republic","gt49","no.educ","p20",,,,,,,,5410000
"Slovak Republic","gt49","no.educ","primary",,,,,,,,5410000
"Slovak Republic","gt49","no.educ","rural",,,,,,,,5410000
"Slovak Republic","gt49","no.educ","secondary",,,,,,,,5410000
"Slovak Republic","gt49","no.educ","stunted",,,,,,,,5410000
"Slovak Republic","gt49","no.educ","under5",,,,,,,,5410000
"Slovak Republic","gt49","no.educ","urban",,,,,,,,5410000
"Slovak Republic","gt49","no.skilled.attendant","non.p20",,,,,,,,5410000
"Slovak Republic","gt49","no.skilled.attendant","p20",,,,,,,,5410000
"Slovak Republic","gt49","no.skilled.attendant","primary",,,,,,,,5410000
"Slovak Republic","gt49","no.skilled.attendant","rural",,,,,,,,5410000
"Slovak Republic","gt49","no.skilled.attendant","secondary",,,,,,,,5410000
"Slovak Republic","gt49","no.skilled.attendant","stunted",,,,,,,,5410000
"Slovak Republic","gt49","no.skilled.attendant","under5",,,,,,,,5410000
"Slovak Republic","gt49","no.skilled.attendant","urban",,,,,,,,5410000
"Slovak Republic","gt49","non.p20","p20",,100,0,,0,,0,5410000
"Slovak Republic","gt49","non.p20","primary",,,,,,,,5410000
"Slovak Republic","gt49","non.p20","rural",,100,,,,,,5410000
"Slovak Republic","gt49","non.p20","secondary",,,,,,,,5410000
"Slovak Republic","gt49","non.p20","stunted",,,,,,,,5410000
"Slovak Republic","gt49","non.p20","under5",,100,,,,,,5410000
"Slovak Republic","gt49","non.p20","urban",,100,,,,,,5410000
"Slovak Republic","gt49","p20","primary",,,,,,,,5410000
"Slovak Republic","gt49","p20","rural",,0,,,,,,5410000
"Slovak Republic","gt49","p20","secondary",,,,,,,,5410000
"Slovak Republic","gt49","p20","stunted",,,,,,,,5410000
"Slovak Republic","gt49","p20","under5",,0,,,,,,5410000
"Slovak Republic","gt49","p20","urban",,0,,,,,,5410000
"Slovak Republic","gt49","primary","rural",,,,,,,,5410000
"Slovak Republic","gt49","primary","secondary",,,,,,,,5410000
"Slovak Republic","gt49","primary","stunted",,,,,,,,5410000
"Slovak Republic","gt49","primary","under5",,,,,,,,5410000
"Slovak Republic","gt49","primary","urban",,,,,,,,5410000
"Slovak Republic","gt49","rural","secondary",,,,,,,,5410000
"Slovak Republic","gt49","rural","stunted",,,,,,,,5410000
"Slovak Republic","gt49","rural","under5",,,,,,,,5410000
"Slovak Republic","gt49","rural","urban",,,,,,,,5410000
"Slovak Republic","gt49","secondary","stunted",,,,,,,,5410000
"Slovak Republic","gt49","secondary","under5",,,,,,,,5410000
"Slovak Republic","gt49","secondary","urban",,,,,,,,5410000
"Slovak Republic","gt49","stunted","under5",,,,,,,,5410000
"Slovak Republic","gt49","stunted","urban",,,,,,,,5410000
"Slovak Republic","gt49","under5","urban",,,,,,,,5410000
"Slovak Republic","higher","male","no.birth.reg",,,,,,,,5410000
"Slovak Republic","higher","male","no.educ",,,,,,,,5410000
"Slovak Republic","higher","male","no.skilled.attendant",,,,,,,,5410000
"Slovak Republic","higher","male","non.p20",,,,,,,,5410000
"Slovak Republic","higher","male","p20",,,,,,,,5410000
"Slovak Republic","higher","male","primary",,,,,,,,5410000
"Slovak Republic","higher","male","rural",,,,,,,,5410000
"Slovak Republic","higher","male","secondary",,,,,,,,5410000
"Slovak Republic","higher","male","stunted",,,,,,,,5410000
"Slovak Republic","higher","male","under5",,,,,,,,5410000
"Slovak Republic","higher","male","urban",,,,,,,,5410000
"Slovak Republic","higher","no.birth.reg","no.educ",,,,,,,,5410000
"Slovak Republic","higher","no.birth.reg","no.skilled.attendant",,,,,,,,5410000
"Slovak Republic","higher","no.birth.reg","non.p20",,,,,,,,5410000
"Slovak Republic","higher","no.birth.reg","p20",,,,,,,,5410000
"Slovak Republic","higher","no.birth.reg","primary",,,,,,,,5410000
"Slovak Republic","higher","no.birth.reg","rural",,,,,,,,5410000
"Slovak Republic","higher","no.birth.reg","secondary",,,,,,,,5410000
"Slovak Republic","higher","no.birth.reg","stunted",,,,,,,,5410000
"Slovak Republic","higher","no.birth.reg","under5",,,,,,,,5410000
"Slovak Republic","higher","no.birth.reg","urban",,,,,,,,5410000
"Slovak Republic","higher","no.educ","no.skilled.attendant",,,,,,,,5410000
"Slovak Republic","higher","no.educ","non.p20",,,,,,,,5410000
"Slovak Republic","higher","no.educ","p20",,,,,,,,5410000
"Slovak Republic","higher","no.educ","primary",,,,,,,,5410000
"Slovak Republic","higher","no.educ","rural",,,,,,,,5410000
"Slovak Republic","higher","no.educ","secondary",,,,,,,,5410000
"Slovak Republic","higher","no.educ","stunted",,,,,,,,5410000
"Slovak Republic","higher","no.educ","under5",,,,,,,,5410000
"Slovak Republic","higher","no.educ","urban",,,,,,,,5410000
"Slovak Republic","higher","no.skilled.attendant","non.p20",,,,,,,,5410000
"Slovak Republic","higher","no.skilled.attendant","p20",,,,,,,,5410000
"Slovak Republic","higher","no.skilled.attendant","primary",,,,,,,,5410000
"Slovak Republic","higher","no.skilled.attendant","rural",,,,,,,,5410000
"Slovak Republic","higher","no.skilled.attendant","secondary",,,,,,,,5410000
"Slovak Republic","higher","no.skilled.attendant","stunted",,,,,,,,5410000
"Slovak Republic","higher","no.skilled.attendant","under5",,,,,,,,5410000
"Slovak Republic","higher","no.skilled.attendant","urban",,,,,,,,5410000
"Slovak Republic","higher","non.p20","p20",,,,,0,,0,5410000
"Slovak Republic","higher","non.p20","primary",,,,,,,,5410000
"Slovak Republic","higher","non.p20","rural",,,,,,,,5410000
"Slovak Republic","higher","non.p20","secondary",,,,,,,,5410000
"Slovak Republic","higher","non.p20","stunted",,,,,,,,5410000
"Slovak Republic","higher","non.p20","under5",,,,,,,,5410000
"Slovak Republic","higher","non.p20","urban",,,,,,,,5410000
"Slovak Republic","higher","p20","primary",,,,,,,,5410000
"Slovak Republic","higher","p20","rural",,,,,,,,5410000
"Slovak Republic","higher","p20","secondary",,,,,,,,5410000
"Slovak Republic","higher","p20","stunted",,,,,,,,5410000
"Slovak Republic","higher","p20","under5",,,,,,,,5410000
"Slovak Republic","higher","p20","urban",,,,,,,,5410000
"Slovak Republic","higher","primary","rural",,,,,,,,5410000
"Slovak Republic","higher","primary","secondary",,,,,,,,5410000
"Slovak Republic","higher","primary","stunted",,,,,,,,5410000
"Slovak Republic","higher","primary","under5",,,,,,,,5410000
"Slovak Republic","higher","primary","urban",,,,,,,,5410000
"Slovak Republic","higher","rural","secondary",,,,,,,,5410000
"Slovak Republic","higher","rural","stunted",,,,,,,,5410000
"Slovak Republic","higher","rural","under5",,,,,,,,5410000
"Slovak Republic","higher","rural","urban",,,,,,,,5410000
"Slovak Republic","higher","secondary","stunted",,,,,,,,5410000
"Slovak Republic","higher","secondary","under5",,,,,,,,5410000
"Slovak Republic","higher","secondary","urban",,,,,,,,5410000
"Slovak Republic","higher","stunted","under5",,,,,,,,5410000
"Slovak Republic","higher","stunted","urban",,,,,,,,5410000
"Slovak Republic","higher","under5","urban",,,,,,,,5410000
"Slovak Republic","male","no.birth.reg","no.educ",,,,,,,,5410000
"Slovak Republic","male","no.birth.reg","no.skilled.attendant",,,,,,,,5410000
"Slovak Republic","male","no.birth.reg","non.p20",,,,,,,,5410000
"Slovak Republic","male","no.birth.reg","p20",,,,,,,,5410000
"Slovak Republic","male","no.birth.reg","primary",,,,,,,,5410000
"Slovak Republic","male","no.birth.reg","rural",,,,,,,,5410000
"Slovak Republic","male","no.birth.reg","secondary",,,,,,,,5410000
"Slovak Republic","male","no.birth.reg","stunted",,,,,,,,5410000
"Slovak Republic","male","no.birth.reg","under5",,,,,,,,5410000
"Slovak Republic","male","no.birth.reg","urban",,,,,,,,5410000
"Slovak Republic","male","no.educ","no.skilled.attendant",,,,,,,,5410000
"Slovak Republic","male","no.educ","non.p20",,,,,,,,5410000
"Slovak Republic","male","no.educ","p20",,,,,,,,5410000
"Slovak Republic","male","no.educ","primary",,,,,,,,5410000
"Slovak Republic","male","no.educ","rural",,,,,,,,5410000
"Slovak Republic","male","no.educ","secondary",,,,,,,,5410000
"Slovak Republic","male","no.educ","stunted",,,,,,,,5410000
"Slovak Republic","male","no.educ","under5",,,,,,,,5410000
"Slovak Republic","male","no.educ","urban",,,,,,,,5410000
"Slovak Republic","male","no.skilled.attendant","non.p20",,,,,,,,5410000
"Slovak Republic","male","no.skilled.attendant","p20",,,,,,,,5410000
"Slovak Republic","male","no.skilled.attendant","primary",,,,,,,,5410000
"Slovak Republic","male","no.skilled.attendant","rural",,,,,,,,5410000
"Slovak Republic","male","no.skilled.attendant","secondary",,,,,,,,5410000
"Slovak Republic","male","no.skilled.attendant","stunted",,,,,,,,5410000
"Slovak Republic","male","no.skilled.attendant","under5",,,,,,,,5410000
"Slovak Republic","male","no.skilled.attendant","urban",,,,,,,,5410000
"Slovak Republic","male","non.p20","p20",,100,0,,0,,0,5410000
"Slovak Republic","male","non.p20","primary",,,,,,,,5410000
"Slovak Republic","male","non.p20","rural",,100,,,,,,5410000
"Slovak Republic","male","non.p20","secondary",,,,,,,,5410000
"Slovak Republic","male","non.p20","stunted",,,,,,,,5410000
"Slovak Republic","male","non.p20","under5",,100,,,,,,5410000
"Slovak Republic","male","non.p20","urban",,100,,,,,,5410000
"Slovak Republic","male","p20","primary",,,,,,,,5410000
"Slovak Republic","male","p20","rural",,0,,,,,,5410000
"Slovak Republic","male","p20","secondary",,,,,,,,5410000
"Slovak Republic","male","p20","stunted",,,,,,,,5410000
"Slovak Republic","male","p20","under5",,0,,,,,,5410000
"Slovak Republic","male","p20","urban",,0,,,,,,5410000
"Slovak Republic","male","primary","rural",,,,,,,,5410000
"Slovak Republic","male","primary","secondary",,,,,,,,5410000
"Slovak Republic","male","primary","stunted",,,,,,,,5410000
"Slovak Republic","male","primary","under5",,,,,,,,5410000
"Slovak Republic","male","primary","urban",,,,,,,,5410000
"Slovak Republic","male","rural","secondary",,,,,,,,5410000
"Slovak Republic","male","rural","stunted",,,,,,,,5410000
"Slovak Republic","male","rural","under5",,,,,,,,5410000
"Slovak Republic","male","rural","urban",,,,,,,,5410000
"Slovak Republic","male","secondary","stunted",,,,,,,,5410000
"Slovak Republic","male","secondary","under5",,,,,,,,5410000
"Slovak Republic","male","secondary","urban",,,,,,,,5410000
"Slovak Republic","male","stunted","under5",,,,,,,,5410000
"Slovak Republic","male","stunted","urban",,,,,,,,5410000
"Slovak Republic","male","under5","urban",,,,,,,,5410000
"Slovak Republic","no.birth.reg","no.educ","no.skilled.attendant",,,,,,,,5410000
"Slovak Republic","no.birth.reg","no.educ","non.p20",,,,,,,,5410000
"Slovak Republic","no.birth.reg","no.educ","p20",,,,,,,,5410000
"Slovak Republic","no.birth.reg","no.educ","primary",,,,,,,,5410000
"Slovak Republic","no.birth.reg","no.educ","rural",,,,,,,,5410000
"Slovak Republic","no.birth.reg","no.educ","secondary",,,,,,,,5410000
"Slovak Republic","no.birth.reg","no.educ","stunted",,,,,,,,5410000
"Slovak Republic","no.birth.reg","no.educ","under5",,,,,,,,5410000
"Slovak Republic","no.birth.reg","no.educ","urban",,,,,,,,5410000
"Slovak Republic","no.birth.reg","no.skilled.attendant","non.p20",,,,,,,,5410000
"Slovak Republic","no.birth.reg","no.skilled.attendant","p20",,,,,,,,5410000
"Slovak Republic","no.birth.reg","no.skilled.attendant","primary",,,,,,,,5410000
"Slovak Republic","no.birth.reg","no.skilled.attendant","rural",,,,,,,,5410000
"Slovak Republic","no.birth.reg","no.skilled.attendant","secondary",,,,,,,,5410000
"Slovak Republic","no.birth.reg","no.skilled.attendant","stunted",,,,,,,,5410000
"Slovak Republic","no.birth.reg","no.skilled.attendant","under5",,,,,,,,5410000
"Slovak Republic","no.birth.reg","no.skilled.attendant","urban",,,,,,,,5410000
"Slovak Republic","no.birth.reg","non.p20","p20",,,,,0,,0,5410000
"Slovak Republic","no.birth.reg","non.p20","primary",,,,,,,,5410000
"Slovak Republic","no.birth.reg","non.p20","rural",,,,,,,,5410000
"Slovak Republic","no.birth.reg","non.p20","secondary",,,,,,,,5410000
"Slovak Republic","no.birth.reg","non.p20","stunted",,,,,,,,5410000
"Slovak Republic","no.birth.reg","non.p20","under5",,,,,,,,5410000
"Slovak Republic","no.birth.reg","non.p20","urban",,,,,,,,5410000
"Slovak Republic","no.birth.reg","p20","primary",,,,,,,,5410000
"Slovak Republic","no.birth.reg","p20","rural",,,,,,,,5410000
"Slovak Republic","no.birth.reg","p20","secondary",,,,,,,,5410000
"Slovak Republic","no.birth.reg","p20","stunted",,,,,,,,5410000
"Slovak Republic","no.birth.reg","p20","under5",,,,,,,,5410000
"Slovak Republic","no.birth.reg","p20","urban",,,,,,,,5410000
"Slovak Republic","no.birth.reg","primary","rural",,,,,,,,5410000
"Slovak Republic","no.birth.reg","primary","secondary",,,,,,,,5410000
"Slovak Republic","no.birth.reg","primary","stunted",,,,,,,,5410000
"Slovak Republic","no.birth.reg","primary","under5",,,,,,,,5410000
"Slovak Republic","no.birth.reg","primary","urban",,,,,,,,5410000
"Slovak Republic","no.birth.reg","rural","secondary",,,,,,,,5410000
"Slovak Republic","no.birth.reg","rural","stunted",,,,,,,,5410000
"Slovak Republic","no.birth.reg","rural","under5",,,,,,,,5410000
"Slovak Republic","no.birth.reg","rural","urban",,,,,,,,5410000
"Slovak Republic","no.birth.reg","secondary","stunted",,,,,,,,5410000
"Slovak Republic","no.birth.reg","secondary","under5",,,,,,,,5410000
"Slovak Republic","no.birth.reg","secondary","urban",,,,,,,,5410000
"Slovak Republic","no.birth.reg","stunted","under5",,,,,,,,5410000
"Slovak Republic","no.birth.reg","stunted","urban",,,,,,,,5410000
"Slovak Republic","no.birth.reg","under5","urban",,,,,,,,5410000
"Slovak Republic","no.educ","no.skilled.attendant","non.p20",,,,,,,,5410000
"Slovak Republic","no.educ","no.skilled.attendant","p20",,,,,,,,5410000
"Slovak Republic","no.educ","no.skilled.attendant","primary",,,,,,,,5410000
"Slovak Republic","no.educ","no.skilled.attendant","rural",,,,,,,,5410000
"Slovak Republic","no.educ","no.skilled.attendant","secondary",,,,,,,,5410000
"Slovak Republic","no.educ","no.skilled.attendant","stunted",,,,,,,,5410000
"Slovak Republic","no.educ","no.skilled.attendant","under5",,,,,,,,5410000
"Slovak Republic","no.educ","no.skilled.attendant","urban",,,,,,,,5410000
"Slovak Republic","no.educ","non.p20","p20",,,,,0,,0,5410000
"Slovak Republic","no.educ","non.p20","primary",,,,,,,,5410000
"Slovak Republic","no.educ","non.p20","rural",,,,,,,,5410000
"Slovak Republic","no.educ","non.p20","secondary",,,,,,,,5410000
"Slovak Republic","no.educ","non.p20","stunted",,,,,,,,5410000
"Slovak Republic","no.educ","non.p20","under5",,,,,,,,5410000
"Slovak Republic","no.educ","non.p20","urban",,,,,,,,5410000
"Slovak Republic","no.educ","p20","primary",,,,,,,,5410000
"Slovak Republic","no.educ","p20","rural",,,,,,,,5410000
"Slovak Republic","no.educ","p20","secondary",,,,,,,,5410000
"Slovak Republic","no.educ","p20","stunted",,,,,,,,5410000
"Slovak Republic","no.educ","p20","under5",,,,,,,,5410000
"Slovak Republic","no.educ","p20","urban",,,,,,,,5410000
"Slovak Republic","no.educ","primary","rural",,,,,,,,5410000
"Slovak Republic","no.educ","primary","secondary",,,,,,,,5410000
"Slovak Republic","no.educ","primary","stunted",,,,,,,,5410000
"Slovak Republic","no.educ","primary","under5",,,,,,,,5410000
"Slovak Republic","no.educ","primary","urban",,,,,,,,5410000
"Slovak Republic","no.educ","rural","secondary",,,,,,,,5410000
"Slovak Republic","no.educ","rural","stunted",,,,,,,,5410000
"Slovak Republic","no.educ","rural","under5",,,,,,,,5410000
"Slovak Republic","no.educ","rural","urban",,,,,,,,5410000
"Slovak Republic","no.educ","secondary","stunted",,,,,,,,5410000
"Slovak Republic","no.educ","secondary","under5",,,,,,,,5410000
"Slovak Republic","no.educ","secondary","urban",,,,,,,,5410000
"Slovak Republic","no.educ","stunted","under5",,,,,,,,5410000
"Slovak Republic","no.educ","stunted","urban",,,,,,,,5410000
"Slovak Republic","no.educ","under5","urban",,,,,,,,5410000
"Slovak Republic","no.skilled.attendant","non.p20","p20",,,,,0,,0,5410000
"Slovak Republic","no.skilled.attendant","non.p20","primary",,,,,,,,5410000
"Slovak Republic","no.skilled.attendant","non.p20","rural",,,,,,,,5410000
"Slovak Republic","no.skilled.attendant","non.p20","secondary",,,,,,,,5410000
"Slovak Republic","no.skilled.attendant","non.p20","stunted",,,,,,,,5410000
"Slovak Republic","no.skilled.attendant","non.p20","under5",,,,,,,,5410000
"Slovak Republic","no.skilled.attendant","non.p20","urban",,,,,,,,5410000
"Slovak Republic","no.skilled.attendant","p20","primary",,,,,,,,5410000
"Slovak Republic","no.skilled.attendant","p20","rural",,,,,,,,5410000
"Slovak Republic","no.skilled.attendant","p20","secondary",,,,,,,,5410000
"Slovak Republic","no.skilled.attendant","p20","stunted",,,,,,,,5410000
"Slovak Republic","no.skilled.attendant","p20","under5",,,,,,,,5410000
"Slovak Republic","no.skilled.attendant","p20","urban",,,,,,,,5410000
"Slovak Republic","no.skilled.attendant","primary","rural",,,,,,,,5410000
"Slovak Republic","no.skilled.attendant","primary","secondary",,,,,,,,5410000
"Slovak Republic","no.skilled.attendant","primary","stunted",,,,,,,,5410000
"Slovak Republic","no.skilled.attendant","primary","under5",,,,,,,,5410000
"Slovak Republic","no.skilled.attendant","primary","urban",,,,,,,,5410000
"Slovak Republic","no.skilled.attendant","rural","secondary",,,,,,,,5410000
"Slovak Republic","no.skilled.attendant","rural","stunted",,,,,,,,5410000
"Slovak Republic","no.skilled.attendant","rural","under5",,,,,,,,5410000
"Slovak Republic","no.skilled.attendant","rural","urban",,,,,,,,5410000
"Slovak Republic","no.skilled.attendant","secondary","stunted",,,,,,,,5410000
"Slovak Republic","no.skilled.attendant","secondary","under5",,,,,,,,5410000
"Slovak Republic","no.skilled.attendant","secondary","urban",,,,,,,,5410000
"Slovak Republic","no.skilled.attendant","stunted","under5",,,,,,,,5410000
"Slovak Republic","no.skilled.attendant","stunted","urban",,,,,,,,5410000
"Slovak Republic","no.skilled.attendant","under5","urban",,,,,,,,5410000
"Slovak Republic","non.p20","p20","primary",,,,0,,,0,5410000
"Slovak Republic","non.p20","p20","rural",100,0,,0,,,0,5410000
"Slovak Republic","non.p20","p20","secondary",,,,0,,,0,5410000
"Slovak Republic","non.p20","p20","stunted",,,,0,,,0,5410000
"Slovak Republic","non.p20","p20","under5",100,0,,0,,,0,5410000
"Slovak Republic","non.p20","p20","urban",100,0,,0,,,0,5410000
"Slovak Republic","non.p20","primary","rural",,,,,,,,5410000
"Slovak Republic","non.p20","primary","secondary",,,,,,,,5410000
"Slovak Republic","non.p20","primary","stunted",,,,,,,,5410000
"Slovak Republic","non.p20","primary","under5",,,,,,,,5410000
"Slovak Republic","non.p20","primary","urban",,,,,,,,5410000
"Slovak Republic","non.p20","rural","secondary",,,,,,,,5410000
"Slovak Republic","non.p20","rural","stunted",,,,,,,,5410000
"Slovak Republic","non.p20","rural","under5",100,,,,,,,5410000
"Slovak Republic","non.p20","rural","urban",100,,,,,,,5410000
"Slovak Republic","non.p20","secondary","stunted",,,,,,,,5410000
"Slovak Republic","non.p20","secondary","under5",,,,,,,,5410000
"Slovak Republic","non.p20","secondary","urban",,,,,,,,5410000
"Slovak Republic","non.p20","stunted","under5",,,,,,,,5410000
"Slovak Republic","non.p20","stunted","urban",,,,,,,,5410000
"Slovak Republic","non.p20","under5","urban",100,,,,,,,5410000
"Slovak Republic","p20","primary","rural",,,,,,,,5410000
"Slovak Republic","p20","primary","secondary",,,,,,,,5410000
"Slovak Republic","p20","primary","stunted",,,,,,,,5410000
"Slovak Republic","p20","primary","under5",,,,,,,,5410000
"Slovak Republic","p20","primary","urban",,,,,,,,5410000
"Slovak Republic","p20","rural","secondary",,,,,,,,5410000
"Slovak Republic","p20","rural","stunted",,,,,,,,5410000
"Slovak Republic","p20","rural","under5",0,,,,,,,5410000
"Slovak Republic","p20","rural","urban",0,,,,,,,5410000
"Slovak Republic","p20","secondary","stunted",,,,,,,,5410000
"Slovak Republic","p20","secondary","under5",,,,,,,,5410000
"Slovak Republic","p20","secondary","urban",,,,,,,,5410000
"Slovak Republic","p20","stunted","under5",,,,,,,,5410000
"Slovak Republic","p20","stunted","urban",,,,,,,,5410000
"Slovak Republic","p20","under5","urban",0,,,,,,,5410000
"Slovak Republic","primary","rural","secondary",,,,,,,,5410000
"Slovak Republic","primary","rural","stunted",,,,,,,,5410000
"Slovak Republic","primary","rural","under5",,,,,,,,5410000
"Slovak Republic","primary","rural","urban",,,,,,,,5410000
"Slovak Republic","primary","secondary","stunted",,,,,,,,5410000
"Slovak Republic","primary","secondary","under5",,,,,,,,5410000
"Slovak Republic","primary","secondary","urban",,,,,,,,5410000
"Slovak Republic","primary","stunted","under5",,,,,,,,5410000
"Slovak Republic","primary","stunted","urban",,,,,,,,5410000
"Slovak Republic","primary","under5","urban",,,,,,,,5410000
"Slovak Republic","rural","secondary","stunted",,,,,,,,5410000
"Slovak Republic","rural","secondary","under5",,,,,,,,5410000
"Slovak Republic","rural","secondary","urban",,,,,,,,5410000
"Slovak Republic","rural","stunted","under5",,,,,,,,5410000
"Slovak Republic","rural","stunted","urban",,,,,,,,5410000
"Slovak Republic","rural","under5","urban",,,,,,,,5410000
"Slovak Republic","secondary","stunted","under5",,,,,,,,5410000
"Slovak Republic","secondary","stunted","urban",,,,,,,,5410000
"Slovak Republic","secondary","under5","urban",,,,,,,,5410000
"Slovak Republic","stunted","under5","urban",,,,,,,,5410000
