"filename","indicator1","indicator2","indicator3","X","Y","Z","X,Y","Y,Z","X,Z","X,Y,Z","pop"
"slhr61dt","blank1","blank2","ext",100,100,32,100,32,32,32,6923000
"slhr61dt","blank1","blank2","female",100,100,52,100,52,52,52,6923000
"slhr61dt","blank1","blank2","fifteento49",100,100,43,100,43,43,43,6923000
"slhr61dt","blank1","blank2","fiveto14",100,100,29,100,29,29,29,6923000
"slhr61dt","blank1","blank2","gt49",100,100,12,100,12,12,12,6923000
"slhr61dt","blank1","blank2","higher",100,100,5,100,5,5,5,2544000
"slhr61dt","blank1","blank2","male",100,100,48,100,48,48,48,6923000
"slhr61dt","blank1","blank2","no.birth.reg",100,100,23,100,23,23,23,1123000
"slhr61dt","blank1","blank2","no.educ",100,100,77,100,77,77,77,2544000
"slhr61dt","blank1","blank2","no.skilled.attendant",100,100,36,100,36,36,36,1675000
"slhr61dt","blank1","blank2","non.p20",100,100,47,100,47,47,47,6923000
"slhr61dt","blank1","blank2","p20",100,100,53,100,53,53,53,6923000
"slhr61dt","blank1","blank2","primary",100,100,23,100,23,23,23,2544000
"slhr61dt","blank1","blank2","rural",100,100,69,100,69,69,69,6923000
"slhr61dt","blank1","blank2","secondary",100,100,9,100,9,9,9,2544000
"slhr61dt","blank1","blank2","stunted",100,100,39,100,39,39,39,1123000
"slhr61dt","blank1","blank2","under5",100,100,16,100,16,16,16,6923000
"slhr61dt","blank1","blank2","urban",100,100,31,100,31,31,31,6923000
"slhr61dt","blank1","ext","female",100,32,52,32,16,52,16,6923000
"slhr61dt","blank1","ext","fifteento49",100,32,43,32,12,43,12,6923000
"slhr61dt","blank1","ext","fiveto14",100,32,29,32,9,29,9,6923000
"slhr61dt","blank1","ext","gt49",100,32,12,32,4,12,4,6923000
"slhr61dt","blank1","ext","higher",100,32,5,32,0,5,0,2544000
"slhr61dt","blank1","ext","male",100,32,48,32,15,48,15,6923000
"slhr61dt","blank1","ext","no.birth.reg",100,37,23,37,9,23,9,1123000
"slhr61dt","blank1","ext","no.educ",100,32,77,32,29,77,29,2544000
"slhr61dt","blank1","ext","no.skilled.attendant",100,35,36,35,16,36,16,1675000
"slhr61dt","blank1","ext","non.p20",100,32,47,32,0,47,0,6923000
"slhr61dt","blank1","ext","p20",100,32,53,32,32,53,32,6923000
"slhr61dt","blank1","ext","primary",100,32,23,32,3,23,3,2544000
"slhr61dt","blank1","ext","rural",100,32,69,32,30,69,30,6923000
"slhr61dt","blank1","ext","secondary",100,32,9,32,0,9,0,2544000
"slhr61dt","blank1","ext","stunted",100,37,39,37,8,39,8,1123000
"slhr61dt","blank1","ext","under5",100,32,16,32,6,16,6,6923000
"slhr61dt","blank1","ext","urban",100,32,31,32,1,31,1,6923000
"slhr61dt","blank1","female","fifteento49",100,52,43,52,23,43,23,6923000
"slhr61dt","blank1","female","fiveto14",100,52,29,52,14,29,14,6923000
"slhr61dt","blank1","female","gt49",100,52,12,52,6,12,6,6923000
"slhr61dt","blank1","female","higher",100,54,5,54,2,5,2,2544000
"slhr61dt","blank1","female","male",100,52,48,52,0,48,0,6923000
"slhr61dt","blank1","female","no.birth.reg",100,51,23,51,12,23,12,1123000
"slhr61dt","blank1","female","no.educ",100,54,77,54,45,77,45,2544000
"slhr61dt","blank1","female","no.skilled.attendant",100,100,36,100,36,36,36,1675000
"slhr61dt","blank1","female","non.p20",100,52,47,52,24,47,24,6923000
"slhr61dt","blank1","female","p20",100,52,53,52,27,53,27,6923000
"slhr61dt","blank1","female","primary",100,54,23,54,8,23,8,2544000
"slhr61dt","blank1","female","rural",100,52,69,52,36,69,36,6923000
"slhr61dt","blank1","female","secondary",100,54,9,54,2,9,2,2544000
"slhr61dt","blank1","female","stunted",100,51,39,51,11,39,11,1123000
"slhr61dt","blank1","female","under5",100,52,16,52,8,16,8,6923000
"slhr61dt","blank1","female","urban",100,52,31,52,16,31,16,6923000
"slhr61dt","blank1","fifteento49","fiveto14",100,43,29,43,0,29,0,6923000
"slhr61dt","blank1","fifteento49","gt49",100,43,12,43,0,12,0,6923000
"slhr61dt","blank1","fifteento49","higher",100,68,5,68,4,5,4,2544000
"slhr61dt","blank1","fifteento49","male",100,43,48,43,19,48,19,6923000
"slhr61dt","blank1","fifteento49","no.birth.reg",100,0,23,0,0,23,0,1123000
"slhr61dt","blank1","fifteento49","no.educ",100,68,77,68,49,77,49,2544000
"slhr61dt","blank1","fifteento49","no.skilled.attendant",100,100,36,100,36,36,36,1675000
"slhr61dt","blank1","fifteento49","non.p20",100,43,47,43,22,47,22,6923000
"slhr61dt","blank1","fifteento49","p20",100,43,53,43,21,53,21,6923000
"slhr61dt","blank1","fifteento49","primary",100,68,23,68,19,23,19,2544000
"slhr61dt","blank1","fifteento49","rural",100,43,69,43,27,69,27,6923000
"slhr61dt","blank1","fifteento49","secondary",100,68,9,68,7,9,7,2544000
"slhr61dt","blank1","fifteento49","stunted",100,0,39,0,0,39,0,1123000
"slhr61dt","blank1","fifteento49","under5",100,43,16,43,0,16,0,6923000
"slhr61dt","blank1","fifteento49","urban",100,43,31,43,16,31,16,6923000
"slhr61dt","blank1","fiveto14","gt49",100,29,12,29,0,12,0,6923000
"slhr61dt","blank1","fiveto14","higher",100,0,5,0,0,5,0,2544000
"slhr61dt","blank1","fiveto14","male",100,29,48,29,15,48,15,6923000
"slhr61dt","blank1","fiveto14","no.birth.reg",100,0,23,0,0,23,0,1123000
"slhr61dt","blank1","fiveto14","no.educ",100,0,77,0,0,77,0,2544000
"slhr61dt","blank1","fiveto14","no.skilled.attendant",100,0,36,0,0,36,0,1675000
"slhr61dt","blank1","fiveto14","non.p20",100,29,47,29,13,47,13,6923000
"slhr61dt","blank1","fiveto14","p20",100,29,53,29,16,53,16,6923000
"slhr61dt","blank1","fiveto14","primary",100,0,23,0,0,23,0,2544000
"slhr61dt","blank1","fiveto14","rural",100,29,69,29,21,69,21,6923000
"slhr61dt","blank1","fiveto14","secondary",100,0,9,0,0,9,0,2544000
"slhr61dt","blank1","fiveto14","stunted",100,0,39,0,0,39,0,1123000
"slhr61dt","blank1","fiveto14","under5",100,29,16,29,0,16,0,6923000
"slhr61dt","blank1","fiveto14","urban",100,29,31,29,8,31,8,6923000
"slhr61dt","blank1","gt49","higher",100,32,5,32,1,5,1,2544000
"slhr61dt","blank1","gt49","male",100,12,48,12,6,48,6,6923000
"slhr61dt","blank1","gt49","no.birth.reg",100,0,23,0,0,23,0,1123000
"slhr61dt","blank1","gt49","no.educ",100,32,77,32,27,77,27,2544000
"slhr61dt","blank1","gt49","no.skilled.attendant",100,0,36,0,0,36,0,1675000
"slhr61dt","blank1","gt49","non.p20",100,12,47,12,5,47,5,6923000
"slhr61dt","blank1","gt49","p20",100,12,53,12,7,53,7,6923000
"slhr61dt","blank1","gt49","primary",100,32,23,32,4,23,4,2544000
"slhr61dt","blank1","gt49","rural",100,12,69,12,9,69,9,6923000
"slhr61dt","blank1","gt49","secondary",100,32,9,32,2,9,2,2544000
"slhr61dt","blank1","gt49","stunted",100,0,39,0,0,39,0,1123000
"slhr61dt","blank1","gt49","under5",100,12,16,12,0,16,0,6923000
"slhr61dt","blank1","gt49","urban",100,12,31,12,3,31,3,6923000
"slhr61dt","blank1","higher","male",100,5,46,5,3,46,3,2544000
"slhr61dt","blank1","higher","no.birth.reg",,,,,,,,2544000
"slhr61dt","blank1","higher","no.educ",100,5,77,5,0,77,0,2544000
"slhr61dt","blank1","higher","no.skilled.attendant",100,1,38,1,0,38,0,977000
"slhr61dt","blank1","higher","non.p20",100,5,46,5,4,46,4,2544000
"slhr61dt","blank1","higher","p20",100,5,54,5,0,54,0,2544000
"slhr61dt","blank1","higher","primary",100,5,23,5,5,23,5,2544000
"slhr61dt","blank1","higher","rural",100,5,69,5,1,69,1,2544000
"slhr61dt","blank1","higher","secondary",100,5,9,5,5,9,5,2544000
"slhr61dt","blank1","higher","stunted",,,,,,,,2544000
"slhr61dt","blank1","higher","under5",100,5,0,5,0,0,0,2544000
"slhr61dt","blank1","higher","urban",100,5,31,5,4,31,4,2544000
"slhr61dt","blank1","male","no.birth.reg",100,49,23,49,12,23,12,1123000
"slhr61dt","blank1","male","no.educ",100,46,77,46,31,77,31,2544000
"slhr61dt","blank1","male","no.skilled.attendant",100,0,36,0,0,36,0,1675000
"slhr61dt","blank1","male","non.p20",100,48,47,48,22,47,22,6923000
"slhr61dt","blank1","male","p20",100,48,53,48,26,53,26,6923000
"slhr61dt","blank1","male","primary",100,46,23,46,15,23,15,2544000
"slhr61dt","blank1","male","rural",100,48,69,48,33,69,33,6923000
"slhr61dt","blank1","male","secondary",100,46,9,46,6,9,6,2544000
"slhr61dt","blank1","male","stunted",100,49,39,49,11,39,11,1123000
"slhr61dt","blank1","male","under5",100,48,16,48,8,16,8,6923000
"slhr61dt","blank1","male","urban",100,48,31,48,15,31,15,6923000
"slhr61dt","blank1","no.birth.reg","no.educ",,,,,,,,2544000
"slhr61dt","blank1","no.birth.reg","no.skilled.attendant",,,,,,,,1123000
"slhr61dt","blank1","no.birth.reg","non.p20",100,23,40,23,8,40,8,1123000
"slhr61dt","blank1","no.birth.reg","p20",100,23,60,23,15,60,15,1123000
"slhr61dt","blank1","no.birth.reg","primary",,,,,,,,2544000
"slhr61dt","blank1","no.birth.reg","rural",100,23,75,23,18,75,18,1123000
"slhr61dt","blank1","no.birth.reg","secondary",,,,,,,,2544000
"slhr61dt","blank1","no.birth.reg","stunted",100,23,39,23,5,39,5,1123000
"slhr61dt","blank1","no.birth.reg","under5",100,23,100,23,23,100,23,1123000
"slhr61dt","blank1","no.birth.reg","urban",100,23,25,23,5,25,5,1123000
"slhr61dt","blank1","no.educ","no.skilled.attendant",100,85,38,85,35,38,35,977000
"slhr61dt","blank1","no.educ","non.p20",100,77,46,77,28,46,28,2544000
"slhr61dt","blank1","no.educ","p20",100,77,54,77,48,54,48,2544000
"slhr61dt","blank1","no.educ","primary",100,77,23,77,0,23,0,2544000
"slhr61dt","blank1","no.educ","rural",100,77,69,77,60,69,60,2544000
"slhr61dt","blank1","no.educ","secondary",100,77,9,77,0,9,0,2544000
"slhr61dt","blank1","no.educ","stunted",,,,,,,,2544000
"slhr61dt","blank1","no.educ","under5",100,77,0,77,0,0,0,2544000
"slhr61dt","blank1","no.educ","urban",100,77,31,77,16,31,16,2544000
"slhr61dt","blank1","no.skilled.attendant","non.p20",100,36,43,36,11,43,11,1675000
"slhr61dt","blank1","no.skilled.attendant","p20",100,36,57,36,25,57,25,1675000
"slhr61dt","blank1","no.skilled.attendant","primary",100,38,15,38,3,15,3,977000
"slhr61dt","blank1","no.skilled.attendant","rural",100,36,73,36,31,73,31,1675000
"slhr61dt","blank1","no.skilled.attendant","secondary",100,38,3,38,0,3,0,977000
"slhr61dt","blank1","no.skilled.attendant","stunted",,,,,,,,1123000
"slhr61dt","blank1","no.skilled.attendant","under5",100,36,0,36,0,0,0,1675000
"slhr61dt","blank1","no.skilled.attendant","urban",100,36,27,36,5,27,5,1675000
"slhr61dt","blank1","non.p20","p20",100,47,53,47,0,53,0,6923000
"slhr61dt","blank1","non.p20","primary",100,46,23,46,18,23,18,2544000
"slhr61dt","blank1","non.p20","rural",100,47,69,47,18,69,18,6923000
"slhr61dt","blank1","non.p20","secondary",100,46,9,46,8,9,8,2544000
"slhr61dt","blank1","non.p20","stunted",100,40,39,40,7,39,7,1123000
"slhr61dt","blank1","non.p20","under5",100,47,16,47,7,16,7,6923000
"slhr61dt","blank1","non.p20","urban",100,47,31,47,29,31,29,6923000
"slhr61dt","blank1","p20","primary",100,54,23,54,6,23,6,2544000
"slhr61dt","blank1","p20","rural",100,53,69,53,51,69,51,6923000
"slhr61dt","blank1","p20","secondary",100,54,9,54,1,9,1,2544000
"slhr61dt","blank1","p20","stunted",100,60,39,60,16,39,16,1123000
"slhr61dt","blank1","p20","under5",100,53,16,53,10,16,10,6923000
"slhr61dt","blank1","p20","urban",100,53,31,53,2,31,2,6923000
"slhr61dt","blank1","primary","rural",100,23,69,23,9,69,9,2544000
"slhr61dt","blank1","primary","secondary",100,23,9,23,9,9,9,2544000
"slhr61dt","blank1","primary","stunted",,,,,,,,2544000
"slhr61dt","blank1","primary","under5",100,23,0,23,0,0,0,2544000
"slhr61dt","blank1","primary","urban",100,23,31,23,15,31,15,2544000
"slhr61dt","blank1","rural","secondary",100,69,9,69,2,9,2,2544000
"slhr61dt","blank1","rural","stunted",100,75,39,75,23,39,23,1123000
"slhr61dt","blank1","rural","under5",100,69,16,69,12,16,12,6923000
"slhr61dt","blank1","rural","urban",100,69,31,69,0,31,0,6923000
"slhr61dt","blank1","secondary","stunted",,,,,,,,2544000
"slhr61dt","blank1","secondary","under5",100,9,0,9,0,0,0,2544000
"slhr61dt","blank1","secondary","urban",100,9,31,9,7,31,7,2544000
"slhr61dt","blank1","stunted","under5",100,39,100,39,39,100,39,1123000
"slhr61dt","blank1","stunted","urban",100,39,25,39,3,25,3,1123000
"slhr61dt","blank1","under5","urban",100,16,31,16,4,31,4,6923000
"slhr61dt","blank2","ext","female",100,32,52,32,16,52,16,6923000
"slhr61dt","blank2","ext","fifteento49",100,32,43,32,12,43,12,6923000
"slhr61dt","blank2","ext","fiveto14",100,32,29,32,9,29,9,6923000
"slhr61dt","blank2","ext","gt49",100,32,12,32,4,12,4,6923000
"slhr61dt","blank2","ext","higher",100,32,5,32,0,5,0,2544000
"slhr61dt","blank2","ext","male",100,32,48,32,15,48,15,6923000
"slhr61dt","blank2","ext","no.birth.reg",100,37,23,37,9,23,9,1123000
"slhr61dt","blank2","ext","no.educ",100,32,77,32,29,77,29,2544000
"slhr61dt","blank2","ext","no.skilled.attendant",100,35,36,35,16,36,16,1675000
"slhr61dt","blank2","ext","non.p20",100,32,47,32,0,47,0,6923000
"slhr61dt","blank2","ext","p20",100,32,53,32,32,53,32,6923000
"slhr61dt","blank2","ext","primary",100,32,23,32,3,23,3,2544000
"slhr61dt","blank2","ext","rural",100,32,69,32,30,69,30,6923000
"slhr61dt","blank2","ext","secondary",100,32,9,32,0,9,0,2544000
"slhr61dt","blank2","ext","stunted",100,37,39,37,8,39,8,1123000
"slhr61dt","blank2","ext","under5",100,32,16,32,6,16,6,6923000
"slhr61dt","blank2","ext","urban",100,32,31,32,1,31,1,6923000
"slhr61dt","blank2","female","fifteento49",100,52,43,52,23,43,23,6923000
"slhr61dt","blank2","female","fiveto14",100,52,29,52,14,29,14,6923000
"slhr61dt","blank2","female","gt49",100,52,12,52,6,12,6,6923000
"slhr61dt","blank2","female","higher",100,54,5,54,2,5,2,2544000
"slhr61dt","blank2","female","male",100,52,48,52,0,48,0,6923000
"slhr61dt","blank2","female","no.birth.reg",100,51,23,51,12,23,12,1123000
"slhr61dt","blank2","female","no.educ",100,54,77,54,45,77,45,2544000
"slhr61dt","blank2","female","no.skilled.attendant",100,100,36,100,36,36,36,1675000
"slhr61dt","blank2","female","non.p20",100,52,47,52,24,47,24,6923000
"slhr61dt","blank2","female","p20",100,52,53,52,27,53,27,6923000
"slhr61dt","blank2","female","primary",100,54,23,54,8,23,8,2544000
"slhr61dt","blank2","female","rural",100,52,69,52,36,69,36,6923000
"slhr61dt","blank2","female","secondary",100,54,9,54,2,9,2,2544000
"slhr61dt","blank2","female","stunted",100,51,39,51,11,39,11,1123000
"slhr61dt","blank2","female","under5",100,52,16,52,8,16,8,6923000
"slhr61dt","blank2","female","urban",100,52,31,52,16,31,16,6923000
"slhr61dt","blank2","fifteento49","fiveto14",100,43,29,43,0,29,0,6923000
"slhr61dt","blank2","fifteento49","gt49",100,43,12,43,0,12,0,6923000
"slhr61dt","blank2","fifteento49","higher",100,68,5,68,4,5,4,2544000
"slhr61dt","blank2","fifteento49","male",100,43,48,43,19,48,19,6923000
"slhr61dt","blank2","fifteento49","no.birth.reg",100,0,23,0,0,23,0,1123000
"slhr61dt","blank2","fifteento49","no.educ",100,68,77,68,49,77,49,2544000
"slhr61dt","blank2","fifteento49","no.skilled.attendant",100,100,36,100,36,36,36,1675000
"slhr61dt","blank2","fifteento49","non.p20",100,43,47,43,22,47,22,6923000
"slhr61dt","blank2","fifteento49","p20",100,43,53,43,21,53,21,6923000
"slhr61dt","blank2","fifteento49","primary",100,68,23,68,19,23,19,2544000
"slhr61dt","blank2","fifteento49","rural",100,43,69,43,27,69,27,6923000
"slhr61dt","blank2","fifteento49","secondary",100,68,9,68,7,9,7,2544000
"slhr61dt","blank2","fifteento49","stunted",100,0,39,0,0,39,0,1123000
"slhr61dt","blank2","fifteento49","under5",100,43,16,43,0,16,0,6923000
"slhr61dt","blank2","fifteento49","urban",100,43,31,43,16,31,16,6923000
"slhr61dt","blank2","fiveto14","gt49",100,29,12,29,0,12,0,6923000
"slhr61dt","blank2","fiveto14","higher",100,0,5,0,0,5,0,2544000
"slhr61dt","blank2","fiveto14","male",100,29,48,29,15,48,15,6923000
"slhr61dt","blank2","fiveto14","no.birth.reg",100,0,23,0,0,23,0,1123000
"slhr61dt","blank2","fiveto14","no.educ",100,0,77,0,0,77,0,2544000
"slhr61dt","blank2","fiveto14","no.skilled.attendant",100,0,36,0,0,36,0,1675000
"slhr61dt","blank2","fiveto14","non.p20",100,29,47,29,13,47,13,6923000
"slhr61dt","blank2","fiveto14","p20",100,29,53,29,16,53,16,6923000
"slhr61dt","blank2","fiveto14","primary",100,0,23,0,0,23,0,2544000
"slhr61dt","blank2","fiveto14","rural",100,29,69,29,21,69,21,6923000
"slhr61dt","blank2","fiveto14","secondary",100,0,9,0,0,9,0,2544000
"slhr61dt","blank2","fiveto14","stunted",100,0,39,0,0,39,0,1123000
"slhr61dt","blank2","fiveto14","under5",100,29,16,29,0,16,0,6923000
"slhr61dt","blank2","fiveto14","urban",100,29,31,29,8,31,8,6923000
"slhr61dt","blank2","gt49","higher",100,32,5,32,1,5,1,2544000
"slhr61dt","blank2","gt49","male",100,12,48,12,6,48,6,6923000
"slhr61dt","blank2","gt49","no.birth.reg",100,0,23,0,0,23,0,1123000
"slhr61dt","blank2","gt49","no.educ",100,32,77,32,27,77,27,2544000
"slhr61dt","blank2","gt49","no.skilled.attendant",100,0,36,0,0,36,0,1675000
"slhr61dt","blank2","gt49","non.p20",100,12,47,12,5,47,5,6923000
"slhr61dt","blank2","gt49","p20",100,12,53,12,7,53,7,6923000
"slhr61dt","blank2","gt49","primary",100,32,23,32,4,23,4,2544000
"slhr61dt","blank2","gt49","rural",100,12,69,12,9,69,9,6923000
"slhr61dt","blank2","gt49","secondary",100,32,9,32,2,9,2,2544000
"slhr61dt","blank2","gt49","stunted",100,0,39,0,0,39,0,1123000
"slhr61dt","blank2","gt49","under5",100,12,16,12,0,16,0,6923000
"slhr61dt","blank2","gt49","urban",100,12,31,12,3,31,3,6923000
"slhr61dt","blank2","higher","male",100,5,46,5,3,46,3,2544000
"slhr61dt","blank2","higher","no.birth.reg",,,,,,,,2544000
"slhr61dt","blank2","higher","no.educ",100,5,77,5,0,77,0,2544000
"slhr61dt","blank2","higher","no.skilled.attendant",100,1,38,1,0,38,0,977000
"slhr61dt","blank2","higher","non.p20",100,5,46,5,4,46,4,2544000
"slhr61dt","blank2","higher","p20",100,5,54,5,0,54,0,2544000
"slhr61dt","blank2","higher","primary",100,5,23,5,5,23,5,2544000
"slhr61dt","blank2","higher","rural",100,5,69,5,1,69,1,2544000
"slhr61dt","blank2","higher","secondary",100,5,9,5,5,9,5,2544000
"slhr61dt","blank2","higher","stunted",,,,,,,,2544000
"slhr61dt","blank2","higher","under5",100,5,0,5,0,0,0,2544000
"slhr61dt","blank2","higher","urban",100,5,31,5,4,31,4,2544000
"slhr61dt","blank2","male","no.birth.reg",100,49,23,49,12,23,12,1123000
"slhr61dt","blank2","male","no.educ",100,46,77,46,31,77,31,2544000
"slhr61dt","blank2","male","no.skilled.attendant",100,0,36,0,0,36,0,1675000
"slhr61dt","blank2","male","non.p20",100,48,47,48,22,47,22,6923000
"slhr61dt","blank2","male","p20",100,48,53,48,26,53,26,6923000
"slhr61dt","blank2","male","primary",100,46,23,46,15,23,15,2544000
"slhr61dt","blank2","male","rural",100,48,69,48,33,69,33,6923000
"slhr61dt","blank2","male","secondary",100,46,9,46,6,9,6,2544000
"slhr61dt","blank2","male","stunted",100,49,39,49,11,39,11,1123000
"slhr61dt","blank2","male","under5",100,48,16,48,8,16,8,6923000
"slhr61dt","blank2","male","urban",100,48,31,48,15,31,15,6923000
"slhr61dt","blank2","no.birth.reg","no.educ",,,,,,,,2544000
"slhr61dt","blank2","no.birth.reg","no.skilled.attendant",,,,,,,,1123000
"slhr61dt","blank2","no.birth.reg","non.p20",100,23,40,23,8,40,8,1123000
"slhr61dt","blank2","no.birth.reg","p20",100,23,60,23,15,60,15,1123000
"slhr61dt","blank2","no.birth.reg","primary",,,,,,,,2544000
"slhr61dt","blank2","no.birth.reg","rural",100,23,75,23,18,75,18,1123000
"slhr61dt","blank2","no.birth.reg","secondary",,,,,,,,2544000
"slhr61dt","blank2","no.birth.reg","stunted",100,23,39,23,5,39,5,1123000
"slhr61dt","blank2","no.birth.reg","under5",100,23,100,23,23,100,23,1123000
"slhr61dt","blank2","no.birth.reg","urban",100,23,25,23,5,25,5,1123000
"slhr61dt","blank2","no.educ","no.skilled.attendant",100,85,38,85,35,38,35,977000
"slhr61dt","blank2","no.educ","non.p20",100,77,46,77,28,46,28,2544000
"slhr61dt","blank2","no.educ","p20",100,77,54,77,48,54,48,2544000
"slhr61dt","blank2","no.educ","primary",100,77,23,77,0,23,0,2544000
"slhr61dt","blank2","no.educ","rural",100,77,69,77,60,69,60,2544000
"slhr61dt","blank2","no.educ","secondary",100,77,9,77,0,9,0,2544000
"slhr61dt","blank2","no.educ","stunted",,,,,,,,2544000
"slhr61dt","blank2","no.educ","under5",100,77,0,77,0,0,0,2544000
"slhr61dt","blank2","no.educ","urban",100,77,31,77,16,31,16,2544000
"slhr61dt","blank2","no.skilled.attendant","non.p20",100,36,43,36,11,43,11,1675000
"slhr61dt","blank2","no.skilled.attendant","p20",100,36,57,36,25,57,25,1675000
"slhr61dt","blank2","no.skilled.attendant","primary",100,38,15,38,3,15,3,977000
"slhr61dt","blank2","no.skilled.attendant","rural",100,36,73,36,31,73,31,1675000
"slhr61dt","blank2","no.skilled.attendant","secondary",100,38,3,38,0,3,0,977000
"slhr61dt","blank2","no.skilled.attendant","stunted",,,,,,,,1123000
"slhr61dt","blank2","no.skilled.attendant","under5",100,36,0,36,0,0,0,1675000
"slhr61dt","blank2","no.skilled.attendant","urban",100,36,27,36,5,27,5,1675000
"slhr61dt","blank2","non.p20","p20",100,47,53,47,0,53,0,6923000
"slhr61dt","blank2","non.p20","primary",100,46,23,46,18,23,18,2544000
"slhr61dt","blank2","non.p20","rural",100,47,69,47,18,69,18,6923000
"slhr61dt","blank2","non.p20","secondary",100,46,9,46,8,9,8,2544000
"slhr61dt","blank2","non.p20","stunted",100,40,39,40,7,39,7,1123000
"slhr61dt","blank2","non.p20","under5",100,47,16,47,7,16,7,6923000
"slhr61dt","blank2","non.p20","urban",100,47,31,47,29,31,29,6923000
"slhr61dt","blank2","p20","primary",100,54,23,54,6,23,6,2544000
"slhr61dt","blank2","p20","rural",100,53,69,53,51,69,51,6923000
"slhr61dt","blank2","p20","secondary",100,54,9,54,1,9,1,2544000
"slhr61dt","blank2","p20","stunted",100,60,39,60,16,39,16,1123000
"slhr61dt","blank2","p20","under5",100,53,16,53,10,16,10,6923000
"slhr61dt","blank2","p20","urban",100,53,31,53,2,31,2,6923000
"slhr61dt","blank2","primary","rural",100,23,69,23,9,69,9,2544000
"slhr61dt","blank2","primary","secondary",100,23,9,23,9,9,9,2544000
"slhr61dt","blank2","primary","stunted",,,,,,,,2544000
"slhr61dt","blank2","primary","under5",100,23,0,23,0,0,0,2544000
"slhr61dt","blank2","primary","urban",100,23,31,23,15,31,15,2544000
"slhr61dt","blank2","rural","secondary",100,69,9,69,2,9,2,2544000
"slhr61dt","blank2","rural","stunted",100,75,39,75,23,39,23,1123000
"slhr61dt","blank2","rural","under5",100,69,16,69,12,16,12,6923000
"slhr61dt","blank2","rural","urban",100,69,31,69,0,31,0,6923000
"slhr61dt","blank2","secondary","stunted",,,,,,,,2544000
"slhr61dt","blank2","secondary","under5",100,9,0,9,0,0,0,2544000
"slhr61dt","blank2","secondary","urban",100,9,31,9,7,31,7,2544000
"slhr61dt","blank2","stunted","under5",100,39,100,39,39,100,39,1123000
"slhr61dt","blank2","stunted","urban",100,39,25,39,3,25,3,1123000
"slhr61dt","blank2","under5","urban",100,16,31,16,4,31,4,6923000
"slhr61dt","ext","female","fifteento49",32,52,43,16,23,12,7,6923000
"slhr61dt","ext","female","fiveto14",32,52,29,16,14,9,4,6923000
"slhr61dt","ext","female","gt49",32,52,12,16,6,4,2,6923000
"slhr61dt","ext","female","higher",32,54,5,18,2,0,0,2544000
"slhr61dt","ext","female","male",32,52,48,16,0,15,0,6923000
"slhr61dt","ext","female","no.birth.reg",37,51,23,19,12,9,4,1123000
"slhr61dt","ext","female","no.educ",32,54,77,18,45,29,17,2544000
"slhr61dt","ext","female","no.skilled.attendant",35,100,36,35,36,16,16,1675000
"slhr61dt","ext","female","non.p20",32,52,47,16,24,0,0,6923000
"slhr61dt","ext","female","p20",32,52,53,16,27,32,16,6923000
"slhr61dt","ext","female","primary",32,54,23,18,8,3,1,2544000
"slhr61dt","ext","female","rural",32,52,69,16,36,30,16,6923000
"slhr61dt","ext","female","secondary",32,54,9,18,2,0,0,2544000
"slhr61dt","ext","female","stunted",37,51,39,19,11,8,4,1123000
"slhr61dt","ext","female","under5",32,52,16,16,8,6,3,6923000
"slhr61dt","ext","female","urban",32,52,31,16,16,1,1,6923000
"slhr61dt","ext","fifteento49","fiveto14",32,43,29,12,0,9,0,6923000
"slhr61dt","ext","fifteento49","gt49",32,43,12,12,0,4,0,6923000
"slhr61dt","ext","fifteento49","higher",32,68,5,22,4,0,0,2544000
"slhr61dt","ext","fifteento49","male",32,43,48,12,19,15,6,6923000
"slhr61dt","ext","fifteento49","no.birth.reg",37,0,23,0,0,9,0,1123000
"slhr61dt","ext","fifteento49","no.educ",32,68,77,22,49,29,19,2544000
"slhr61dt","ext","fifteento49","no.skilled.attendant",35,100,36,35,36,16,16,1675000
"slhr61dt","ext","fifteento49","non.p20",32,43,47,12,22,0,0,6923000
"slhr61dt","ext","fifteento49","p20",32,43,53,12,21,32,12,6923000
"slhr61dt","ext","fifteento49","primary",32,68,23,22,19,3,2,2544000
"slhr61dt","ext","fifteento49","rural",32,43,69,12,27,30,12,6923000
"slhr61dt","ext","fifteento49","secondary",32,68,9,22,7,0,0,2544000
"slhr61dt","ext","fifteento49","stunted",37,0,39,0,0,8,0,1123000
"slhr61dt","ext","fifteento49","under5",32,43,16,12,0,6,0,6923000
"slhr61dt","ext","fifteento49","urban",32,43,31,12,16,1,0,6923000
"slhr61dt","ext","fiveto14","gt49",32,29,12,9,0,4,0,6923000
"slhr61dt","ext","fiveto14","higher",32,0,5,0,0,0,0,2544000
"slhr61dt","ext","fiveto14","male",32,29,48,9,15,15,5,6923000
"slhr61dt","ext","fiveto14","no.birth.reg",37,0,23,0,0,9,0,1123000
"slhr61dt","ext","fiveto14","no.educ",32,0,77,0,0,29,0,2544000
"slhr61dt","ext","fiveto14","no.skilled.attendant",35,0,36,0,0,16,0,1675000
"slhr61dt","ext","fiveto14","non.p20",32,29,47,9,13,0,0,6923000
"slhr61dt","ext","fiveto14","p20",32,29,53,9,16,32,9,6923000
"slhr61dt","ext","fiveto14","primary",32,0,23,0,0,3,0,2544000
"slhr61dt","ext","fiveto14","rural",32,29,69,9,21,30,9,6923000
"slhr61dt","ext","fiveto14","secondary",32,0,9,0,0,0,0,2544000
"slhr61dt","ext","fiveto14","stunted",37,0,39,0,0,8,0,1123000
"slhr61dt","ext","fiveto14","under5",32,29,16,9,0,6,0,6923000
"slhr61dt","ext","fiveto14","urban",32,29,31,9,8,1,0,6923000
"slhr61dt","ext","gt49","higher",32,32,5,11,1,0,0,2544000
"slhr61dt","ext","gt49","male",32,12,48,4,6,15,2,6923000
"slhr61dt","ext","gt49","no.birth.reg",37,0,23,0,0,9,0,1123000
"slhr61dt","ext","gt49","no.educ",32,32,77,11,27,29,10,2544000
"slhr61dt","ext","gt49","no.skilled.attendant",35,0,36,0,0,16,0,1675000
"slhr61dt","ext","gt49","non.p20",32,12,47,4,5,0,0,6923000
"slhr61dt","ext","gt49","p20",32,12,53,4,7,32,4,6923000
"slhr61dt","ext","gt49","primary",32,32,23,11,4,3,0,2544000
"slhr61dt","ext","gt49","rural",32,12,69,4,9,30,4,6923000
"slhr61dt","ext","gt49","secondary",32,32,9,11,2,0,0,2544000
"slhr61dt","ext","gt49","stunted",37,0,39,0,0,8,0,1123000
"slhr61dt","ext","gt49","under5",32,12,16,4,0,6,0,6923000
"slhr61dt","ext","gt49","urban",32,12,31,4,3,1,0,6923000
"slhr61dt","ext","higher","male",32,5,46,0,3,15,0,2544000
"slhr61dt","ext","higher","no.birth.reg",,,,,,,,2544000
"slhr61dt","ext","higher","no.educ",32,5,77,0,0,29,0,2544000
"slhr61dt","ext","higher","no.skilled.attendant",37,1,38,0,0,17,0,977000
"slhr61dt","ext","higher","non.p20",32,5,46,0,4,0,0,2544000
"slhr61dt","ext","higher","p20",32,5,54,0,0,32,0,2544000
"slhr61dt","ext","higher","primary",32,5,23,0,5,3,0,2544000
"slhr61dt","ext","higher","rural",32,5,69,0,1,31,0,2544000
"slhr61dt","ext","higher","secondary",32,5,9,0,5,0,0,2544000
"slhr61dt","ext","higher","stunted",,,,,,,,2544000
"slhr61dt","ext","higher","under5",32,5,0,0,0,0,0,2544000
"slhr61dt","ext","higher","urban",32,5,31,0,4,1,0,2544000
"slhr61dt","ext","male","no.birth.reg",37,49,23,18,12,9,5,1123000
"slhr61dt","ext","male","no.educ",32,46,77,15,31,29,13,2544000
"slhr61dt","ext","male","no.skilled.attendant",35,0,36,0,0,16,0,1675000
"slhr61dt","ext","male","non.p20",32,48,47,15,22,0,0,6923000
"slhr61dt","ext","male","p20",32,48,53,15,26,32,15,6923000
"slhr61dt","ext","male","primary",32,46,23,15,15,3,2,2544000
"slhr61dt","ext","male","rural",32,48,69,15,33,30,15,6923000
"slhr61dt","ext","male","secondary",32,46,9,15,6,0,0,2544000
"slhr61dt","ext","male","stunted",37,49,39,18,11,8,4,1123000
"slhr61dt","ext","male","under5",32,48,16,15,8,6,3,6923000
"slhr61dt","ext","male","urban",32,48,31,15,15,1,1,6923000
"slhr61dt","ext","no.birth.reg","no.educ",,,,,,,,2544000
"slhr61dt","ext","no.birth.reg","no.skilled.attendant",,,,,,,,1123000
"slhr61dt","ext","no.birth.reg","non.p20",37,23,40,9,8,0,0,1123000
"slhr61dt","ext","no.birth.reg","p20",37,23,60,9,15,37,9,1123000
"slhr61dt","ext","no.birth.reg","primary",,,,,,,,2544000
"slhr61dt","ext","no.birth.reg","rural",37,23,75,9,18,36,8,1123000
"slhr61dt","ext","no.birth.reg","secondary",,,,,,,,2544000
"slhr61dt","ext","no.birth.reg","stunted",37,23,39,9,5,8,2,1123000
"slhr61dt","ext","no.birth.reg","under5",37,23,100,9,23,37,9,1123000
"slhr61dt","ext","no.birth.reg","urban",37,23,25,9,5,1,0,1123000
"slhr61dt","ext","no.educ","no.skilled.attendant",37,85,38,34,35,17,16,977000
"slhr61dt","ext","no.educ","non.p20",32,77,46,29,28,0,0,2544000
"slhr61dt","ext","no.educ","p20",32,77,54,29,48,32,29,2544000
"slhr61dt","ext","no.educ","primary",32,77,23,29,0,3,0,2544000
"slhr61dt","ext","no.educ","rural",32,77,69,29,60,31,28,2544000
"slhr61dt","ext","no.educ","secondary",32,77,9,29,0,0,0,2544000
"slhr61dt","ext","no.educ","stunted",,,,,,,,2544000
"slhr61dt","ext","no.educ","under5",32,77,0,29,0,0,0,2544000
"slhr61dt","ext","no.educ","urban",32,77,31,29,16,1,1,2544000
"slhr61dt","ext","no.skilled.attendant","non.p20",35,36,43,16,11,0,0,1675000
"slhr61dt","ext","no.skilled.attendant","p20",35,36,57,16,25,35,16,1675000
"slhr61dt","ext","no.skilled.attendant","primary",37,38,15,17,3,3,1,977000
"slhr61dt","ext","no.skilled.attendant","rural",35,36,73,16,31,34,15,1675000
"slhr61dt","ext","no.skilled.attendant","secondary",37,38,3,17,0,0,0,977000
"slhr61dt","ext","no.skilled.attendant","stunted",,,,,,,,1123000
"slhr61dt","ext","no.skilled.attendant","under5",35,36,0,16,0,0,0,1675000
"slhr61dt","ext","no.skilled.attendant","urban",35,36,27,16,5,1,0,1675000
"slhr61dt","ext","non.p20","p20",32,47,53,0,0,32,0,6923000
"slhr61dt","ext","non.p20","primary",32,46,23,0,18,3,0,2544000
"slhr61dt","ext","non.p20","rural",32,47,69,0,18,30,0,6923000
"slhr61dt","ext","non.p20","secondary",32,46,9,0,8,0,0,2544000
"slhr61dt","ext","non.p20","stunted",37,40,39,0,7,8,0,1123000
"slhr61dt","ext","non.p20","under5",32,47,16,0,7,6,0,6923000
"slhr61dt","ext","non.p20","urban",32,47,31,0,29,1,0,6923000
"slhr61dt","ext","p20","primary",32,54,23,32,6,3,3,2544000
"slhr61dt","ext","p20","rural",32,53,69,32,51,30,30,6923000
"slhr61dt","ext","p20","secondary",32,54,9,32,1,0,0,2544000
"slhr61dt","ext","p20","stunted",37,60,39,37,16,8,8,1123000
"slhr61dt","ext","p20","under5",32,53,16,32,10,6,6,6923000
"slhr61dt","ext","p20","urban",32,53,31,32,2,1,1,6923000
"slhr61dt","ext","primary","rural",32,23,69,3,9,31,3,2544000
"slhr61dt","ext","primary","secondary",32,23,9,3,9,0,0,2544000
"slhr61dt","ext","primary","stunted",,,,,,,,2544000
"slhr61dt","ext","primary","under5",32,23,0,3,0,0,0,2544000
"slhr61dt","ext","primary","urban",32,23,31,3,15,1,0,2544000
"slhr61dt","ext","rural","secondary",32,69,9,31,2,0,0,2544000
"slhr61dt","ext","rural","stunted",37,75,39,36,23,8,8,1123000
"slhr61dt","ext","rural","under5",32,69,16,30,12,6,6,6923000
"slhr61dt","ext","rural","urban",32,69,31,30,0,1,0,6923000
"slhr61dt","ext","secondary","stunted",,,,,,,,2544000
"slhr61dt","ext","secondary","under5",32,9,0,0,0,0,0,2544000
"slhr61dt","ext","secondary","urban",32,9,31,0,7,1,0,2544000
"slhr61dt","ext","stunted","under5",37,39,100,8,39,37,8,1123000
"slhr61dt","ext","stunted","urban",37,39,25,8,3,1,0,1123000
"slhr61dt","ext","under5","urban",32,16,31,6,4,1,0,6923000
"slhr61dt","female","fifteento49","fiveto14",52,43,29,23,0,14,0,6923000
"slhr61dt","female","fifteento49","gt49",52,43,12,23,0,6,0,6923000
"slhr61dt","female","fifteento49","higher",54,68,5,37,4,2,1,2544000
"slhr61dt","female","fifteento49","male",52,43,48,23,19,0,0,6923000
"slhr61dt","female","fifteento49","no.birth.reg",51,0,23,0,0,12,0,1123000
"slhr61dt","female","fifteento49","no.educ",54,68,77,37,49,45,30,2544000
"slhr61dt","female","fifteento49","no.skilled.attendant",100,100,36,100,36,36,36,1675000
"slhr61dt","female","fifteento49","non.p20",52,43,47,23,22,24,12,6923000
"slhr61dt","female","fifteento49","p20",52,43,53,23,21,27,11,6923000
"slhr61dt","female","fifteento49","primary",54,68,23,37,19,8,7,2544000
"slhr61dt","female","fifteento49","rural",52,43,69,23,27,36,15,6923000
"slhr61dt","female","fifteento49","secondary",54,68,9,37,7,2,2,2544000
"slhr61dt","female","fifteento49","stunted",51,0,39,0,0,11,0,1123000
"slhr61dt","female","fifteento49","under5",52,43,16,23,0,8,0,6923000
"slhr61dt","female","fifteento49","urban",52,43,31,23,16,16,8,6923000
"slhr61dt","female","fiveto14","gt49",52,29,12,14,0,6,0,6923000
"slhr61dt","female","fiveto14","higher",54,0,5,0,0,2,0,2544000
"slhr61dt","female","fiveto14","male",52,29,48,14,15,0,0,6923000
"slhr61dt","female","fiveto14","no.birth.reg",51,0,23,0,0,12,0,1123000
"slhr61dt","female","fiveto14","no.educ",54,0,77,0,0,45,0,2544000
"slhr61dt","female","fiveto14","no.skilled.attendant",100,0,36,0,0,36,0,1675000
"slhr61dt","female","fiveto14","non.p20",52,29,47,14,13,24,7,6923000
"slhr61dt","female","fiveto14","p20",52,29,53,14,16,27,7,6923000
"slhr61dt","female","fiveto14","primary",54,0,23,0,0,8,0,2544000
"slhr61dt","female","fiveto14","rural",52,29,69,14,21,36,10,6923000
"slhr61dt","female","fiveto14","secondary",54,0,9,0,0,2,0,2544000
"slhr61dt","female","fiveto14","stunted",51,0,39,0,0,11,0,1123000
"slhr61dt","female","fiveto14","under5",52,29,16,14,0,8,0,6923000
"slhr61dt","female","fiveto14","urban",52,29,31,14,8,16,4,6923000
"slhr61dt","female","gt49","higher",54,32,5,17,1,2,0,2544000
"slhr61dt","female","gt49","male",52,12,48,6,6,0,0,6923000
"slhr61dt","female","gt49","no.birth.reg",51,0,23,0,0,12,0,1123000
"slhr61dt","female","gt49","no.educ",54,32,77,17,27,45,15,2544000
"slhr61dt","female","gt49","no.skilled.attendant",100,0,36,0,0,36,0,1675000
"slhr61dt","female","gt49","non.p20",52,12,47,6,5,24,3,6923000
"slhr61dt","female","gt49","p20",52,12,53,6,7,27,4,6923000
"slhr61dt","female","gt49","primary",54,32,23,17,4,8,1,2544000
"slhr61dt","female","gt49","rural",52,12,69,6,9,36,5,6923000
"slhr61dt","female","gt49","secondary",54,32,9,17,2,2,0,2544000
"slhr61dt","female","gt49","stunted",51,0,39,0,0,11,0,1123000
"slhr61dt","female","gt49","under5",52,12,16,6,0,8,0,6923000
"slhr61dt","female","gt49","urban",52,12,31,6,3,16,2,6923000
"slhr61dt","female","higher","male",54,5,46,2,3,0,0,2544000
"slhr61dt","female","higher","no.birth.reg",,,,,,,,2544000
"slhr61dt","female","higher","no.educ",54,5,77,2,0,45,0,2544000
"slhr61dt","female","higher","no.skilled.attendant",100,1,38,1,0,38,0,977000
"slhr61dt","female","higher","non.p20",54,5,46,2,4,24,1,2544000
"slhr61dt","female","higher","p20",54,5,54,2,0,29,0,2544000
"slhr61dt","female","higher","primary",54,5,23,2,5,8,2,2544000
"slhr61dt","female","higher","rural",54,5,69,2,1,37,0,2544000
"slhr61dt","female","higher","secondary",54,5,9,2,5,2,2,2544000
"slhr61dt","female","higher","stunted",,,,,,,,2544000
"slhr61dt","female","higher","under5",54,5,0,2,0,0,0,2544000
"slhr61dt","female","higher","urban",54,5,31,2,4,16,1,2544000
"slhr61dt","female","male","no.birth.reg",51,49,23,0,12,12,0,1123000
"slhr61dt","female","male","no.educ",54,46,77,0,31,45,0,2544000
"slhr61dt","female","male","no.skilled.attendant",100,0,36,0,0,36,0,1675000
"slhr61dt","female","male","non.p20",52,48,47,0,22,24,0,6923000
"slhr61dt","female","male","p20",52,48,53,0,26,27,0,6923000
"slhr61dt","female","male","primary",54,46,23,0,15,8,0,2544000
"slhr61dt","female","male","rural",52,48,69,0,33,36,0,6923000
"slhr61dt","female","male","secondary",54,46,9,0,6,2,0,2544000
"slhr61dt","female","male","stunted",51,49,39,0,11,11,0,1123000
"slhr61dt","female","male","under5",52,48,16,0,8,8,0,6923000
"slhr61dt","female","male","urban",52,48,31,0,15,16,0,6923000
"slhr61dt","female","no.birth.reg","no.educ",,,,,,,,2544000
"slhr61dt","female","no.birth.reg","no.skilled.attendant",,,,,,,,1123000
"slhr61dt","female","no.birth.reg","non.p20",51,23,40,12,8,20,4,1123000
"slhr61dt","female","no.birth.reg","p20",51,23,60,12,15,30,7,1123000
"slhr61dt","female","no.birth.reg","primary",,,,,,,,2544000
"slhr61dt","female","no.birth.reg","rural",51,23,75,12,18,38,9,1123000
"slhr61dt","female","no.birth.reg","secondary",,,,,,,,2544000
"slhr61dt","female","no.birth.reg","stunted",51,23,39,12,5,11,2,1123000
"slhr61dt","female","no.birth.reg","under5",51,23,100,12,23,51,12,1123000
"slhr61dt","female","no.birth.reg","urban",51,23,25,12,5,12,3,1123000
"slhr61dt","female","no.educ","no.skilled.attendant",100,85,38,85,35,38,35,977000
"slhr61dt","female","no.educ","non.p20",54,77,46,45,28,24,17,2544000
"slhr61dt","female","no.educ","p20",54,77,54,45,48,29,28,2544000
"slhr61dt","female","no.educ","primary",54,77,23,45,0,8,0,2544000
"slhr61dt","female","no.educ","rural",54,77,69,45,60,37,35,2544000
"slhr61dt","female","no.educ","secondary",54,77,9,45,0,2,0,2544000
"slhr61dt","female","no.educ","stunted",,,,,,,,2544000
"slhr61dt","female","no.educ","under5",54,77,0,45,0,0,0,2544000
"slhr61dt","female","no.educ","urban",54,77,31,45,16,16,10,2544000
"slhr61dt","female","no.skilled.attendant","non.p20",100,36,43,36,11,43,11,1675000
"slhr61dt","female","no.skilled.attendant","p20",100,36,57,36,25,57,25,1675000
"slhr61dt","female","no.skilled.attendant","primary",100,38,15,38,3,15,3,977000
"slhr61dt","female","no.skilled.attendant","rural",100,36,73,36,31,73,31,1675000
"slhr61dt","female","no.skilled.attendant","secondary",100,38,3,38,0,3,0,977000
"slhr61dt","female","no.skilled.attendant","stunted",,,,,,,,1123000
"slhr61dt","female","no.skilled.attendant","under5",100,36,0,36,0,0,0,1675000
"slhr61dt","female","no.skilled.attendant","urban",100,36,27,36,5,27,5,1675000
"slhr61dt","female","non.p20","p20",52,47,53,24,0,27,0,6923000
"slhr61dt","female","non.p20","primary",54,46,23,24,18,8,7,2544000
"slhr61dt","female","non.p20","rural",52,47,69,24,18,36,9,6923000
"slhr61dt","female","non.p20","secondary",54,46,9,24,8,2,2,2544000
"slhr61dt","female","non.p20","stunted",51,40,39,20,7,11,3,1123000
"slhr61dt","female","non.p20","under5",52,47,16,24,7,8,3,6923000
"slhr61dt","female","non.p20","urban",52,47,31,24,29,16,15,6923000
"slhr61dt","female","p20","primary",54,54,23,29,6,8,2,2544000
"slhr61dt","female","p20","rural",52,53,69,27,51,36,26,6923000
"slhr61dt","female","p20","secondary",54,54,9,29,1,2,0,2544000
"slhr61dt","female","p20","stunted",51,60,39,30,16,11,6,1123000
"slhr61dt","female","p20","under5",52,53,16,27,10,8,5,6923000
"slhr61dt","female","p20","urban",52,53,31,27,2,16,1,6923000
"slhr61dt","female","primary","rural",54,23,69,8,9,37,2,2544000
"slhr61dt","female","primary","secondary",54,23,9,8,9,2,2,2544000
"slhr61dt","female","primary","stunted",,,,,,,,2544000
"slhr61dt","female","primary","under5",54,23,0,8,0,0,0,2544000
"slhr61dt","female","primary","urban",54,23,31,8,15,16,6,2544000
"slhr61dt","female","rural","secondary",54,69,9,37,2,2,0,2544000
"slhr61dt","female","rural","stunted",51,75,39,38,23,11,8,1123000
"slhr61dt","female","rural","under5",52,69,16,36,12,8,6,6923000
"slhr61dt","female","rural","urban",52,69,31,36,0,16,0,6923000
"slhr61dt","female","secondary","stunted",,,,,,,,2544000
"slhr61dt","female","secondary","under5",54,9,0,2,0,0,0,2544000
"slhr61dt","female","secondary","urban",54,9,31,2,7,16,2,2544000
"slhr61dt","female","stunted","under5",51,39,100,11,39,51,11,1123000
"slhr61dt","female","stunted","urban",51,39,25,11,3,12,2,1123000
"slhr61dt","female","under5","urban",52,16,31,8,4,16,2,6923000
"slhr61dt","fifteento49","fiveto14","gt49",43,29,12,0,0,0,0,6923000
"slhr61dt","fifteento49","fiveto14","higher",68,0,5,0,0,4,0,2544000
"slhr61dt","fifteento49","fiveto14","male",43,29,48,0,15,19,0,6923000
"slhr61dt","fifteento49","fiveto14","no.birth.reg",0,0,23,0,0,0,0,1123000
"slhr61dt","fifteento49","fiveto14","no.educ",68,0,77,0,0,49,0,2544000
"slhr61dt","fifteento49","fiveto14","no.skilled.attendant",100,0,36,0,0,36,0,1675000
"slhr61dt","fifteento49","fiveto14","non.p20",43,29,47,0,13,22,0,6923000
"slhr61dt","fifteento49","fiveto14","p20",43,29,53,0,16,21,0,6923000
"slhr61dt","fifteento49","fiveto14","primary",68,0,23,0,0,19,0,2544000
"slhr61dt","fifteento49","fiveto14","rural",43,29,69,0,21,27,0,6923000
"slhr61dt","fifteento49","fiveto14","secondary",68,0,9,0,0,7,0,2544000
"slhr61dt","fifteento49","fiveto14","stunted",0,0,39,0,0,0,0,1123000
"slhr61dt","fifteento49","fiveto14","under5",43,29,16,0,0,0,0,6923000
"slhr61dt","fifteento49","fiveto14","urban",43,29,31,0,8,16,0,6923000
"slhr61dt","fifteento49","gt49","higher",68,32,5,0,1,4,0,2544000
"slhr61dt","fifteento49","gt49","male",43,12,48,0,6,19,0,6923000
"slhr61dt","fifteento49","gt49","no.birth.reg",0,0,23,0,0,0,0,1123000
"slhr61dt","fifteento49","gt49","no.educ",68,32,77,0,27,49,0,2544000
"slhr61dt","fifteento49","gt49","no.skilled.attendant",100,0,36,0,0,36,0,1675000
"slhr61dt","fifteento49","gt49","non.p20",43,12,47,0,5,22,0,6923000
"slhr61dt","fifteento49","gt49","p20",43,12,53,0,7,21,0,6923000
"slhr61dt","fifteento49","gt49","primary",68,32,23,0,4,19,0,2544000
"slhr61dt","fifteento49","gt49","rural",43,12,69,0,9,27,0,6923000
"slhr61dt","fifteento49","gt49","secondary",68,32,9,0,2,7,0,2544000
"slhr61dt","fifteento49","gt49","stunted",0,0,39,0,0,0,0,1123000
"slhr61dt","fifteento49","gt49","under5",43,12,16,0,0,0,0,6923000
"slhr61dt","fifteento49","gt49","urban",43,12,31,0,3,16,0,6923000
"slhr61dt","fifteento49","higher","male",68,5,46,4,3,32,2,2544000
"slhr61dt","fifteento49","higher","no.birth.reg",,,,,,,,2544000
"slhr61dt","fifteento49","higher","no.educ",68,5,77,4,0,49,0,2544000
"slhr61dt","fifteento49","higher","no.skilled.attendant",100,1,38,1,0,38,0,977000
"slhr61dt","fifteento49","higher","non.p20",68,5,46,4,4,33,3,2544000
"slhr61dt","fifteento49","higher","p20",68,5,54,4,0,36,0,2544000
"slhr61dt","fifteento49","higher","primary",68,5,23,4,5,19,4,2544000
"slhr61dt","fifteento49","higher","rural",68,5,69,4,1,46,1,2544000
"slhr61dt","fifteento49","higher","secondary",68,5,9,4,5,7,4,2544000
"slhr61dt","fifteento49","higher","stunted",,,,,,,,2544000
"slhr61dt","fifteento49","higher","under5",68,5,0,4,0,0,0,2544000
"slhr61dt","fifteento49","higher","urban",68,5,31,4,4,22,3,2544000
"slhr61dt","fifteento49","male","no.birth.reg",0,49,23,0,12,0,0,1123000
"slhr61dt","fifteento49","male","no.educ",68,46,77,32,31,49,19,2544000
"slhr61dt","fifteento49","male","no.skilled.attendant",100,0,36,0,0,36,0,1675000
"slhr61dt","fifteento49","male","non.p20",43,48,47,19,22,22,10,6923000
"slhr61dt","fifteento49","male","p20",43,48,53,19,26,21,9,6923000
"slhr61dt","fifteento49","male","primary",68,46,23,32,15,19,12,2544000
"slhr61dt","fifteento49","male","rural",43,48,69,19,33,27,12,6923000
"slhr61dt","fifteento49","male","secondary",68,46,9,32,6,7,5,2544000
"slhr61dt","fifteento49","male","stunted",0,49,39,0,11,0,0,1123000
"slhr61dt","fifteento49","male","under5",43,48,16,19,8,0,0,6923000
"slhr61dt","fifteento49","male","urban",43,48,31,19,15,16,7,6923000
"slhr61dt","fifteento49","no.birth.reg","no.educ",,,,,,,,2544000
"slhr61dt","fifteento49","no.birth.reg","no.skilled.attendant",,,,,,,,1123000
"slhr61dt","fifteento49","no.birth.reg","non.p20",0,23,40,0,8,0,0,1123000
"slhr61dt","fifteento49","no.birth.reg","p20",0,23,60,0,15,0,0,1123000
"slhr61dt","fifteento49","no.birth.reg","primary",,,,,,,,2544000
"slhr61dt","fifteento49","no.birth.reg","rural",0,23,75,0,18,0,0,1123000
"slhr61dt","fifteento49","no.birth.reg","secondary",,,,,,,,2544000
"slhr61dt","fifteento49","no.birth.reg","stunted",0,23,39,0,5,0,0,1123000
"slhr61dt","fifteento49","no.birth.reg","under5",0,23,100,0,23,0,0,1123000
"slhr61dt","fifteento49","no.birth.reg","urban",0,23,25,0,5,0,0,1123000
"slhr61dt","fifteento49","no.educ","no.skilled.attendant",100,85,38,85,35,38,35,977000
"slhr61dt","fifteento49","no.educ","non.p20",68,77,46,49,28,33,18,2544000
"slhr61dt","fifteento49","no.educ","p20",68,77,54,49,48,36,31,2544000
"slhr61dt","fifteento49","no.educ","primary",68,77,23,49,0,19,0,2544000
"slhr61dt","fifteento49","no.educ","rural",68,77,69,49,60,46,39,2544000
"slhr61dt","fifteento49","no.educ","secondary",68,77,9,49,0,7,0,2544000
"slhr61dt","fifteento49","no.educ","stunted",,,,,,,,2544000
"slhr61dt","fifteento49","no.educ","under5",68,77,0,49,0,0,0,2544000
"slhr61dt","fifteento49","no.educ","urban",68,77,31,49,16,22,10,2544000
"slhr61dt","fifteento49","no.skilled.attendant","non.p20",100,36,43,36,11,43,11,1675000
"slhr61dt","fifteento49","no.skilled.attendant","p20",100,36,57,36,25,57,25,1675000
"slhr61dt","fifteento49","no.skilled.attendant","primary",100,38,15,38,3,15,3,977000
"slhr61dt","fifteento49","no.skilled.attendant","rural",100,36,73,36,31,73,31,1675000
"slhr61dt","fifteento49","no.skilled.attendant","secondary",100,38,3,38,0,3,0,977000
"slhr61dt","fifteento49","no.skilled.attendant","stunted",,,,,,,,1123000
"slhr61dt","fifteento49","no.skilled.attendant","under5",100,36,0,36,0,0,0,1675000
"slhr61dt","fifteento49","no.skilled.attendant","urban",100,36,27,36,5,27,5,1675000
"slhr61dt","fifteento49","non.p20","p20",43,47,53,22,0,21,0,6923000
"slhr61dt","fifteento49","non.p20","primary",68,46,23,33,18,19,14,2544000
"slhr61dt","fifteento49","non.p20","rural",43,47,69,22,18,27,7,6923000
"slhr61dt","fifteento49","non.p20","secondary",68,46,9,33,8,7,6,2544000
"slhr61dt","fifteento49","non.p20","stunted",0,40,39,0,7,0,0,1123000
"slhr61dt","fifteento49","non.p20","under5",43,47,16,22,7,0,0,6923000
"slhr61dt","fifteento49","non.p20","urban",43,47,31,22,29,16,15,6923000
"slhr61dt","fifteento49","p20","primary",68,54,23,36,6,19,5,2544000
"slhr61dt","fifteento49","p20","rural",43,53,69,21,51,27,20,6923000
"slhr61dt","fifteento49","p20","secondary",68,54,9,36,1,7,1,2544000
"slhr61dt","fifteento49","p20","stunted",0,60,39,0,16,0,0,1123000
"slhr61dt","fifteento49","p20","under5",43,53,16,21,10,0,0,6923000
"slhr61dt","fifteento49","p20","urban",43,53,31,21,2,16,1,6923000
"slhr61dt","fifteento49","primary","rural",68,23,69,19,9,46,7,2544000
"slhr61dt","fifteento49","primary","secondary",68,23,9,19,9,7,7,2544000
"slhr61dt","fifteento49","primary","stunted",,,,,,,,2544000
"slhr61dt","fifteento49","primary","under5",68,23,0,19,0,0,0,2544000
"slhr61dt","fifteento49","primary","urban",68,23,31,19,15,22,12,2544000
"slhr61dt","fifteento49","rural","secondary",68,69,9,46,2,7,1,2544000
"slhr61dt","fifteento49","rural","stunted",0,75,39,0,23,0,0,1123000
"slhr61dt","fifteento49","rural","under5",43,69,16,27,12,0,0,6923000
"slhr61dt","fifteento49","rural","urban",43,69,31,27,0,16,0,6923000
"slhr61dt","fifteento49","secondary","stunted",,,,,,,,2544000
"slhr61dt","fifteento49","secondary","under5",68,9,0,7,0,0,0,2544000
"slhr61dt","fifteento49","secondary","urban",68,9,31,7,7,22,6,2544000
"slhr61dt","fifteento49","stunted","under5",0,39,100,0,39,0,0,1123000
"slhr61dt","fifteento49","stunted","urban",0,39,25,0,3,0,0,1123000
"slhr61dt","fifteento49","under5","urban",43,16,31,0,4,16,0,6923000
"slhr61dt","fiveto14","gt49","higher",0,32,5,0,1,0,0,2544000
"slhr61dt","fiveto14","gt49","male",29,12,48,0,6,15,0,6923000
"slhr61dt","fiveto14","gt49","no.birth.reg",0,0,23,0,0,0,0,1123000
"slhr61dt","fiveto14","gt49","no.educ",0,32,77,0,27,0,0,2544000
"slhr61dt","fiveto14","gt49","no.skilled.attendant",0,0,36,0,0,0,0,1675000
"slhr61dt","fiveto14","gt49","non.p20",29,12,47,0,5,13,0,6923000
"slhr61dt","fiveto14","gt49","p20",29,12,53,0,7,16,0,6923000
"slhr61dt","fiveto14","gt49","primary",0,32,23,0,4,0,0,2544000
"slhr61dt","fiveto14","gt49","rural",29,12,69,0,9,21,0,6923000
"slhr61dt","fiveto14","gt49","secondary",0,32,9,0,2,0,0,2544000
"slhr61dt","fiveto14","gt49","stunted",0,0,39,0,0,0,0,1123000
"slhr61dt","fiveto14","gt49","under5",29,12,16,0,0,0,0,6923000
"slhr61dt","fiveto14","gt49","urban",29,12,31,0,3,8,0,6923000
"slhr61dt","fiveto14","higher","male",0,5,46,0,3,0,0,2544000
"slhr61dt","fiveto14","higher","no.birth.reg",,,,,,,,2544000
"slhr61dt","fiveto14","higher","no.educ",0,5,77,0,0,0,0,2544000
"slhr61dt","fiveto14","higher","no.skilled.attendant",0,1,38,0,0,0,0,977000
"slhr61dt","fiveto14","higher","non.p20",0,5,46,0,4,0,0,2544000
"slhr61dt","fiveto14","higher","p20",0,5,54,0,0,0,0,2544000
"slhr61dt","fiveto14","higher","primary",0,5,23,0,5,0,0,2544000
"slhr61dt","fiveto14","higher","rural",0,5,69,0,1,0,0,2544000
"slhr61dt","fiveto14","higher","secondary",0,5,9,0,5,0,0,2544000
"slhr61dt","fiveto14","higher","stunted",,,,,,,,2544000
"slhr61dt","fiveto14","higher","under5",0,5,0,0,0,0,0,2544000
"slhr61dt","fiveto14","higher","urban",0,5,31,0,4,0,0,2544000
"slhr61dt","fiveto14","male","no.birth.reg",0,49,23,0,12,0,0,1123000
"slhr61dt","fiveto14","male","no.educ",0,46,77,0,31,0,0,2544000
"slhr61dt","fiveto14","male","no.skilled.attendant",0,0,36,0,0,0,0,1675000
"slhr61dt","fiveto14","male","non.p20",29,48,47,15,22,13,7,6923000
"slhr61dt","fiveto14","male","p20",29,48,53,15,26,16,9,6923000
"slhr61dt","fiveto14","male","primary",0,46,23,0,15,0,0,2544000
"slhr61dt","fiveto14","male","rural",29,48,69,15,33,21,11,6923000
"slhr61dt","fiveto14","male","secondary",0,46,9,0,6,0,0,2544000
"slhr61dt","fiveto14","male","stunted",0,49,39,0,11,0,0,1123000
"slhr61dt","fiveto14","male","under5",29,48,16,15,8,0,0,6923000
"slhr61dt","fiveto14","male","urban",29,48,31,15,15,8,4,6923000
"slhr61dt","fiveto14","no.birth.reg","no.educ",,,,,,,,2544000
"slhr61dt","fiveto14","no.birth.reg","no.skilled.attendant",,,,,,,,1123000
"slhr61dt","fiveto14","no.birth.reg","non.p20",0,23,40,0,8,0,0,1123000
"slhr61dt","fiveto14","no.birth.reg","p20",0,23,60,0,15,0,0,1123000
"slhr61dt","fiveto14","no.birth.reg","primary",,,,,,,,2544000
"slhr61dt","fiveto14","no.birth.reg","rural",0,23,75,0,18,0,0,1123000
"slhr61dt","fiveto14","no.birth.reg","secondary",,,,,,,,2544000
"slhr61dt","fiveto14","no.birth.reg","stunted",0,23,39,0,5,0,0,1123000
"slhr61dt","fiveto14","no.birth.reg","under5",0,23,100,0,23,0,0,1123000
"slhr61dt","fiveto14","no.birth.reg","urban",0,23,25,0,5,0,0,1123000
"slhr61dt","fiveto14","no.educ","no.skilled.attendant",0,85,38,0,35,0,0,977000
"slhr61dt","fiveto14","no.educ","non.p20",0,77,46,0,28,0,0,2544000
"slhr61dt","fiveto14","no.educ","p20",0,77,54,0,48,0,0,2544000
"slhr61dt","fiveto14","no.educ","primary",0,77,23,0,0,0,0,2544000
"slhr61dt","fiveto14","no.educ","rural",0,77,69,0,60,0,0,2544000
"slhr61dt","fiveto14","no.educ","secondary",0,77,9,0,0,0,0,2544000
"slhr61dt","fiveto14","no.educ","stunted",,,,,,,,2544000
"slhr61dt","fiveto14","no.educ","under5",0,77,0,0,0,0,0,2544000
"slhr61dt","fiveto14","no.educ","urban",0,77,31,0,16,0,0,2544000
"slhr61dt","fiveto14","no.skilled.attendant","non.p20",0,36,43,0,11,0,0,1675000
"slhr61dt","fiveto14","no.skilled.attendant","p20",0,36,57,0,25,0,0,1675000
"slhr61dt","fiveto14","no.skilled.attendant","primary",0,38,15,0,3,0,0,977000
"slhr61dt","fiveto14","no.skilled.attendant","rural",0,36,73,0,31,0,0,1675000
"slhr61dt","fiveto14","no.skilled.attendant","secondary",0,38,3,0,0,0,0,977000
"slhr61dt","fiveto14","no.skilled.attendant","stunted",,,,,,,,1123000
"slhr61dt","fiveto14","no.skilled.attendant","under5",0,36,0,0,0,0,0,1675000
"slhr61dt","fiveto14","no.skilled.attendant","urban",0,36,27,0,5,0,0,1675000
"slhr61dt","fiveto14","non.p20","p20",29,47,53,13,0,16,0,6923000
"slhr61dt","fiveto14","non.p20","primary",0,46,23,0,18,0,0,2544000
"slhr61dt","fiveto14","non.p20","rural",29,47,69,13,18,21,5,6923000
"slhr61dt","fiveto14","non.p20","secondary",0,46,9,0,8,0,0,2544000
"slhr61dt","fiveto14","non.p20","stunted",0,40,39,0,7,0,0,1123000
"slhr61dt","fiveto14","non.p20","under5",29,47,16,13,7,0,0,6923000
"slhr61dt","fiveto14","non.p20","urban",29,47,31,13,29,8,8,6923000
"slhr61dt","fiveto14","p20","primary",0,54,23,0,6,0,0,2544000
"slhr61dt","fiveto14","p20","rural",29,53,69,16,51,21,15,6923000
"slhr61dt","fiveto14","p20","secondary",0,54,9,0,1,0,0,2544000
"slhr61dt","fiveto14","p20","stunted",0,60,39,0,16,0,0,1123000
"slhr61dt","fiveto14","p20","under5",29,53,16,16,10,0,0,6923000
"slhr61dt","fiveto14","p20","urban",29,53,31,16,2,8,1,6923000
"slhr61dt","fiveto14","primary","rural",0,23,69,0,9,0,0,2544000
"slhr61dt","fiveto14","primary","secondary",0,23,9,0,9,0,0,2544000
"slhr61dt","fiveto14","primary","stunted",,,,,,,,2544000
"slhr61dt","fiveto14","primary","under5",0,23,0,0,0,0,0,2544000
"slhr61dt","fiveto14","primary","urban",0,23,31,0,15,0,0,2544000
"slhr61dt","fiveto14","rural","secondary",0,69,9,0,2,0,0,2544000
"slhr61dt","fiveto14","rural","stunted",0,75,39,0,23,0,0,1123000
"slhr61dt","fiveto14","rural","under5",29,69,16,21,12,0,0,6923000
"slhr61dt","fiveto14","rural","urban",29,69,31,21,0,8,0,6923000
"slhr61dt","fiveto14","secondary","stunted",,,,,,,,2544000
"slhr61dt","fiveto14","secondary","under5",0,9,0,0,0,0,0,2544000
"slhr61dt","fiveto14","secondary","urban",0,9,31,0,7,0,0,2544000
"slhr61dt","fiveto14","stunted","under5",0,39,100,0,39,0,0,1123000
"slhr61dt","fiveto14","stunted","urban",0,39,25,0,3,0,0,1123000
"slhr61dt","fiveto14","under5","urban",29,16,31,0,4,8,0,6923000
"slhr61dt","gt49","higher","male",32,5,46,1,3,15,1,2544000
"slhr61dt","gt49","higher","no.birth.reg",,,,,,,,2544000
"slhr61dt","gt49","higher","no.educ",32,5,77,1,0,27,0,2544000
"slhr61dt","gt49","higher","no.skilled.attendant",0,1,38,0,0,0,0,977000
"slhr61dt","gt49","higher","non.p20",32,5,46,1,4,14,1,2544000
"slhr61dt","gt49","higher","p20",32,5,54,1,0,18,0,2544000
"slhr61dt","gt49","higher","primary",32,5,23,1,5,4,1,2544000
"slhr61dt","gt49","higher","rural",32,5,69,1,1,23,0,2544000
"slhr61dt","gt49","higher","secondary",32,5,9,1,5,2,1,2544000
"slhr61dt","gt49","higher","stunted",,,,,,,,2544000
"slhr61dt","gt49","higher","under5",32,5,0,1,0,0,0,2544000
"slhr61dt","gt49","higher","urban",32,5,31,1,4,8,1,2544000
"slhr61dt","gt49","male","no.birth.reg",0,49,23,0,12,0,0,1123000
"slhr61dt","gt49","male","no.educ",32,46,77,15,31,27,12,2544000
"slhr61dt","gt49","male","no.skilled.attendant",0,0,36,0,0,0,0,1675000
"slhr61dt","gt49","male","non.p20",12,48,47,6,22,5,2,6923000
"slhr61dt","gt49","male","p20",12,48,53,6,26,7,3,6923000
"slhr61dt","gt49","male","primary",32,46,23,15,15,4,3,2544000
"slhr61dt","gt49","male","rural",12,48,69,6,33,9,4,6923000
"slhr61dt","gt49","male","secondary",32,46,9,15,6,2,1,2544000
"slhr61dt","gt49","male","stunted",0,49,39,0,11,0,0,1123000
"slhr61dt","gt49","male","under5",12,48,16,6,8,0,0,6923000
"slhr61dt","gt49","male","urban",12,48,31,6,15,3,2,6923000
"slhr61dt","gt49","no.birth.reg","no.educ",,,,,,,,2544000
"slhr61dt","gt49","no.birth.reg","no.skilled.attendant",,,,,,,,1123000
"slhr61dt","gt49","no.birth.reg","non.p20",0,23,40,0,8,0,0,1123000
"slhr61dt","gt49","no.birth.reg","p20",0,23,60,0,15,0,0,1123000
"slhr61dt","gt49","no.birth.reg","primary",,,,,,,,2544000
"slhr61dt","gt49","no.birth.reg","rural",0,23,75,0,18,0,0,1123000
"slhr61dt","gt49","no.birth.reg","secondary",,,,,,,,2544000
"slhr61dt","gt49","no.birth.reg","stunted",0,23,39,0,5,0,0,1123000
"slhr61dt","gt49","no.birth.reg","under5",0,23,100,0,23,0,0,1123000
"slhr61dt","gt49","no.birth.reg","urban",0,23,25,0,5,0,0,1123000
"slhr61dt","gt49","no.educ","no.skilled.attendant",0,85,38,0,35,0,0,977000
"slhr61dt","gt49","no.educ","non.p20",32,77,46,27,28,14,10,2544000
"slhr61dt","gt49","no.educ","p20",32,77,54,27,48,18,17,2544000
"slhr61dt","gt49","no.educ","primary",32,77,23,27,0,4,0,2544000
"slhr61dt","gt49","no.educ","rural",32,77,69,27,60,23,21,2544000
"slhr61dt","gt49","no.educ","secondary",32,77,9,27,0,2,0,2544000
"slhr61dt","gt49","no.educ","stunted",,,,,,,,2544000
"slhr61dt","gt49","no.educ","under5",32,77,0,27,0,0,0,2544000
"slhr61dt","gt49","no.educ","urban",32,77,31,27,16,8,6,2544000
"slhr61dt","gt49","no.skilled.attendant","non.p20",0,36,43,0,11,0,0,1675000
"slhr61dt","gt49","no.skilled.attendant","p20",0,36,57,0,25,0,0,1675000
"slhr61dt","gt49","no.skilled.attendant","primary",0,38,15,0,3,0,0,977000
"slhr61dt","gt49","no.skilled.attendant","rural",0,36,73,0,31,0,0,1675000
"slhr61dt","gt49","no.skilled.attendant","secondary",0,38,3,0,0,0,0,977000
"slhr61dt","gt49","no.skilled.attendant","stunted",,,,,,,,1123000
"slhr61dt","gt49","no.skilled.attendant","under5",0,36,0,0,0,0,0,1675000
"slhr61dt","gt49","no.skilled.attendant","urban",0,36,27,0,5,0,0,1675000
"slhr61dt","gt49","non.p20","p20",12,47,53,5,0,7,0,6923000
"slhr61dt","gt49","non.p20","primary",32,46,23,14,18,4,3,2544000
"slhr61dt","gt49","non.p20","rural",12,47,69,5,18,9,2,6923000
"slhr61dt","gt49","non.p20","secondary",32,46,9,14,8,2,1,2544000
"slhr61dt","gt49","non.p20","stunted",0,40,39,0,7,0,0,1123000
"slhr61dt","gt49","non.p20","under5",12,47,16,5,7,0,0,6923000
"slhr61dt","gt49","non.p20","urban",12,47,31,5,29,3,3,6923000
"slhr61dt","gt49","p20","primary",32,54,23,18,6,4,1,2544000
"slhr61dt","gt49","p20","rural",12,53,69,7,51,9,7,6923000
"slhr61dt","gt49","p20","secondary",32,54,9,18,1,2,0,2544000
"slhr61dt","gt49","p20","stunted",0,60,39,0,16,0,0,1123000
"slhr61dt","gt49","p20","under5",12,53,16,7,10,0,0,6923000
"slhr61dt","gt49","p20","urban",12,53,31,7,2,3,0,6923000
"slhr61dt","gt49","primary","rural",32,23,69,4,9,23,2,2544000
"slhr61dt","gt49","primary","secondary",32,23,9,4,9,2,2,2544000
"slhr61dt","gt49","primary","stunted",,,,,,,,2544000
"slhr61dt","gt49","primary","under5",32,23,0,4,0,0,0,2544000
"slhr61dt","gt49","primary","urban",32,23,31,4,15,8,3,2544000
"slhr61dt","gt49","rural","secondary",32,69,9,23,2,2,0,2544000
"slhr61dt","gt49","rural","stunted",0,75,39,0,23,0,0,1123000
"slhr61dt","gt49","rural","under5",12,69,16,9,12,0,0,6923000
"slhr61dt","gt49","rural","urban",12,69,31,9,0,3,0,6923000
"slhr61dt","gt49","secondary","stunted",,,,,,,,2544000
"slhr61dt","gt49","secondary","under5",32,9,0,2,0,0,0,2544000
"slhr61dt","gt49","secondary","urban",32,9,31,2,7,8,1,2544000
"slhr61dt","gt49","stunted","under5",0,39,100,0,39,0,0,1123000
"slhr61dt","gt49","stunted","urban",0,39,25,0,3,0,0,1123000
"slhr61dt","gt49","under5","urban",12,16,31,0,4,3,0,6923000
"slhr61dt","higher","male","no.birth.reg",,,,,,,,2544000
"slhr61dt","higher","male","no.educ",5,46,77,3,31,0,0,2544000
"slhr61dt","higher","male","no.skilled.attendant",1,0,38,0,0,0,0,977000
"slhr61dt","higher","male","non.p20",5,46,46,3,22,4,3,2544000
"slhr61dt","higher","male","p20",5,46,54,3,24,0,0,2544000
"slhr61dt","higher","male","primary",5,46,23,3,15,5,3,2544000
"slhr61dt","higher","male","rural",5,46,69,3,32,1,1,2544000
"slhr61dt","higher","male","secondary",5,46,9,3,6,5,3,2544000
"slhr61dt","higher","male","stunted",,,,,,,,2544000
"slhr61dt","higher","male","under5",5,46,0,3,0,0,0,2544000
"slhr61dt","higher","male","urban",5,46,31,3,15,4,2,2544000
"slhr61dt","higher","no.birth.reg","no.educ",,,,,,,,2544000
"slhr61dt","higher","no.birth.reg","no.skilled.attendant",,,,,,,,977000
"slhr61dt","higher","no.birth.reg","non.p20",,,,,,,,2544000
"slhr61dt","higher","no.birth.reg","p20",,,,,,,,2544000
"slhr61dt","higher","no.birth.reg","primary",,,,,,,,2544000
"slhr61dt","higher","no.birth.reg","rural",,,,,,,,2544000
"slhr61dt","higher","no.birth.reg","secondary",,,,,,,,2544000
"slhr61dt","higher","no.birth.reg","stunted",,,,,,,,2544000
"slhr61dt","higher","no.birth.reg","under5",,,,,,,,2544000
"slhr61dt","higher","no.birth.reg","urban",,,,,,,,2544000
"slhr61dt","higher","no.educ","no.skilled.attendant",1,85,38,0,35,0,0,977000
"slhr61dt","higher","no.educ","non.p20",5,77,46,0,28,4,0,2544000
"slhr61dt","higher","no.educ","p20",5,77,54,0,48,0,0,2544000
"slhr61dt","higher","no.educ","primary",5,77,23,0,0,5,0,2544000
"slhr61dt","higher","no.educ","rural",5,77,69,0,60,1,0,2544000
"slhr61dt","higher","no.educ","secondary",5,77,9,0,0,5,0,2544000
"slhr61dt","higher","no.educ","stunted",,,,,,,,2544000
"slhr61dt","higher","no.educ","under5",5,77,0,0,0,0,0,2544000
"slhr61dt","higher","no.educ","urban",5,77,31,0,16,4,0,2544000
"slhr61dt","higher","no.skilled.attendant","non.p20",1,38,40,0,10,1,0,977000
"slhr61dt","higher","no.skilled.attendant","p20",1,38,60,0,28,0,0,977000
"slhr61dt","higher","no.skilled.attendant","primary",1,38,15,0,3,1,0,977000
"slhr61dt","higher","no.skilled.attendant","rural",1,38,75,0,34,0,0,977000
"slhr61dt","higher","no.skilled.attendant","secondary",1,38,3,0,0,1,0,977000
"slhr61dt","higher","no.skilled.attendant","stunted",,,,,,,,977000
"slhr61dt","higher","no.skilled.attendant","under5",1,38,0,0,0,0,0,977000
"slhr61dt","higher","no.skilled.attendant","urban",1,38,25,0,4,1,0,977000
"slhr61dt","higher","non.p20","p20",5,46,54,4,0,0,0,2544000
"slhr61dt","higher","non.p20","primary",5,46,23,4,18,5,4,2544000
"slhr61dt","higher","non.p20","rural",5,46,69,4,17,1,1,2544000
"slhr61dt","higher","non.p20","secondary",5,46,9,4,8,5,4,2544000
"slhr61dt","higher","non.p20","stunted",,,,,,,,2544000
"slhr61dt","higher","non.p20","under5",5,46,0,4,0,0,0,2544000
"slhr61dt","higher","non.p20","urban",5,46,31,4,29,4,4,2544000
"slhr61dt","higher","p20","primary",5,54,23,0,6,5,0,2544000
"slhr61dt","higher","p20","rural",5,54,69,0,52,1,0,2544000
"slhr61dt","higher","p20","secondary",5,54,9,0,1,5,0,2544000
"slhr61dt","higher","p20","stunted",,,,,,,,2544000
"slhr61dt","higher","p20","under5",5,54,0,0,0,0,0,2544000
"slhr61dt","higher","p20","urban",5,54,31,0,2,4,0,2544000
"slhr61dt","higher","primary","rural",5,23,69,5,9,1,1,2544000
"slhr61dt","higher","primary","secondary",5,23,9,5,9,5,5,2544000
"slhr61dt","higher","primary","stunted",,,,,,,,2544000
"slhr61dt","higher","primary","under5",5,23,0,5,0,0,0,2544000
"slhr61dt","higher","primary","urban",5,23,31,5,15,4,4,2544000
"slhr61dt","higher","rural","secondary",5,69,9,1,2,5,1,2544000
"slhr61dt","higher","rural","stunted",,,,,,,,2544000
"slhr61dt","higher","rural","under5",5,69,0,1,0,0,0,2544000
"slhr61dt","higher","rural","urban",5,69,31,1,0,4,0,2544000
"slhr61dt","higher","secondary","stunted",,,,,,,,2544000
"slhr61dt","higher","secondary","under5",5,9,0,5,0,0,0,2544000
"slhr61dt","higher","secondary","urban",5,9,31,5,7,4,4,2544000
"slhr61dt","higher","stunted","under5",,,,,,,,2544000
"slhr61dt","higher","stunted","urban",,,,,,,,2544000
"slhr61dt","higher","under5","urban",5,0,31,0,0,4,0,2544000
"slhr61dt","male","no.birth.reg","no.educ",,,,,,,,2544000
"slhr61dt","male","no.birth.reg","no.skilled.attendant",,,,,,,,1123000
"slhr61dt","male","no.birth.reg","non.p20",49,23,40,12,8,20,4,1123000
"slhr61dt","male","no.birth.reg","p20",49,23,60,12,15,29,8,1123000
"slhr61dt","male","no.birth.reg","primary",,,,,,,,2544000
"slhr61dt","male","no.birth.reg","rural",49,23,75,12,18,37,9,1123000
"slhr61dt","male","no.birth.reg","secondary",,,,,,,,2544000
"slhr61dt","male","no.birth.reg","stunted",49,23,39,12,5,11,2,1123000
"slhr61dt","male","no.birth.reg","under5",49,23,100,12,23,49,12,1123000
"slhr61dt","male","no.birth.reg","urban",49,23,25,12,5,12,2,1123000
"slhr61dt","male","no.educ","no.skilled.attendant",0,85,38,0,35,0,0,977000
"slhr61dt","male","no.educ","non.p20",46,77,46,31,28,22,11,2544000
"slhr61dt","male","no.educ","p20",46,77,54,31,48,24,20,2544000
"slhr61dt","male","no.educ","primary",46,77,23,31,0,15,0,2544000
"slhr61dt","male","no.educ","rural",46,77,69,31,60,32,25,2544000
"slhr61dt","male","no.educ","secondary",46,77,9,31,0,6,0,2544000
"slhr61dt","male","no.educ","stunted",,,,,,,,2544000
"slhr61dt","male","no.educ","under5",46,77,0,31,0,0,0,2544000
"slhr61dt","male","no.educ","urban",46,77,31,31,16,15,6,2544000
"slhr61dt","male","no.skilled.attendant","non.p20",0,36,43,0,11,0,0,1675000
"slhr61dt","male","no.skilled.attendant","p20",0,36,57,0,25,0,0,1675000
"slhr61dt","male","no.skilled.attendant","primary",0,38,15,0,3,0,0,977000
"slhr61dt","male","no.skilled.attendant","rural",0,36,73,0,31,0,0,1675000
"slhr61dt","male","no.skilled.attendant","secondary",0,38,3,0,0,0,0,977000
"slhr61dt","male","no.skilled.attendant","stunted",,,,,,,,1123000
"slhr61dt","male","no.skilled.attendant","under5",0,36,0,0,0,0,0,1675000
"slhr61dt","male","no.skilled.attendant","urban",0,36,27,0,5,0,0,1675000
"slhr61dt","male","non.p20","p20",48,47,53,22,0,26,0,6923000
"slhr61dt","male","non.p20","primary",46,46,23,22,18,15,11,2544000
"slhr61dt","male","non.p20","rural",48,47,69,22,18,33,9,6923000
"slhr61dt","male","non.p20","secondary",46,46,9,22,8,6,5,2544000
"slhr61dt","male","non.p20","stunted",49,40,39,20,7,11,3,1123000
"slhr61dt","male","non.p20","under5",48,47,16,22,7,8,3,6923000
"slhr61dt","male","non.p20","urban",48,47,31,22,29,15,14,6923000
"slhr61dt","male","p20","primary",46,54,23,24,6,15,4,2544000
"slhr61dt","male","p20","rural",48,53,69,26,51,33,25,6923000
"slhr61dt","male","p20","secondary",46,54,9,24,1,6,1,2544000
"slhr61dt","male","p20","stunted",49,60,39,29,16,11,6,1123000
"slhr61dt","male","p20","under5",48,53,16,26,10,8,5,6923000
"slhr61dt","male","p20","urban",48,53,31,26,2,15,1,6923000
"slhr61dt","male","primary","rural",46,23,69,15,9,32,6,2544000
"slhr61dt","male","primary","secondary",46,23,9,15,9,6,6,2544000
"slhr61dt","male","primary","stunted",,,,,,,,2544000
"slhr61dt","male","primary","under5",46,23,0,15,0,0,0,2544000
"slhr61dt","male","primary","urban",46,23,31,15,15,15,9,2544000
"slhr61dt","male","rural","secondary",46,69,9,32,2,6,2,2544000
"slhr61dt","male","rural","stunted",49,75,39,37,23,11,8,1123000
"slhr61dt","male","rural","under5",48,69,16,33,12,8,6,6923000
"slhr61dt","male","rural","urban",48,69,31,33,0,15,0,6923000
"slhr61dt","male","secondary","stunted",,,,,,,,2544000
"slhr61dt","male","secondary","under5",46,9,0,6,0,0,0,2544000
"slhr61dt","male","secondary","urban",46,9,31,6,7,15,5,2544000
"slhr61dt","male","stunted","under5",49,39,100,11,39,49,11,1123000
"slhr61dt","male","stunted","urban",49,39,25,11,3,12,1,1123000
"slhr61dt","male","under5","urban",48,16,31,8,4,15,2,6923000
"slhr61dt","no.birth.reg","no.educ","no.skilled.attendant",,,,,,,,977000
"slhr61dt","no.birth.reg","no.educ","non.p20",,,,,,,,2544000
"slhr61dt","no.birth.reg","no.educ","p20",,,,,,,,2544000
"slhr61dt","no.birth.reg","no.educ","primary",,,,,,,,2544000
"slhr61dt","no.birth.reg","no.educ","rural",,,,,,,,2544000
"slhr61dt","no.birth.reg","no.educ","secondary",,,,,,,,2544000
"slhr61dt","no.birth.reg","no.educ","stunted",,,,,,,,2544000
"slhr61dt","no.birth.reg","no.educ","under5",,,,,,,,2544000
"slhr61dt","no.birth.reg","no.educ","urban",,,,,,,,2544000
"slhr61dt","no.birth.reg","no.skilled.attendant","non.p20",,,,,,,,1123000
"slhr61dt","no.birth.reg","no.skilled.attendant","p20",,,,,,,,1123000
"slhr61dt","no.birth.reg","no.skilled.attendant","primary",,,,,,,,977000
"slhr61dt","no.birth.reg","no.skilled.attendant","rural",,,,,,,,1123000
"slhr61dt","no.birth.reg","no.skilled.attendant","secondary",,,,,,,,977000
"slhr61dt","no.birth.reg","no.skilled.attendant","stunted",,,,,,,,1123000
"slhr61dt","no.birth.reg","no.skilled.attendant","under5",,,,,,,,1123000
"slhr61dt","no.birth.reg","no.skilled.attendant","urban",,,,,,,,1123000
"slhr61dt","no.birth.reg","non.p20","p20",23,40,60,8,0,15,0,1123000
"slhr61dt","no.birth.reg","non.p20","primary",,,,,,,,2544000
"slhr61dt","no.birth.reg","non.p20","rural",23,40,75,8,18,18,4,1123000
"slhr61dt","no.birth.reg","non.p20","secondary",,,,,,,,2544000
"slhr61dt","no.birth.reg","non.p20","stunted",23,40,39,8,7,5,2,1123000
"slhr61dt","no.birth.reg","non.p20","under5",23,40,100,8,40,23,8,1123000
"slhr61dt","no.birth.reg","non.p20","urban",23,40,25,8,22,5,4,1123000
"slhr61dt","no.birth.reg","p20","primary",,,,,,,,2544000
"slhr61dt","no.birth.reg","p20","rural",23,60,75,15,57,18,15,1123000
"slhr61dt","no.birth.reg","p20","secondary",,,,,,,,2544000
"slhr61dt","no.birth.reg","p20","stunted",23,60,39,15,16,5,3,1123000
"slhr61dt","no.birth.reg","p20","under5",23,60,100,15,60,23,15,1123000
"slhr61dt","no.birth.reg","p20","urban",23,60,25,15,2,5,1,1123000
"slhr61dt","no.birth.reg","primary","rural",,,,,,,,2544000
"slhr61dt","no.birth.reg","primary","secondary",,,,,,,,2544000
"slhr61dt","no.birth.reg","primary","stunted",,,,,,,,2544000
"slhr61dt","no.birth.reg","primary","under5",,,,,,,,2544000
"slhr61dt","no.birth.reg","primary","urban",,,,,,,,2544000
"slhr61dt","no.birth.reg","rural","secondary",,,,,,,,2544000
"slhr61dt","no.birth.reg","rural","stunted",23,75,39,18,23,5,4,1123000
"slhr61dt","no.birth.reg","rural","under5",23,75,100,18,75,23,18,1123000
"slhr61dt","no.birth.reg","rural","urban",23,75,25,18,0,5,0,1123000
"slhr61dt","no.birth.reg","secondary","stunted",,,,,,,,2544000
"slhr61dt","no.birth.reg","secondary","under5",,,,,,,,2544000
"slhr61dt","no.birth.reg","secondary","urban",,,,,,,,2544000
"slhr61dt","no.birth.reg","stunted","under5",23,39,100,5,39,23,5,1123000
"slhr61dt","no.birth.reg","stunted","urban",23,39,25,5,3,5,1,1123000
"slhr61dt","no.birth.reg","under5","urban",23,100,25,23,25,5,5,1123000
"slhr61dt","no.educ","no.skilled.attendant","non.p20",85,38,40,35,10,30,9,977000
"slhr61dt","no.educ","no.skilled.attendant","p20",85,38,60,35,28,55,26,977000
"slhr61dt","no.educ","no.skilled.attendant","primary",85,38,15,35,3,0,0,977000
"slhr61dt","no.educ","no.skilled.attendant","rural",85,38,75,35,34,69,31,977000
"slhr61dt","no.educ","no.skilled.attendant","secondary",85,38,3,35,0,0,0,977000
"slhr61dt","no.educ","no.skilled.attendant","stunted",,,,,,,,977000
"slhr61dt","no.educ","no.skilled.attendant","under5",85,38,0,35,0,0,0,977000
"slhr61dt","no.educ","no.skilled.attendant","urban",85,38,25,35,4,16,4,977000
"slhr61dt","no.educ","non.p20","p20",77,46,54,28,0,48,0,2544000
"slhr61dt","no.educ","non.p20","primary",77,46,23,28,18,0,0,2544000
"slhr61dt","no.educ","non.p20","rural",77,46,69,28,17,60,14,2544000
"slhr61dt","no.educ","non.p20","secondary",77,46,9,28,8,0,0,2544000
"slhr61dt","no.educ","non.p20","stunted",,,,,,,,2544000
"slhr61dt","no.educ","non.p20","under5",77,46,0,28,0,0,0,2544000
"slhr61dt","no.educ","non.p20","urban",77,46,31,28,29,16,14,2544000
"slhr61dt","no.educ","p20","primary",77,54,23,48,6,0,0,2544000
"slhr61dt","no.educ","p20","rural",77,54,69,48,52,60,46,2544000
"slhr61dt","no.educ","p20","secondary",77,54,9,48,1,0,0,2544000
"slhr61dt","no.educ","p20","stunted",,,,,,,,2544000
"slhr61dt","no.educ","p20","under5",77,54,0,48,0,0,0,2544000
"slhr61dt","no.educ","p20","urban",77,54,31,48,2,16,2,2544000
"slhr61dt","no.educ","primary","rural",77,23,69,0,9,60,0,2544000
"slhr61dt","no.educ","primary","secondary",77,23,9,0,9,0,0,2544000
"slhr61dt","no.educ","primary","stunted",,,,,,,,2544000
"slhr61dt","no.educ","primary","under5",77,23,0,0,0,0,0,2544000
"slhr61dt","no.educ","primary","urban",77,23,31,0,15,16,0,2544000
"slhr61dt","no.educ","rural","secondary",77,69,9,60,2,0,0,2544000
"slhr61dt","no.educ","rural","stunted",,,,,,,,2544000
"slhr61dt","no.educ","rural","under5",77,69,0,60,0,0,0,2544000
"slhr61dt","no.educ","rural","urban",77,69,31,60,0,16,0,2544000
"slhr61dt","no.educ","secondary","stunted",,,,,,,,2544000
"slhr61dt","no.educ","secondary","under5",77,9,0,0,0,0,0,2544000
"slhr61dt","no.educ","secondary","urban",77,9,31,0,7,16,0,2544000
"slhr61dt","no.educ","stunted","under5",,,,,,,,2544000
"slhr61dt","no.educ","stunted","urban",,,,,,,,2544000
"slhr61dt","no.educ","under5","urban",77,0,31,0,0,16,0,2544000
"slhr61dt","no.skilled.attendant","non.p20","p20",36,43,57,11,0,25,0,1675000
"slhr61dt","no.skilled.attendant","non.p20","primary",38,40,15,10,11,3,1,977000
"slhr61dt","no.skilled.attendant","non.p20","rural",36,43,73,11,18,31,7,1675000
"slhr61dt","no.skilled.attendant","non.p20","secondary",38,40,3,10,3,0,0,977000
"slhr61dt","no.skilled.attendant","non.p20","stunted",,,,,,,,1123000
"slhr61dt","no.skilled.attendant","non.p20","under5",36,43,0,11,0,0,0,1675000
"slhr61dt","no.skilled.attendant","non.p20","urban",36,43,27,11,25,5,4,1675000
"slhr61dt","no.skilled.attendant","p20","primary",38,60,15,28,4,3,2,977000
"slhr61dt","no.skilled.attendant","p20","rural",36,57,73,25,55,31,24,1675000
"slhr61dt","no.skilled.attendant","p20","secondary",38,60,3,28,0,0,0,977000
"slhr61dt","no.skilled.attendant","p20","stunted",,,,,,,,1123000
"slhr61dt","no.skilled.attendant","p20","under5",36,57,0,25,0,0,0,1675000
"slhr61dt","no.skilled.attendant","p20","urban",36,57,27,25,2,5,1,1675000
"slhr61dt","no.skilled.attendant","primary","rural",38,15,75,3,6,34,2,977000
"slhr61dt","no.skilled.attendant","primary","secondary",38,15,3,3,3,0,0,977000
"slhr61dt","no.skilled.attendant","primary","stunted",,,,,,,,977000
"slhr61dt","no.skilled.attendant","primary","under5",38,15,0,3,0,0,0,977000
"slhr61dt","no.skilled.attendant","primary","urban",38,15,25,3,9,4,1,977000
"slhr61dt","no.skilled.attendant","rural","secondary",38,75,3,34,0,0,0,977000
"slhr61dt","no.skilled.attendant","rural","stunted",,,,,,,,1123000
"slhr61dt","no.skilled.attendant","rural","under5",36,73,0,31,0,0,0,1675000
"slhr61dt","no.skilled.attendant","rural","urban",36,73,27,31,0,5,0,1675000
"slhr61dt","no.skilled.attendant","secondary","stunted",,,,,,,,977000
"slhr61dt","no.skilled.attendant","secondary","under5",38,3,0,0,0,0,0,977000
"slhr61dt","no.skilled.attendant","secondary","urban",38,3,25,0,3,4,0,977000
"slhr61dt","no.skilled.attendant","stunted","under5",,,,,,,,1123000
"slhr61dt","no.skilled.attendant","stunted","urban",,,,,,,,1123000
"slhr61dt","no.skilled.attendant","under5","urban",36,0,27,0,0,5,0,1675000
"slhr61dt","non.p20","p20","primary",46,54,23,0,6,18,0,2544000
"slhr61dt","non.p20","p20","rural",47,53,69,0,51,18,0,6923000
"slhr61dt","non.p20","p20","secondary",46,54,9,0,1,8,0,2544000
"slhr61dt","non.p20","p20","stunted",40,60,39,0,16,7,0,1123000
"slhr61dt","non.p20","p20","under5",47,53,16,0,10,7,0,6923000
"slhr61dt","non.p20","p20","urban",47,53,31,0,2,29,0,6923000
"slhr61dt","non.p20","primary","rural",46,23,69,18,9,17,3,2544000
"slhr61dt","non.p20","primary","secondary",46,23,9,18,9,8,8,2544000
"slhr61dt","non.p20","primary","stunted",,,,,,,,2544000
"slhr61dt","non.p20","primary","under5",46,23,0,18,0,0,0,2544000
"slhr61dt","non.p20","primary","urban",46,23,31,18,15,29,14,2544000
"slhr61dt","non.p20","rural","secondary",46,69,9,17,2,8,1,2544000
"slhr61dt","non.p20","rural","stunted",40,75,39,18,23,7,3,1123000
"slhr61dt","non.p20","rural","under5",47,69,16,18,12,7,3,6923000
"slhr61dt","non.p20","rural","urban",47,69,31,18,0,29,0,6923000
"slhr61dt","non.p20","secondary","stunted",,,,,,,,2544000
"slhr61dt","non.p20","secondary","under5",46,9,0,8,0,0,0,2544000
"slhr61dt","non.p20","secondary","urban",46,9,31,8,7,29,7,2544000
"slhr61dt","non.p20","stunted","under5",40,39,100,7,39,40,7,1123000
"slhr61dt","non.p20","stunted","urban",40,39,25,7,3,22,3,1123000
"slhr61dt","non.p20","under5","urban",47,16,31,7,4,29,4,6923000
"slhr61dt","p20","primary","rural",54,23,69,6,9,52,5,2544000
"slhr61dt","p20","primary","secondary",54,23,9,6,9,1,1,2544000
"slhr61dt","p20","primary","stunted",,,,,,,,2544000
"slhr61dt","p20","primary","under5",54,23,0,6,0,0,0,2544000
"slhr61dt","p20","primary","urban",54,23,31,6,15,2,0,2544000
"slhr61dt","p20","rural","secondary",54,69,9,52,2,1,1,2544000
"slhr61dt","p20","rural","stunted",60,75,39,57,23,16,15,1123000
"slhr61dt","p20","rural","under5",53,69,16,51,12,10,9,6923000
"slhr61dt","p20","rural","urban",53,69,31,51,0,2,0,6923000
"slhr61dt","p20","secondary","stunted",,,,,,,,2544000
"slhr61dt","p20","secondary","under5",54,9,0,1,0,0,0,2544000
"slhr61dt","p20","secondary","urban",54,9,31,1,7,2,0,2544000
"slhr61dt","p20","stunted","under5",60,39,100,16,39,60,16,1123000
"slhr61dt","p20","stunted","urban",60,39,25,16,3,2,0,1123000
"slhr61dt","p20","under5","urban",53,16,31,10,4,2,0,6923000
"slhr61dt","primary","rural","secondary",23,69,9,9,2,9,2,2544000
"slhr61dt","primary","rural","stunted",,,,,,,,2544000
"slhr61dt","primary","rural","under5",23,69,0,9,0,0,0,2544000
"slhr61dt","primary","rural","urban",23,69,31,9,0,15,0,2544000
"slhr61dt","primary","secondary","stunted",,,,,,,,2544000
"slhr61dt","primary","secondary","under5",23,9,0,9,0,0,0,2544000
"slhr61dt","primary","secondary","urban",23,9,31,9,7,15,7,2544000
"slhr61dt","primary","stunted","under5",,,,,,,,2544000
"slhr61dt","primary","stunted","urban",,,,,,,,2544000
"slhr61dt","primary","under5","urban",23,0,31,0,0,15,0,2544000
"slhr61dt","rural","secondary","stunted",,,,,,,,2544000
"slhr61dt","rural","secondary","under5",69,9,0,2,0,0,0,2544000
"slhr61dt","rural","secondary","urban",69,9,31,2,7,0,0,2544000
"slhr61dt","rural","stunted","under5",75,39,100,23,39,75,23,1123000
"slhr61dt","rural","stunted","urban",75,39,25,23,3,0,0,1123000
"slhr61dt","rural","under5","urban",69,16,31,12,4,0,0,6923000
"slhr61dt","secondary","stunted","under5",,,,,,,,2544000
"slhr61dt","secondary","stunted","urban",,,,,,,,2544000
"slhr61dt","secondary","under5","urban",9,0,31,0,0,7,0,2544000
"slhr61dt","stunted","under5","urban",39,100,25,39,25,3,3,1123000
