"filename","indicator1","indicator2","indicator3","X","Y","Z","X,Y","Y,Z","X,Z","X,Y,Z","pop"
"Swaziland_MICS5_Datasets","blank1","blank2","ext",100,100,49,100,49,49,49,1269000
"Swaziland_MICS5_Datasets","blank1","blank2","female",100,100,52,100,52,52,52,1269000
"Swaziland_MICS5_Datasets","blank1","blank2","fifteento49",100,100,48,100,48,48,48,1269000
"Swaziland_MICS5_Datasets","blank1","blank2","fiveto14",100,100,27,100,27,27,27,1269000
"Swaziland_MICS5_Datasets","blank1","blank2","gt49",100,100,13,100,13,13,13,1269000
"Swaziland_MICS5_Datasets","blank1","blank2","higher",100,100,36,100,36,36,36,485000
"Swaziland_MICS5_Datasets","blank1","blank2","male",100,100,48,100,48,48,48,1269000
"Swaziland_MICS5_Datasets","blank1","blank2","no.birth.reg",100,100,47,100,47,47,47,175000
"Swaziland_MICS5_Datasets","blank1","blank2","no.educ",100,100,25,100,25,25,25,485000
"Swaziland_MICS5_Datasets","blank1","blank2","no.skilled.attendant",100,100,12,100,12,12,12,340000
"Swaziland_MICS5_Datasets","blank1","blank2","non.p20",100,100,36,100,36,36,36,1269000
"Swaziland_MICS5_Datasets","blank1","blank2","p20",100,100,64,100,64,64,64,1269000
"Swaziland_MICS5_Datasets","blank1","blank2","primary",100,100,75,100,75,75,75,485000
"Swaziland_MICS5_Datasets","blank1","blank2","rural",100,100,73,100,73,73,73,1269000
"Swaziland_MICS5_Datasets","blank1","blank2","secondary",100,100,58,100,58,58,58,485000
"Swaziland_MICS5_Datasets","blank1","blank2","stunted",100,100,26,100,26,26,26,175000
"Swaziland_MICS5_Datasets","blank1","blank2","under5",100,100,13,100,13,13,13,1269000
"Swaziland_MICS5_Datasets","blank1","blank2","urban",100,100,27,100,27,27,27,1269000
"Swaziland_MICS5_Datasets","blank1","ext","female",100,49,52,49,26,52,26,1269000
"Swaziland_MICS5_Datasets","blank1","ext","fifteento49",100,49,48,49,20,48,20,1269000
"Swaziland_MICS5_Datasets","blank1","ext","fiveto14",100,49,27,49,15,27,15,1269000
"Swaziland_MICS5_Datasets","blank1","ext","gt49",100,49,13,49,7,13,7,1269000
"Swaziland_MICS5_Datasets","blank1","ext","higher",100,42,36,42,5,36,5,485000
"Swaziland_MICS5_Datasets","blank1","ext","male",100,49,48,49,23,48,23,1269000
"Swaziland_MICS5_Datasets","blank1","ext","no.birth.reg",100,56,47,56,31,47,31,175000
"Swaziland_MICS5_Datasets","blank1","ext","no.educ",100,42,25,42,19,25,19,485000
"Swaziland_MICS5_Datasets","blank1","ext","no.skilled.attendant",100,54,12,54,9,12,9,340000
"Swaziland_MICS5_Datasets","blank1","ext","non.p20",100,49,36,49,0,36,0,1269000
"Swaziland_MICS5_Datasets","blank1","ext","p20",100,49,64,49,49,64,49,1269000
"Swaziland_MICS5_Datasets","blank1","ext","primary",100,42,75,42,24,75,24,485000
"Swaziland_MICS5_Datasets","blank1","ext","rural",100,49,73,49,46,73,46,1269000
"Swaziland_MICS5_Datasets","blank1","ext","secondary",100,42,58,42,14,58,14,485000
"Swaziland_MICS5_Datasets","blank1","ext","stunted",100,56,26,56,18,26,18,175000
"Swaziland_MICS5_Datasets","blank1","ext","under5",100,49,13,49,7,13,7,1269000
"Swaziland_MICS5_Datasets","blank1","ext","urban",100,49,27,49,3,27,3,1269000
"Swaziland_MICS5_Datasets","blank1","female","fifteento49",100,52,48,52,25,48,25,1269000
"Swaziland_MICS5_Datasets","blank1","female","fiveto14",100,52,27,52,14,27,14,1269000
"Swaziland_MICS5_Datasets","blank1","female","gt49",100,52,13,52,8,13,8,1269000
"Swaziland_MICS5_Datasets","blank1","female","higher",100,56,36,56,17,36,17,485000
"Swaziland_MICS5_Datasets","blank1","female","male",100,52,48,52,0,48,0,1269000
"Swaziland_MICS5_Datasets","blank1","female","no.birth.reg",100,49,47,49,21,47,21,175000
"Swaziland_MICS5_Datasets","blank1","female","no.educ",100,56,25,56,15,25,15,485000
"Swaziland_MICS5_Datasets","blank1","female","no.skilled.attendant",100,100,12,100,12,12,12,340000
"Swaziland_MICS5_Datasets","blank1","female","non.p20",100,52,36,52,18,36,18,1269000
"Swaziland_MICS5_Datasets","blank1","female","p20",100,52,64,52,34,64,34,1269000
"Swaziland_MICS5_Datasets","blank1","female","primary",100,56,75,56,41,75,41,485000
"Swaziland_MICS5_Datasets","blank1","female","rural",100,52,73,52,38,73,38,1269000
"Swaziland_MICS5_Datasets","blank1","female","secondary",100,56,58,56,31,58,31,485000
"Swaziland_MICS5_Datasets","blank1","female","stunted",100,49,26,49,11,26,11,175000
"Swaziland_MICS5_Datasets","blank1","female","under5",100,52,13,52,6,13,6,1269000
"Swaziland_MICS5_Datasets","blank1","female","urban",100,52,27,52,14,27,14,1269000
"Swaziland_MICS5_Datasets","blank1","fifteento49","fiveto14",100,48,27,48,0,27,0,1269000
"Swaziland_MICS5_Datasets","blank1","fifteento49","gt49",100,48,13,48,0,13,0,1269000
"Swaziland_MICS5_Datasets","blank1","fifteento49","higher",100,69,36,69,30,36,30,485000
"Swaziland_MICS5_Datasets","blank1","fifteento49","male",100,48,48,48,23,48,23,1269000
"Swaziland_MICS5_Datasets","blank1","fifteento49","no.birth.reg",100,0,47,0,0,47,0,175000
"Swaziland_MICS5_Datasets","blank1","fifteento49","no.educ",100,69,25,69,10,25,10,485000
"Swaziland_MICS5_Datasets","blank1","fifteento49","no.skilled.attendant",100,100,12,100,12,12,12,340000
"Swaziland_MICS5_Datasets","blank1","fifteento49","non.p20",100,48,36,48,21,36,21,1269000
"Swaziland_MICS5_Datasets","blank1","fifteento49","p20",100,48,64,48,27,64,27,1269000
"Swaziland_MICS5_Datasets","blank1","fifteento49","primary",100,69,75,69,59,75,59,485000
"Swaziland_MICS5_Datasets","blank1","fifteento49","rural",100,48,73,48,32,73,32,1269000
"Swaziland_MICS5_Datasets","blank1","fifteento49","secondary",100,69,58,69,48,58,48,485000
"Swaziland_MICS5_Datasets","blank1","fifteento49","stunted",100,0,26,0,0,26,0,175000
"Swaziland_MICS5_Datasets","blank1","fifteento49","under5",100,48,13,48,0,13,0,1269000
"Swaziland_MICS5_Datasets","blank1","fifteento49","urban",100,48,27,48,16,27,16,1269000
"Swaziland_MICS5_Datasets","blank1","fiveto14","gt49",100,27,13,27,0,13,0,1269000
"Swaziland_MICS5_Datasets","blank1","fiveto14","higher",100,0,36,0,0,36,0,485000
"Swaziland_MICS5_Datasets","blank1","fiveto14","male",100,27,48,27,13,48,13,1269000
"Swaziland_MICS5_Datasets","blank1","fiveto14","no.birth.reg",100,0,47,0,0,47,0,175000
"Swaziland_MICS5_Datasets","blank1","fiveto14","no.educ",100,0,25,0,0,25,0,485000
"Swaziland_MICS5_Datasets","blank1","fiveto14","no.skilled.attendant",100,0,12,0,0,12,0,340000
"Swaziland_MICS5_Datasets","blank1","fiveto14","non.p20",100,27,36,27,8,36,8,1269000
"Swaziland_MICS5_Datasets","blank1","fiveto14","p20",100,27,64,27,19,64,19,1269000
"Swaziland_MICS5_Datasets","blank1","fiveto14","primary",100,0,75,0,0,75,0,485000
"Swaziland_MICS5_Datasets","blank1","fiveto14","rural",100,27,73,27,22,73,22,1269000
"Swaziland_MICS5_Datasets","blank1","fiveto14","secondary",100,0,58,0,0,58,0,485000
"Swaziland_MICS5_Datasets","blank1","fiveto14","stunted",100,0,26,0,0,26,0,175000
"Swaziland_MICS5_Datasets","blank1","fiveto14","under5",100,27,13,27,0,13,0,1269000
"Swaziland_MICS5_Datasets","blank1","fiveto14","urban",100,27,27,27,5,27,5,1269000
"Swaziland_MICS5_Datasets","blank1","gt49","higher",100,31,36,31,5,36,5,485000
"Swaziland_MICS5_Datasets","blank1","gt49","male",100,13,48,13,5,48,5,1269000
"Swaziland_MICS5_Datasets","blank1","gt49","no.birth.reg",100,0,47,0,0,47,0,175000
"Swaziland_MICS5_Datasets","blank1","gt49","no.educ",100,31,25,31,15,25,15,485000
"Swaziland_MICS5_Datasets","blank1","gt49","no.skilled.attendant",100,0,12,0,0,12,0,340000
"Swaziland_MICS5_Datasets","blank1","gt49","non.p20",100,13,36,13,4,36,4,1269000
"Swaziland_MICS5_Datasets","blank1","gt49","p20",100,13,64,13,9,64,9,1269000
"Swaziland_MICS5_Datasets","blank1","gt49","primary",100,31,75,31,16,75,16,485000
"Swaziland_MICS5_Datasets","blank1","gt49","rural",100,13,73,13,10,73,10,1269000
"Swaziland_MICS5_Datasets","blank1","gt49","secondary",100,31,58,31,10,58,10,485000
"Swaziland_MICS5_Datasets","blank1","gt49","stunted",100,0,26,0,0,26,0,175000
"Swaziland_MICS5_Datasets","blank1","gt49","under5",100,13,13,13,0,13,0,1269000
"Swaziland_MICS5_Datasets","blank1","gt49","urban",100,13,27,13,3,27,3,1269000
"Swaziland_MICS5_Datasets","blank1","higher","male",100,36,44,36,19,44,19,485000
"Swaziland_MICS5_Datasets","blank1","higher","no.birth.reg",,,,,,,,485000
"Swaziland_MICS5_Datasets","blank1","higher","no.educ",100,36,25,36,0,25,0,485000
"Swaziland_MICS5_Datasets","blank1","higher","no.skilled.attendant",100,36,12,36,1,12,1,192000
"Swaziland_MICS5_Datasets","blank1","higher","non.p20",100,36,44,36,26,44,26,485000
"Swaziland_MICS5_Datasets","blank1","higher","p20",100,36,56,36,9,56,9,485000
"Swaziland_MICS5_Datasets","blank1","higher","primary",100,36,75,36,36,75,36,485000
"Swaziland_MICS5_Datasets","blank1","higher","rural",100,36,67,36,18,67,18,485000
"Swaziland_MICS5_Datasets","blank1","higher","secondary",100,36,58,36,36,58,36,485000
"Swaziland_MICS5_Datasets","blank1","higher","stunted",,,,,,,,485000
"Swaziland_MICS5_Datasets","blank1","higher","under5",100,36,0,36,0,0,0,485000
"Swaziland_MICS5_Datasets","blank1","higher","urban",100,36,33,36,18,33,18,485000
"Swaziland_MICS5_Datasets","blank1","male","no.birth.reg",100,51,47,51,25,47,25,175000
"Swaziland_MICS5_Datasets","blank1","male","no.educ",100,44,25,44,10,25,10,485000
"Swaziland_MICS5_Datasets","blank1","male","no.skilled.attendant",100,0,12,0,0,12,0,340000
"Swaziland_MICS5_Datasets","blank1","male","non.p20",100,48,36,48,17,36,17,1269000
"Swaziland_MICS5_Datasets","blank1","male","p20",100,48,64,48,31,64,31,1269000
"Swaziland_MICS5_Datasets","blank1","male","primary",100,44,75,44,34,75,34,485000
"Swaziland_MICS5_Datasets","blank1","male","rural",100,48,73,48,35,73,35,1269000
"Swaziland_MICS5_Datasets","blank1","male","secondary",100,44,58,44,27,58,27,485000
"Swaziland_MICS5_Datasets","blank1","male","stunted",100,51,26,51,15,26,15,175000
"Swaziland_MICS5_Datasets","blank1","male","under5",100,48,13,48,6,13,6,1269000
"Swaziland_MICS5_Datasets","blank1","male","urban",100,48,27,48,13,27,13,1269000
"Swaziland_MICS5_Datasets","blank1","no.birth.reg","no.educ",,,,,,,,485000
"Swaziland_MICS5_Datasets","blank1","no.birth.reg","no.skilled.attendant",,,,,,,,175000
"Swaziland_MICS5_Datasets","blank1","no.birth.reg","non.p20",100,47,30,47,9,30,9,175000
"Swaziland_MICS5_Datasets","blank1","no.birth.reg","p20",100,47,70,47,37,70,37,175000
"Swaziland_MICS5_Datasets","blank1","no.birth.reg","primary",,,,,,,,485000
"Swaziland_MICS5_Datasets","blank1","no.birth.reg","rural",100,47,77,47,38,77,38,175000
"Swaziland_MICS5_Datasets","blank1","no.birth.reg","secondary",,,,,,,,485000
"Swaziland_MICS5_Datasets","blank1","no.birth.reg","stunted",100,47,26,47,14,26,14,175000
"Swaziland_MICS5_Datasets","blank1","no.birth.reg","under5",100,47,100,47,47,100,47,175000
"Swaziland_MICS5_Datasets","blank1","no.birth.reg","urban",100,47,23,47,8,23,8,175000
"Swaziland_MICS5_Datasets","blank1","no.educ","no.skilled.attendant",100,15,12,15,4,12,4,192000
"Swaziland_MICS5_Datasets","blank1","no.educ","non.p20",100,25,44,25,4,44,4,485000
"Swaziland_MICS5_Datasets","blank1","no.educ","p20",100,25,56,25,21,56,21,485000
"Swaziland_MICS5_Datasets","blank1","no.educ","primary",100,25,75,25,0,75,0,485000
"Swaziland_MICS5_Datasets","blank1","no.educ","rural",100,25,67,25,21,67,21,485000
"Swaziland_MICS5_Datasets","blank1","no.educ","secondary",100,25,58,25,0,58,0,485000
"Swaziland_MICS5_Datasets","blank1","no.educ","stunted",,,,,,,,485000
"Swaziland_MICS5_Datasets","blank1","no.educ","under5",100,25,0,25,0,0,0,485000
"Swaziland_MICS5_Datasets","blank1","no.educ","urban",100,25,33,25,3,33,3,485000
"Swaziland_MICS5_Datasets","blank1","no.skilled.attendant","non.p20",100,12,33,12,2,33,2,340000
"Swaziland_MICS5_Datasets","blank1","no.skilled.attendant","p20",100,12,67,12,10,67,10,340000
"Swaziland_MICS5_Datasets","blank1","no.skilled.attendant","primary",100,12,85,12,8,85,8,192000
"Swaziland_MICS5_Datasets","blank1","no.skilled.attendant","rural",100,12,73,12,10,73,10,340000
"Swaziland_MICS5_Datasets","blank1","no.skilled.attendant","secondary",100,12,69,12,6,69,6,192000
"Swaziland_MICS5_Datasets","blank1","no.skilled.attendant","stunted",,,,,,,,175000
"Swaziland_MICS5_Datasets","blank1","no.skilled.attendant","under5",100,12,0,12,0,0,0,340000
"Swaziland_MICS5_Datasets","blank1","no.skilled.attendant","urban",100,12,27,12,2,27,2,340000
"Swaziland_MICS5_Datasets","blank1","non.p20","p20",100,36,64,36,0,64,0,1269000
"Swaziland_MICS5_Datasets","blank1","non.p20","primary",100,44,75,44,40,75,40,485000
"Swaziland_MICS5_Datasets","blank1","non.p20","rural",100,36,73,36,15,73,15,1269000
"Swaziland_MICS5_Datasets","blank1","non.p20","secondary",100,44,58,44,36,58,36,485000
"Swaziland_MICS5_Datasets","blank1","non.p20","stunted",100,30,26,30,4,26,4,175000
"Swaziland_MICS5_Datasets","blank1","non.p20","under5",100,36,13,36,4,13,4,1269000
"Swaziland_MICS5_Datasets","blank1","non.p20","urban",100,36,27,36,21,27,21,1269000
"Swaziland_MICS5_Datasets","blank1","p20","primary",100,56,75,56,35,75,35,485000
"Swaziland_MICS5_Datasets","blank1","p20","rural",100,64,73,64,59,73,59,1269000
"Swaziland_MICS5_Datasets","blank1","p20","secondary",100,56,58,56,23,58,23,485000
"Swaziland_MICS5_Datasets","blank1","p20","stunted",100,70,26,70,21,26,21,175000
"Swaziland_MICS5_Datasets","blank1","p20","under5",100,64,13,64,9,13,9,1269000
"Swaziland_MICS5_Datasets","blank1","p20","urban",100,64,27,64,5,27,5,1269000
"Swaziland_MICS5_Datasets","blank1","primary","rural",100,75,67,75,45,67,45,485000
"Swaziland_MICS5_Datasets","blank1","primary","secondary",100,75,58,75,58,58,58,485000
"Swaziland_MICS5_Datasets","blank1","primary","stunted",,,,,,,,485000
"Swaziland_MICS5_Datasets","blank1","primary","under5",100,75,0,75,0,0,0,485000
"Swaziland_MICS5_Datasets","blank1","primary","urban",100,75,33,75,29,33,29,485000
"Swaziland_MICS5_Datasets","blank1","rural","secondary",100,67,58,67,33,58,33,485000
"Swaziland_MICS5_Datasets","blank1","rural","stunted",100,77,26,77,21,26,21,175000
"Swaziland_MICS5_Datasets","blank1","rural","under5",100,73,13,73,10,13,10,1269000
"Swaziland_MICS5_Datasets","blank1","rural","urban",100,73,27,73,0,27,0,1269000
"Swaziland_MICS5_Datasets","blank1","secondary","stunted",,,,,,,,485000
"Swaziland_MICS5_Datasets","blank1","secondary","under5",100,58,0,58,0,0,0,485000
"Swaziland_MICS5_Datasets","blank1","secondary","urban",100,58,33,58,26,33,26,485000
"Swaziland_MICS5_Datasets","blank1","stunted","under5",100,26,100,26,26,100,26,175000
"Swaziland_MICS5_Datasets","blank1","stunted","urban",100,26,23,26,4,23,4,175000
"Swaziland_MICS5_Datasets","blank1","under5","urban",100,13,27,13,3,27,3,1269000
"Swaziland_MICS5_Datasets","blank2","ext","female",100,49,52,49,26,52,26,1269000
"Swaziland_MICS5_Datasets","blank2","ext","fifteento49",100,49,48,49,20,48,20,1269000
"Swaziland_MICS5_Datasets","blank2","ext","fiveto14",100,49,27,49,15,27,15,1269000
"Swaziland_MICS5_Datasets","blank2","ext","gt49",100,49,13,49,7,13,7,1269000
"Swaziland_MICS5_Datasets","blank2","ext","higher",100,42,36,42,5,36,5,485000
"Swaziland_MICS5_Datasets","blank2","ext","male",100,49,48,49,23,48,23,1269000
"Swaziland_MICS5_Datasets","blank2","ext","no.birth.reg",100,56,47,56,31,47,31,175000
"Swaziland_MICS5_Datasets","blank2","ext","no.educ",100,42,25,42,19,25,19,485000
"Swaziland_MICS5_Datasets","blank2","ext","no.skilled.attendant",100,54,12,54,9,12,9,340000
"Swaziland_MICS5_Datasets","blank2","ext","non.p20",100,49,36,49,0,36,0,1269000
"Swaziland_MICS5_Datasets","blank2","ext","p20",100,49,64,49,49,64,49,1269000
"Swaziland_MICS5_Datasets","blank2","ext","primary",100,42,75,42,24,75,24,485000
"Swaziland_MICS5_Datasets","blank2","ext","rural",100,49,73,49,46,73,46,1269000
"Swaziland_MICS5_Datasets","blank2","ext","secondary",100,42,58,42,14,58,14,485000
"Swaziland_MICS5_Datasets","blank2","ext","stunted",100,56,26,56,18,26,18,175000
"Swaziland_MICS5_Datasets","blank2","ext","under5",100,49,13,49,7,13,7,1269000
"Swaziland_MICS5_Datasets","blank2","ext","urban",100,49,27,49,3,27,3,1269000
"Swaziland_MICS5_Datasets","blank2","female","fifteento49",100,52,48,52,25,48,25,1269000
"Swaziland_MICS5_Datasets","blank2","female","fiveto14",100,52,27,52,14,27,14,1269000
"Swaziland_MICS5_Datasets","blank2","female","gt49",100,52,13,52,8,13,8,1269000
"Swaziland_MICS5_Datasets","blank2","female","higher",100,56,36,56,17,36,17,485000
"Swaziland_MICS5_Datasets","blank2","female","male",100,52,48,52,0,48,0,1269000
"Swaziland_MICS5_Datasets","blank2","female","no.birth.reg",100,49,47,49,21,47,21,175000
"Swaziland_MICS5_Datasets","blank2","female","no.educ",100,56,25,56,15,25,15,485000
"Swaziland_MICS5_Datasets","blank2","female","no.skilled.attendant",100,100,12,100,12,12,12,340000
"Swaziland_MICS5_Datasets","blank2","female","non.p20",100,52,36,52,18,36,18,1269000
"Swaziland_MICS5_Datasets","blank2","female","p20",100,52,64,52,34,64,34,1269000
"Swaziland_MICS5_Datasets","blank2","female","primary",100,56,75,56,41,75,41,485000
"Swaziland_MICS5_Datasets","blank2","female","rural",100,52,73,52,38,73,38,1269000
"Swaziland_MICS5_Datasets","blank2","female","secondary",100,56,58,56,31,58,31,485000
"Swaziland_MICS5_Datasets","blank2","female","stunted",100,49,26,49,11,26,11,175000
"Swaziland_MICS5_Datasets","blank2","female","under5",100,52,13,52,6,13,6,1269000
"Swaziland_MICS5_Datasets","blank2","female","urban",100,52,27,52,14,27,14,1269000
"Swaziland_MICS5_Datasets","blank2","fifteento49","fiveto14",100,48,27,48,0,27,0,1269000
"Swaziland_MICS5_Datasets","blank2","fifteento49","gt49",100,48,13,48,0,13,0,1269000
"Swaziland_MICS5_Datasets","blank2","fifteento49","higher",100,69,36,69,30,36,30,485000
"Swaziland_MICS5_Datasets","blank2","fifteento49","male",100,48,48,48,23,48,23,1269000
"Swaziland_MICS5_Datasets","blank2","fifteento49","no.birth.reg",100,0,47,0,0,47,0,175000
"Swaziland_MICS5_Datasets","blank2","fifteento49","no.educ",100,69,25,69,10,25,10,485000
"Swaziland_MICS5_Datasets","blank2","fifteento49","no.skilled.attendant",100,100,12,100,12,12,12,340000
"Swaziland_MICS5_Datasets","blank2","fifteento49","non.p20",100,48,36,48,21,36,21,1269000
"Swaziland_MICS5_Datasets","blank2","fifteento49","p20",100,48,64,48,27,64,27,1269000
"Swaziland_MICS5_Datasets","blank2","fifteento49","primary",100,69,75,69,59,75,59,485000
"Swaziland_MICS5_Datasets","blank2","fifteento49","rural",100,48,73,48,32,73,32,1269000
"Swaziland_MICS5_Datasets","blank2","fifteento49","secondary",100,69,58,69,48,58,48,485000
"Swaziland_MICS5_Datasets","blank2","fifteento49","stunted",100,0,26,0,0,26,0,175000
"Swaziland_MICS5_Datasets","blank2","fifteento49","under5",100,48,13,48,0,13,0,1269000
"Swaziland_MICS5_Datasets","blank2","fifteento49","urban",100,48,27,48,16,27,16,1269000
"Swaziland_MICS5_Datasets","blank2","fiveto14","gt49",100,27,13,27,0,13,0,1269000
"Swaziland_MICS5_Datasets","blank2","fiveto14","higher",100,0,36,0,0,36,0,485000
"Swaziland_MICS5_Datasets","blank2","fiveto14","male",100,27,48,27,13,48,13,1269000
"Swaziland_MICS5_Datasets","blank2","fiveto14","no.birth.reg",100,0,47,0,0,47,0,175000
"Swaziland_MICS5_Datasets","blank2","fiveto14","no.educ",100,0,25,0,0,25,0,485000
"Swaziland_MICS5_Datasets","blank2","fiveto14","no.skilled.attendant",100,0,12,0,0,12,0,340000
"Swaziland_MICS5_Datasets","blank2","fiveto14","non.p20",100,27,36,27,8,36,8,1269000
"Swaziland_MICS5_Datasets","blank2","fiveto14","p20",100,27,64,27,19,64,19,1269000
"Swaziland_MICS5_Datasets","blank2","fiveto14","primary",100,0,75,0,0,75,0,485000
"Swaziland_MICS5_Datasets","blank2","fiveto14","rural",100,27,73,27,22,73,22,1269000
"Swaziland_MICS5_Datasets","blank2","fiveto14","secondary",100,0,58,0,0,58,0,485000
"Swaziland_MICS5_Datasets","blank2","fiveto14","stunted",100,0,26,0,0,26,0,175000
"Swaziland_MICS5_Datasets","blank2","fiveto14","under5",100,27,13,27,0,13,0,1269000
"Swaziland_MICS5_Datasets","blank2","fiveto14","urban",100,27,27,27,5,27,5,1269000
"Swaziland_MICS5_Datasets","blank2","gt49","higher",100,31,36,31,5,36,5,485000
"Swaziland_MICS5_Datasets","blank2","gt49","male",100,13,48,13,5,48,5,1269000
"Swaziland_MICS5_Datasets","blank2","gt49","no.birth.reg",100,0,47,0,0,47,0,175000
"Swaziland_MICS5_Datasets","blank2","gt49","no.educ",100,31,25,31,15,25,15,485000
"Swaziland_MICS5_Datasets","blank2","gt49","no.skilled.attendant",100,0,12,0,0,12,0,340000
"Swaziland_MICS5_Datasets","blank2","gt49","non.p20",100,13,36,13,4,36,4,1269000
"Swaziland_MICS5_Datasets","blank2","gt49","p20",100,13,64,13,9,64,9,1269000
"Swaziland_MICS5_Datasets","blank2","gt49","primary",100,31,75,31,16,75,16,485000
"Swaziland_MICS5_Datasets","blank2","gt49","rural",100,13,73,13,10,73,10,1269000
"Swaziland_MICS5_Datasets","blank2","gt49","secondary",100,31,58,31,10,58,10,485000
"Swaziland_MICS5_Datasets","blank2","gt49","stunted",100,0,26,0,0,26,0,175000
"Swaziland_MICS5_Datasets","blank2","gt49","under5",100,13,13,13,0,13,0,1269000
"Swaziland_MICS5_Datasets","blank2","gt49","urban",100,13,27,13,3,27,3,1269000
"Swaziland_MICS5_Datasets","blank2","higher","male",100,36,44,36,19,44,19,485000
"Swaziland_MICS5_Datasets","blank2","higher","no.birth.reg",,,,,,,,485000
"Swaziland_MICS5_Datasets","blank2","higher","no.educ",100,36,25,36,0,25,0,485000
"Swaziland_MICS5_Datasets","blank2","higher","no.skilled.attendant",100,36,12,36,1,12,1,192000
"Swaziland_MICS5_Datasets","blank2","higher","non.p20",100,36,44,36,26,44,26,485000
"Swaziland_MICS5_Datasets","blank2","higher","p20",100,36,56,36,9,56,9,485000
"Swaziland_MICS5_Datasets","blank2","higher","primary",100,36,75,36,36,75,36,485000
"Swaziland_MICS5_Datasets","blank2","higher","rural",100,36,67,36,18,67,18,485000
"Swaziland_MICS5_Datasets","blank2","higher","secondary",100,36,58,36,36,58,36,485000
"Swaziland_MICS5_Datasets","blank2","higher","stunted",,,,,,,,485000
"Swaziland_MICS5_Datasets","blank2","higher","under5",100,36,0,36,0,0,0,485000
"Swaziland_MICS5_Datasets","blank2","higher","urban",100,36,33,36,18,33,18,485000
"Swaziland_MICS5_Datasets","blank2","male","no.birth.reg",100,51,47,51,25,47,25,175000
"Swaziland_MICS5_Datasets","blank2","male","no.educ",100,44,25,44,10,25,10,485000
"Swaziland_MICS5_Datasets","blank2","male","no.skilled.attendant",100,0,12,0,0,12,0,340000
"Swaziland_MICS5_Datasets","blank2","male","non.p20",100,48,36,48,17,36,17,1269000
"Swaziland_MICS5_Datasets","blank2","male","p20",100,48,64,48,31,64,31,1269000
"Swaziland_MICS5_Datasets","blank2","male","primary",100,44,75,44,34,75,34,485000
"Swaziland_MICS5_Datasets","blank2","male","rural",100,48,73,48,35,73,35,1269000
"Swaziland_MICS5_Datasets","blank2","male","secondary",100,44,58,44,27,58,27,485000
"Swaziland_MICS5_Datasets","blank2","male","stunted",100,51,26,51,15,26,15,175000
"Swaziland_MICS5_Datasets","blank2","male","under5",100,48,13,48,6,13,6,1269000
"Swaziland_MICS5_Datasets","blank2","male","urban",100,48,27,48,13,27,13,1269000
"Swaziland_MICS5_Datasets","blank2","no.birth.reg","no.educ",,,,,,,,485000
"Swaziland_MICS5_Datasets","blank2","no.birth.reg","no.skilled.attendant",,,,,,,,175000
"Swaziland_MICS5_Datasets","blank2","no.birth.reg","non.p20",100,47,30,47,9,30,9,175000
"Swaziland_MICS5_Datasets","blank2","no.birth.reg","p20",100,47,70,47,37,70,37,175000
"Swaziland_MICS5_Datasets","blank2","no.birth.reg","primary",,,,,,,,485000
"Swaziland_MICS5_Datasets","blank2","no.birth.reg","rural",100,47,77,47,38,77,38,175000
"Swaziland_MICS5_Datasets","blank2","no.birth.reg","secondary",,,,,,,,485000
"Swaziland_MICS5_Datasets","blank2","no.birth.reg","stunted",100,47,26,47,14,26,14,175000
"Swaziland_MICS5_Datasets","blank2","no.birth.reg","under5",100,47,100,47,47,100,47,175000
"Swaziland_MICS5_Datasets","blank2","no.birth.reg","urban",100,47,23,47,8,23,8,175000
"Swaziland_MICS5_Datasets","blank2","no.educ","no.skilled.attendant",100,15,12,15,4,12,4,192000
"Swaziland_MICS5_Datasets","blank2","no.educ","non.p20",100,25,44,25,4,44,4,485000
"Swaziland_MICS5_Datasets","blank2","no.educ","p20",100,25,56,25,21,56,21,485000
"Swaziland_MICS5_Datasets","blank2","no.educ","primary",100,25,75,25,0,75,0,485000
"Swaziland_MICS5_Datasets","blank2","no.educ","rural",100,25,67,25,21,67,21,485000
"Swaziland_MICS5_Datasets","blank2","no.educ","secondary",100,25,58,25,0,58,0,485000
"Swaziland_MICS5_Datasets","blank2","no.educ","stunted",,,,,,,,485000
"Swaziland_MICS5_Datasets","blank2","no.educ","under5",100,25,0,25,0,0,0,485000
"Swaziland_MICS5_Datasets","blank2","no.educ","urban",100,25,33,25,3,33,3,485000
"Swaziland_MICS5_Datasets","blank2","no.skilled.attendant","non.p20",100,12,33,12,2,33,2,340000
"Swaziland_MICS5_Datasets","blank2","no.skilled.attendant","p20",100,12,67,12,10,67,10,340000
"Swaziland_MICS5_Datasets","blank2","no.skilled.attendant","primary",100,12,85,12,8,85,8,192000
"Swaziland_MICS5_Datasets","blank2","no.skilled.attendant","rural",100,12,73,12,10,73,10,340000
"Swaziland_MICS5_Datasets","blank2","no.skilled.attendant","secondary",100,12,69,12,6,69,6,192000
"Swaziland_MICS5_Datasets","blank2","no.skilled.attendant","stunted",,,,,,,,175000
"Swaziland_MICS5_Datasets","blank2","no.skilled.attendant","under5",100,12,0,12,0,0,0,340000
"Swaziland_MICS5_Datasets","blank2","no.skilled.attendant","urban",100,12,27,12,2,27,2,340000
"Swaziland_MICS5_Datasets","blank2","non.p20","p20",100,36,64,36,0,64,0,1269000
"Swaziland_MICS5_Datasets","blank2","non.p20","primary",100,44,75,44,40,75,40,485000
"Swaziland_MICS5_Datasets","blank2","non.p20","rural",100,36,73,36,15,73,15,1269000
"Swaziland_MICS5_Datasets","blank2","non.p20","secondary",100,44,58,44,36,58,36,485000
"Swaziland_MICS5_Datasets","blank2","non.p20","stunted",100,30,26,30,4,26,4,175000
"Swaziland_MICS5_Datasets","blank2","non.p20","under5",100,36,13,36,4,13,4,1269000
"Swaziland_MICS5_Datasets","blank2","non.p20","urban",100,36,27,36,21,27,21,1269000
"Swaziland_MICS5_Datasets","blank2","p20","primary",100,56,75,56,35,75,35,485000
"Swaziland_MICS5_Datasets","blank2","p20","rural",100,64,73,64,59,73,59,1269000
"Swaziland_MICS5_Datasets","blank2","p20","secondary",100,56,58,56,23,58,23,485000
"Swaziland_MICS5_Datasets","blank2","p20","stunted",100,70,26,70,21,26,21,175000
"Swaziland_MICS5_Datasets","blank2","p20","under5",100,64,13,64,9,13,9,1269000
"Swaziland_MICS5_Datasets","blank2","p20","urban",100,64,27,64,5,27,5,1269000
"Swaziland_MICS5_Datasets","blank2","primary","rural",100,75,67,75,45,67,45,485000
"Swaziland_MICS5_Datasets","blank2","primary","secondary",100,75,58,75,58,58,58,485000
"Swaziland_MICS5_Datasets","blank2","primary","stunted",,,,,,,,485000
"Swaziland_MICS5_Datasets","blank2","primary","under5",100,75,0,75,0,0,0,485000
"Swaziland_MICS5_Datasets","blank2","primary","urban",100,75,33,75,29,33,29,485000
"Swaziland_MICS5_Datasets","blank2","rural","secondary",100,67,58,67,33,58,33,485000
"Swaziland_MICS5_Datasets","blank2","rural","stunted",100,77,26,77,21,26,21,175000
"Swaziland_MICS5_Datasets","blank2","rural","under5",100,73,13,73,10,13,10,1269000
"Swaziland_MICS5_Datasets","blank2","rural","urban",100,73,27,73,0,27,0,1269000
"Swaziland_MICS5_Datasets","blank2","secondary","stunted",,,,,,,,485000
"Swaziland_MICS5_Datasets","blank2","secondary","under5",100,58,0,58,0,0,0,485000
"Swaziland_MICS5_Datasets","blank2","secondary","urban",100,58,33,58,26,33,26,485000
"Swaziland_MICS5_Datasets","blank2","stunted","under5",100,26,100,26,26,100,26,175000
"Swaziland_MICS5_Datasets","blank2","stunted","urban",100,26,23,26,4,23,4,175000
"Swaziland_MICS5_Datasets","blank2","under5","urban",100,13,27,13,3,27,3,1269000
"Swaziland_MICS5_Datasets","ext","female","fifteento49",49,52,48,26,25,20,11,1269000
"Swaziland_MICS5_Datasets","ext","female","fiveto14",49,52,27,26,14,15,8,1269000
"Swaziland_MICS5_Datasets","ext","female","gt49",49,52,13,26,8,7,4,1269000
"Swaziland_MICS5_Datasets","ext","female","higher",42,56,36,25,17,5,2,485000
"Swaziland_MICS5_Datasets","ext","female","male",49,52,48,26,0,23,0,1269000
"Swaziland_MICS5_Datasets","ext","female","no.birth.reg",56,49,47,27,21,31,14,175000
"Swaziland_MICS5_Datasets","ext","female","no.educ",42,56,25,25,15,19,11,485000
"Swaziland_MICS5_Datasets","ext","female","no.skilled.attendant",54,100,12,54,12,9,9,340000
"Swaziland_MICS5_Datasets","ext","female","non.p20",49,52,36,26,18,0,0,1269000
"Swaziland_MICS5_Datasets","ext","female","p20",49,52,64,26,34,49,26,1269000
"Swaziland_MICS5_Datasets","ext","female","primary",42,56,75,25,41,24,14,485000
"Swaziland_MICS5_Datasets","ext","female","rural",49,52,73,26,38,46,24,1269000
"Swaziland_MICS5_Datasets","ext","female","secondary",42,56,58,25,31,14,8,485000
"Swaziland_MICS5_Datasets","ext","female","stunted",56,49,26,27,11,18,8,175000
"Swaziland_MICS5_Datasets","ext","female","under5",49,52,13,26,6,7,3,1269000
"Swaziland_MICS5_Datasets","ext","female","urban",49,52,27,26,14,3,2,1269000
"Swaziland_MICS5_Datasets","ext","fifteento49","fiveto14",49,48,27,20,0,15,0,1269000
"Swaziland_MICS5_Datasets","ext","fifteento49","gt49",49,48,13,20,0,7,0,1269000
"Swaziland_MICS5_Datasets","ext","fifteento49","higher",42,69,36,25,30,5,4,485000
"Swaziland_MICS5_Datasets","ext","fifteento49","male",49,48,48,20,23,23,9,1269000
"Swaziland_MICS5_Datasets","ext","fifteento49","no.birth.reg",56,0,47,0,0,31,0,175000
"Swaziland_MICS5_Datasets","ext","fifteento49","no.educ",42,69,25,25,10,19,7,485000
"Swaziland_MICS5_Datasets","ext","fifteento49","no.skilled.attendant",54,100,12,54,12,9,9,340000
"Swaziland_MICS5_Datasets","ext","fifteento49","non.p20",49,48,36,20,21,0,0,1269000
"Swaziland_MICS5_Datasets","ext","fifteento49","p20",49,48,64,20,27,49,20,1269000
"Swaziland_MICS5_Datasets","ext","fifteento49","primary",42,69,75,25,59,24,18,485000
"Swaziland_MICS5_Datasets","ext","fifteento49","rural",49,48,73,20,32,46,18,1269000
"Swaziland_MICS5_Datasets","ext","fifteento49","secondary",42,69,58,25,48,14,12,485000
"Swaziland_MICS5_Datasets","ext","fifteento49","stunted",56,0,26,0,0,18,0,175000
"Swaziland_MICS5_Datasets","ext","fifteento49","under5",49,48,13,20,0,7,0,1269000
"Swaziland_MICS5_Datasets","ext","fifteento49","urban",49,48,27,20,16,3,2,1269000
"Swaziland_MICS5_Datasets","ext","fiveto14","gt49",49,27,13,15,0,7,0,1269000
"Swaziland_MICS5_Datasets","ext","fiveto14","higher",42,0,36,0,0,5,0,485000
"Swaziland_MICS5_Datasets","ext","fiveto14","male",49,27,48,15,13,23,8,1269000
"Swaziland_MICS5_Datasets","ext","fiveto14","no.birth.reg",56,0,47,0,0,31,0,175000
"Swaziland_MICS5_Datasets","ext","fiveto14","no.educ",42,0,25,0,0,19,0,485000
"Swaziland_MICS5_Datasets","ext","fiveto14","no.skilled.attendant",54,0,12,0,0,9,0,340000
"Swaziland_MICS5_Datasets","ext","fiveto14","non.p20",49,27,36,15,8,0,0,1269000
"Swaziland_MICS5_Datasets","ext","fiveto14","p20",49,27,64,15,19,49,15,1269000
"Swaziland_MICS5_Datasets","ext","fiveto14","primary",42,0,75,0,0,24,0,485000
"Swaziland_MICS5_Datasets","ext","fiveto14","rural",49,27,73,15,22,46,15,1269000
"Swaziland_MICS5_Datasets","ext","fiveto14","secondary",42,0,58,0,0,14,0,485000
"Swaziland_MICS5_Datasets","ext","fiveto14","stunted",56,0,26,0,0,18,0,175000
"Swaziland_MICS5_Datasets","ext","fiveto14","under5",49,27,13,15,0,7,0,1269000
"Swaziland_MICS5_Datasets","ext","fiveto14","urban",49,27,27,15,5,3,1,1269000
"Swaziland_MICS5_Datasets","ext","gt49","higher",42,31,36,18,5,5,1,485000
"Swaziland_MICS5_Datasets","ext","gt49","male",49,13,48,7,5,23,3,1269000
"Swaziland_MICS5_Datasets","ext","gt49","no.birth.reg",56,0,47,0,0,31,0,175000
"Swaziland_MICS5_Datasets","ext","gt49","no.educ",42,31,25,18,15,19,12,485000
"Swaziland_MICS5_Datasets","ext","gt49","no.skilled.attendant",54,0,12,0,0,9,0,340000
"Swaziland_MICS5_Datasets","ext","gt49","non.p20",49,13,36,7,4,0,0,1269000
"Swaziland_MICS5_Datasets","ext","gt49","p20",49,13,64,7,9,49,7,1269000
"Swaziland_MICS5_Datasets","ext","gt49","primary",42,31,75,18,16,24,5,485000
"Swaziland_MICS5_Datasets","ext","gt49","rural",49,13,73,7,10,46,7,1269000
"Swaziland_MICS5_Datasets","ext","gt49","secondary",42,31,58,18,10,14,2,485000
"Swaziland_MICS5_Datasets","ext","gt49","stunted",56,0,26,0,0,18,0,175000
"Swaziland_MICS5_Datasets","ext","gt49","under5",49,13,13,7,0,7,0,1269000
"Swaziland_MICS5_Datasets","ext","gt49","urban",49,13,27,7,3,3,0,1269000
"Swaziland_MICS5_Datasets","ext","higher","male",42,36,44,5,19,17,3,485000
"Swaziland_MICS5_Datasets","ext","higher","no.birth.reg",,,,,,,,485000
"Swaziland_MICS5_Datasets","ext","higher","no.educ",42,36,25,5,0,19,0,485000
"Swaziland_MICS5_Datasets","ext","higher","no.skilled.attendant",50,36,12,8,1,9,0,192000
"Swaziland_MICS5_Datasets","ext","higher","non.p20",42,36,44,5,26,0,0,485000
"Swaziland_MICS5_Datasets","ext","higher","p20",42,36,56,5,9,42,5,485000
"Swaziland_MICS5_Datasets","ext","higher","primary",42,36,75,5,36,24,5,485000
"Swaziland_MICS5_Datasets","ext","higher","rural",42,36,67,5,18,38,4,485000
"Swaziland_MICS5_Datasets","ext","higher","secondary",42,36,58,5,36,14,5,485000
"Swaziland_MICS5_Datasets","ext","higher","stunted",,,,,,,,485000
"Swaziland_MICS5_Datasets","ext","higher","under5",42,36,0,5,0,0,0,485000
"Swaziland_MICS5_Datasets","ext","higher","urban",42,36,33,5,18,4,1,485000
"Swaziland_MICS5_Datasets","ext","male","no.birth.reg",56,51,47,29,25,31,16,175000
"Swaziland_MICS5_Datasets","ext","male","no.educ",42,44,25,17,10,19,7,485000
"Swaziland_MICS5_Datasets","ext","male","no.skilled.attendant",54,0,12,0,0,9,0,340000
"Swaziland_MICS5_Datasets","ext","male","non.p20",49,48,36,23,17,0,0,1269000
"Swaziland_MICS5_Datasets","ext","male","p20",49,48,64,23,31,49,23,1269000
"Swaziland_MICS5_Datasets","ext","male","primary",42,44,75,17,34,24,9,485000
"Swaziland_MICS5_Datasets","ext","male","rural",49,48,73,23,35,46,22,1269000
"Swaziland_MICS5_Datasets","ext","male","secondary",42,44,58,17,27,14,6,485000
"Swaziland_MICS5_Datasets","ext","male","stunted",56,51,26,29,15,18,10,175000
"Swaziland_MICS5_Datasets","ext","male","under5",49,48,13,23,6,7,4,1269000
"Swaziland_MICS5_Datasets","ext","male","urban",49,48,27,23,13,3,1,1269000
"Swaziland_MICS5_Datasets","ext","no.birth.reg","no.educ",,,,,,,,485000
"Swaziland_MICS5_Datasets","ext","no.birth.reg","no.skilled.attendant",,,,,,,,175000
"Swaziland_MICS5_Datasets","ext","no.birth.reg","non.p20",56,47,30,31,9,0,0,175000
"Swaziland_MICS5_Datasets","ext","no.birth.reg","p20",56,47,70,31,37,56,31,175000
"Swaziland_MICS5_Datasets","ext","no.birth.reg","primary",,,,,,,,485000
"Swaziland_MICS5_Datasets","ext","no.birth.reg","rural",56,47,77,31,38,53,29,175000
"Swaziland_MICS5_Datasets","ext","no.birth.reg","secondary",,,,,,,,485000
"Swaziland_MICS5_Datasets","ext","no.birth.reg","stunted",56,47,26,31,14,18,10,175000
"Swaziland_MICS5_Datasets","ext","no.birth.reg","under5",56,47,100,31,47,56,31,175000
"Swaziland_MICS5_Datasets","ext","no.birth.reg","urban",56,47,23,31,8,4,2,175000
"Swaziland_MICS5_Datasets","ext","no.educ","no.skilled.attendant",50,15,12,12,4,9,4,192000
"Swaziland_MICS5_Datasets","ext","no.educ","non.p20",42,25,44,19,4,0,0,485000
"Swaziland_MICS5_Datasets","ext","no.educ","p20",42,25,56,19,21,42,19,485000
"Swaziland_MICS5_Datasets","ext","no.educ","primary",42,25,75,19,0,24,0,485000
"Swaziland_MICS5_Datasets","ext","no.educ","rural",42,25,67,19,21,38,17,485000
"Swaziland_MICS5_Datasets","ext","no.educ","secondary",42,25,58,19,0,14,0,485000
"Swaziland_MICS5_Datasets","ext","no.educ","stunted",,,,,,,,485000
"Swaziland_MICS5_Datasets","ext","no.educ","under5",42,25,0,19,0,0,0,485000
"Swaziland_MICS5_Datasets","ext","no.educ","urban",42,25,33,19,3,4,1,485000
"Swaziland_MICS5_Datasets","ext","no.skilled.attendant","non.p20",54,12,33,9,2,0,0,340000
"Swaziland_MICS5_Datasets","ext","no.skilled.attendant","p20",54,12,67,9,10,54,9,340000
"Swaziland_MICS5_Datasets","ext","no.skilled.attendant","primary",50,12,85,9,8,38,5,192000
"Swaziland_MICS5_Datasets","ext","no.skilled.attendant","rural",54,12,73,9,10,49,8,340000
"Swaziland_MICS5_Datasets","ext","no.skilled.attendant","secondary",50,12,69,9,6,26,4,192000
"Swaziland_MICS5_Datasets","ext","no.skilled.attendant","stunted",,,,,,,,175000
"Swaziland_MICS5_Datasets","ext","no.skilled.attendant","under5",54,12,0,9,0,0,0,340000
"Swaziland_MICS5_Datasets","ext","no.skilled.attendant","urban",54,12,27,9,2,5,0,340000
"Swaziland_MICS5_Datasets","ext","non.p20","p20",49,36,64,0,0,49,0,1269000
"Swaziland_MICS5_Datasets","ext","non.p20","primary",42,44,75,0,40,24,0,485000
"Swaziland_MICS5_Datasets","ext","non.p20","rural",49,36,73,0,15,46,0,1269000
"Swaziland_MICS5_Datasets","ext","non.p20","secondary",42,44,58,0,36,14,0,485000
"Swaziland_MICS5_Datasets","ext","non.p20","stunted",56,30,26,0,4,18,0,175000
"Swaziland_MICS5_Datasets","ext","non.p20","under5",49,36,13,0,4,7,0,1269000
"Swaziland_MICS5_Datasets","ext","non.p20","urban",49,36,27,0,21,3,0,1269000
"Swaziland_MICS5_Datasets","ext","p20","primary",42,56,75,42,35,24,24,485000
"Swaziland_MICS5_Datasets","ext","p20","rural",49,64,73,49,59,46,46,1269000
"Swaziland_MICS5_Datasets","ext","p20","secondary",42,56,58,42,23,14,14,485000
"Swaziland_MICS5_Datasets","ext","p20","stunted",56,70,26,56,21,18,18,175000
"Swaziland_MICS5_Datasets","ext","p20","under5",49,64,13,49,9,7,7,1269000
"Swaziland_MICS5_Datasets","ext","p20","urban",49,64,27,49,5,3,3,1269000
"Swaziland_MICS5_Datasets","ext","primary","rural",42,75,67,24,45,38,21,485000
"Swaziland_MICS5_Datasets","ext","primary","secondary",42,75,58,24,58,14,14,485000
"Swaziland_MICS5_Datasets","ext","primary","stunted",,,,,,,,485000
"Swaziland_MICS5_Datasets","ext","primary","under5",42,75,0,24,0,0,0,485000
"Swaziland_MICS5_Datasets","ext","primary","urban",42,75,33,24,29,4,3,485000
"Swaziland_MICS5_Datasets","ext","rural","secondary",42,67,58,38,33,14,12,485000
"Swaziland_MICS5_Datasets","ext","rural","stunted",56,77,26,53,21,18,16,175000
"Swaziland_MICS5_Datasets","ext","rural","under5",49,73,13,46,10,7,7,1269000
"Swaziland_MICS5_Datasets","ext","rural","urban",49,73,27,46,0,3,0,1269000
"Swaziland_MICS5_Datasets","ext","secondary","stunted",,,,,,,,485000
"Swaziland_MICS5_Datasets","ext","secondary","under5",42,58,0,14,0,0,0,485000
"Swaziland_MICS5_Datasets","ext","secondary","urban",42,58,33,14,26,4,2,485000
"Swaziland_MICS5_Datasets","ext","stunted","under5",56,26,100,18,26,56,18,175000
"Swaziland_MICS5_Datasets","ext","stunted","urban",56,26,23,18,4,4,1,175000
"Swaziland_MICS5_Datasets","ext","under5","urban",49,13,27,7,3,3,0,1269000
"Swaziland_MICS5_Datasets","female","fifteento49","fiveto14",52,48,27,25,0,14,0,1269000
"Swaziland_MICS5_Datasets","female","fifteento49","gt49",52,48,13,25,0,8,0,1269000
"Swaziland_MICS5_Datasets","female","fifteento49","higher",56,69,36,37,30,17,14,485000
"Swaziland_MICS5_Datasets","female","fifteento49","male",52,48,48,25,23,0,0,1269000
"Swaziland_MICS5_Datasets","female","fifteento49","no.birth.reg",49,0,47,0,0,21,0,175000
"Swaziland_MICS5_Datasets","female","fifteento49","no.educ",56,69,25,37,10,15,5,485000
"Swaziland_MICS5_Datasets","female","fifteento49","no.skilled.attendant",100,100,12,100,12,12,12,340000
"Swaziland_MICS5_Datasets","female","fifteento49","non.p20",52,48,36,25,21,18,10,1269000
"Swaziland_MICS5_Datasets","female","fifteento49","p20",52,48,64,25,27,34,14,1269000
"Swaziland_MICS5_Datasets","female","fifteento49","primary",56,69,75,37,59,41,32,485000
"Swaziland_MICS5_Datasets","female","fifteento49","rural",52,48,73,25,32,38,17,1269000
"Swaziland_MICS5_Datasets","female","fifteento49","secondary",56,69,58,37,48,31,25,485000
"Swaziland_MICS5_Datasets","female","fifteento49","stunted",49,0,26,0,0,11,0,175000
"Swaziland_MICS5_Datasets","female","fifteento49","under5",52,48,13,25,0,6,0,1269000
"Swaziland_MICS5_Datasets","female","fifteento49","urban",52,48,27,25,16,14,8,1269000
"Swaziland_MICS5_Datasets","female","fiveto14","gt49",52,27,13,14,0,8,0,1269000
"Swaziland_MICS5_Datasets","female","fiveto14","higher",56,0,36,0,0,17,0,485000
"Swaziland_MICS5_Datasets","female","fiveto14","male",52,27,48,14,13,0,0,1269000
"Swaziland_MICS5_Datasets","female","fiveto14","no.birth.reg",49,0,47,0,0,21,0,175000
"Swaziland_MICS5_Datasets","female","fiveto14","no.educ",56,0,25,0,0,15,0,485000
"Swaziland_MICS5_Datasets","female","fiveto14","no.skilled.attendant",100,0,12,0,0,12,0,340000
"Swaziland_MICS5_Datasets","female","fiveto14","non.p20",52,27,36,14,8,18,4,1269000
"Swaziland_MICS5_Datasets","female","fiveto14","p20",52,27,64,14,19,34,10,1269000
"Swaziland_MICS5_Datasets","female","fiveto14","primary",56,0,75,0,0,41,0,485000
"Swaziland_MICS5_Datasets","female","fiveto14","rural",52,27,73,14,22,38,11,1269000
"Swaziland_MICS5_Datasets","female","fiveto14","secondary",56,0,58,0,0,31,0,485000
"Swaziland_MICS5_Datasets","female","fiveto14","stunted",49,0,26,0,0,11,0,175000
"Swaziland_MICS5_Datasets","female","fiveto14","under5",52,27,13,14,0,6,0,1269000
"Swaziland_MICS5_Datasets","female","fiveto14","urban",52,27,27,14,5,14,3,1269000
"Swaziland_MICS5_Datasets","female","gt49","higher",56,31,36,19,5,17,2,485000
"Swaziland_MICS5_Datasets","female","gt49","male",52,13,48,8,5,0,0,1269000
"Swaziland_MICS5_Datasets","female","gt49","no.birth.reg",49,0,47,0,0,21,0,175000
"Swaziland_MICS5_Datasets","female","gt49","no.educ",56,31,25,19,15,15,10,485000
"Swaziland_MICS5_Datasets","female","gt49","no.skilled.attendant",100,0,12,0,0,12,0,340000
"Swaziland_MICS5_Datasets","female","gt49","non.p20",52,13,36,8,4,18,2,1269000
"Swaziland_MICS5_Datasets","female","gt49","p20",52,13,64,8,9,34,6,1269000
"Swaziland_MICS5_Datasets","female","gt49","primary",56,31,75,19,16,41,9,485000
"Swaziland_MICS5_Datasets","female","gt49","rural",52,13,73,8,10,38,6,1269000
"Swaziland_MICS5_Datasets","female","gt49","secondary",56,31,58,19,10,31,6,485000
"Swaziland_MICS5_Datasets","female","gt49","stunted",49,0,26,0,0,11,0,175000
"Swaziland_MICS5_Datasets","female","gt49","under5",52,13,13,8,0,6,0,1269000
"Swaziland_MICS5_Datasets","female","gt49","urban",52,13,27,8,3,14,2,1269000
"Swaziland_MICS5_Datasets","female","higher","male",56,36,44,17,19,0,0,485000
"Swaziland_MICS5_Datasets","female","higher","no.birth.reg",,,,,,,,485000
"Swaziland_MICS5_Datasets","female","higher","no.educ",56,36,25,17,0,15,0,485000
"Swaziland_MICS5_Datasets","female","higher","no.skilled.attendant",100,36,12,36,1,12,1,192000
"Swaziland_MICS5_Datasets","female","higher","non.p20",56,36,44,17,26,23,12,485000
"Swaziland_MICS5_Datasets","female","higher","p20",56,36,56,17,9,33,4,485000
"Swaziland_MICS5_Datasets","female","higher","primary",56,36,75,17,36,41,17,485000
"Swaziland_MICS5_Datasets","female","higher","rural",56,36,67,17,18,39,8,485000
"Swaziland_MICS5_Datasets","female","higher","secondary",56,36,58,17,36,31,17,485000
"Swaziland_MICS5_Datasets","female","higher","stunted",,,,,,,,485000
"Swaziland_MICS5_Datasets","female","higher","under5",56,36,0,17,0,0,0,485000
"Swaziland_MICS5_Datasets","female","higher","urban",56,36,33,17,18,17,8,485000
"Swaziland_MICS5_Datasets","female","male","no.birth.reg",49,51,47,0,25,21,0,175000
"Swaziland_MICS5_Datasets","female","male","no.educ",56,44,25,0,10,15,0,485000
"Swaziland_MICS5_Datasets","female","male","no.skilled.attendant",100,0,12,0,0,12,0,340000
"Swaziland_MICS5_Datasets","female","male","non.p20",52,48,36,0,17,18,0,1269000
"Swaziland_MICS5_Datasets","female","male","p20",52,48,64,0,31,34,0,1269000
"Swaziland_MICS5_Datasets","female","male","primary",56,44,75,0,34,41,0,485000
"Swaziland_MICS5_Datasets","female","male","rural",52,48,73,0,35,38,0,1269000
"Swaziland_MICS5_Datasets","female","male","secondary",56,44,58,0,27,31,0,485000
"Swaziland_MICS5_Datasets","female","male","stunted",49,51,26,0,15,11,0,175000
"Swaziland_MICS5_Datasets","female","male","under5",52,48,13,0,6,6,0,1269000
"Swaziland_MICS5_Datasets","female","male","urban",52,48,27,0,13,14,0,1269000
"Swaziland_MICS5_Datasets","female","no.birth.reg","no.educ",,,,,,,,485000
"Swaziland_MICS5_Datasets","female","no.birth.reg","no.skilled.attendant",,,,,,,,175000
"Swaziland_MICS5_Datasets","female","no.birth.reg","non.p20",49,47,30,21,9,15,4,175000
"Swaziland_MICS5_Datasets","female","no.birth.reg","p20",49,47,70,21,37,34,17,175000
"Swaziland_MICS5_Datasets","female","no.birth.reg","primary",,,,,,,,485000
"Swaziland_MICS5_Datasets","female","no.birth.reg","rural",49,47,77,21,38,37,17,175000
"Swaziland_MICS5_Datasets","female","no.birth.reg","secondary",,,,,,,,485000
"Swaziland_MICS5_Datasets","female","no.birth.reg","stunted",49,47,26,21,14,11,6,175000
"Swaziland_MICS5_Datasets","female","no.birth.reg","under5",49,47,100,21,47,49,21,175000
"Swaziland_MICS5_Datasets","female","no.birth.reg","urban",49,47,23,21,8,12,4,175000
"Swaziland_MICS5_Datasets","female","no.educ","no.skilled.attendant",100,15,12,15,4,12,4,192000
"Swaziland_MICS5_Datasets","female","no.educ","non.p20",56,25,44,15,4,23,2,485000
"Swaziland_MICS5_Datasets","female","no.educ","p20",56,25,56,15,21,33,13,485000
"Swaziland_MICS5_Datasets","female","no.educ","primary",56,25,75,15,0,41,0,485000
"Swaziland_MICS5_Datasets","female","no.educ","rural",56,25,67,15,21,39,13,485000
"Swaziland_MICS5_Datasets","female","no.educ","secondary",56,25,58,15,0,31,0,485000
"Swaziland_MICS5_Datasets","female","no.educ","stunted",,,,,,,,485000
"Swaziland_MICS5_Datasets","female","no.educ","under5",56,25,0,15,0,0,0,485000
"Swaziland_MICS5_Datasets","female","no.educ","urban",56,25,33,15,3,17,2,485000
"Swaziland_MICS5_Datasets","female","no.skilled.attendant","non.p20",100,12,33,12,2,33,2,340000
"Swaziland_MICS5_Datasets","female","no.skilled.attendant","p20",100,12,67,12,10,67,10,340000
"Swaziland_MICS5_Datasets","female","no.skilled.attendant","primary",100,12,85,12,8,85,8,192000
"Swaziland_MICS5_Datasets","female","no.skilled.attendant","rural",100,12,73,12,10,73,10,340000
"Swaziland_MICS5_Datasets","female","no.skilled.attendant","secondary",100,12,69,12,6,69,6,192000
"Swaziland_MICS5_Datasets","female","no.skilled.attendant","stunted",,,,,,,,175000
"Swaziland_MICS5_Datasets","female","no.skilled.attendant","under5",100,12,0,12,0,0,0,340000
"Swaziland_MICS5_Datasets","female","no.skilled.attendant","urban",100,12,27,12,2,27,2,340000
"Swaziland_MICS5_Datasets","female","non.p20","p20",52,36,64,18,0,34,0,1269000
"Swaziland_MICS5_Datasets","female","non.p20","primary",56,44,75,23,40,41,21,485000
"Swaziland_MICS5_Datasets","female","non.p20","rural",52,36,73,18,15,38,8,1269000
"Swaziland_MICS5_Datasets","female","non.p20","secondary",56,44,58,23,36,31,18,485000
"Swaziland_MICS5_Datasets","female","non.p20","stunted",49,30,26,15,4,11,2,175000
"Swaziland_MICS5_Datasets","female","non.p20","under5",52,36,13,18,4,6,2,1269000
"Swaziland_MICS5_Datasets","female","non.p20","urban",52,36,27,18,21,14,11,1269000
"Swaziland_MICS5_Datasets","female","p20","primary",56,56,75,33,35,41,20,485000
"Swaziland_MICS5_Datasets","female","p20","rural",52,64,73,34,59,38,31,1269000
"Swaziland_MICS5_Datasets","female","p20","secondary",56,56,58,33,23,31,13,485000
"Swaziland_MICS5_Datasets","female","p20","stunted",49,70,26,34,21,11,9,175000
"Swaziland_MICS5_Datasets","female","p20","under5",52,64,13,34,9,6,4,1269000
"Swaziland_MICS5_Datasets","female","p20","urban",52,64,27,34,5,14,3,1269000
"Swaziland_MICS5_Datasets","female","primary","rural",56,75,67,41,45,39,26,485000
"Swaziland_MICS5_Datasets","female","primary","secondary",56,75,58,41,58,31,31,485000
"Swaziland_MICS5_Datasets","female","primary","stunted",,,,,,,,485000
"Swaziland_MICS5_Datasets","female","primary","under5",56,75,0,41,0,0,0,485000
"Swaziland_MICS5_Datasets","female","primary","urban",56,75,33,41,29,17,15,485000
"Swaziland_MICS5_Datasets","female","rural","secondary",56,67,58,39,33,31,18,485000
"Swaziland_MICS5_Datasets","female","rural","stunted",49,77,26,37,21,11,9,175000
"Swaziland_MICS5_Datasets","female","rural","under5",52,73,13,38,10,6,5,1269000
"Swaziland_MICS5_Datasets","female","rural","urban",52,73,27,38,0,14,0,1269000
"Swaziland_MICS5_Datasets","female","secondary","stunted",,,,,,,,485000
"Swaziland_MICS5_Datasets","female","secondary","under5",56,58,0,31,0,0,0,485000
"Swaziland_MICS5_Datasets","female","secondary","urban",56,58,33,31,26,17,13,485000
"Swaziland_MICS5_Datasets","female","stunted","under5",49,26,100,11,26,49,11,175000
"Swaziland_MICS5_Datasets","female","stunted","urban",49,26,23,11,4,12,1,175000
"Swaziland_MICS5_Datasets","female","under5","urban",52,13,27,6,3,14,2,1269000
"Swaziland_MICS5_Datasets","fifteento49","fiveto14","gt49",48,27,13,0,0,0,0,1269000
"Swaziland_MICS5_Datasets","fifteento49","fiveto14","higher",69,0,36,0,0,30,0,485000
"Swaziland_MICS5_Datasets","fifteento49","fiveto14","male",48,27,48,0,13,23,0,1269000
"Swaziland_MICS5_Datasets","fifteento49","fiveto14","no.birth.reg",0,0,47,0,0,0,0,175000
"Swaziland_MICS5_Datasets","fifteento49","fiveto14","no.educ",69,0,25,0,0,10,0,485000
"Swaziland_MICS5_Datasets","fifteento49","fiveto14","no.skilled.attendant",100,0,12,0,0,12,0,340000
"Swaziland_MICS5_Datasets","fifteento49","fiveto14","non.p20",48,27,36,0,8,21,0,1269000
"Swaziland_MICS5_Datasets","fifteento49","fiveto14","p20",48,27,64,0,19,27,0,1269000
"Swaziland_MICS5_Datasets","fifteento49","fiveto14","primary",69,0,75,0,0,59,0,485000
"Swaziland_MICS5_Datasets","fifteento49","fiveto14","rural",48,27,73,0,22,32,0,1269000
"Swaziland_MICS5_Datasets","fifteento49","fiveto14","secondary",69,0,58,0,0,48,0,485000
"Swaziland_MICS5_Datasets","fifteento49","fiveto14","stunted",0,0,26,0,0,0,0,175000
"Swaziland_MICS5_Datasets","fifteento49","fiveto14","under5",48,27,13,0,0,0,0,1269000
"Swaziland_MICS5_Datasets","fifteento49","fiveto14","urban",48,27,27,0,5,16,0,1269000
"Swaziland_MICS5_Datasets","fifteento49","gt49","higher",69,31,36,0,5,30,0,485000
"Swaziland_MICS5_Datasets","fifteento49","gt49","male",48,13,48,0,5,23,0,1269000
"Swaziland_MICS5_Datasets","fifteento49","gt49","no.birth.reg",0,0,47,0,0,0,0,175000
"Swaziland_MICS5_Datasets","fifteento49","gt49","no.educ",69,31,25,0,15,10,0,485000
"Swaziland_MICS5_Datasets","fifteento49","gt49","no.skilled.attendant",100,0,12,0,0,12,0,340000
"Swaziland_MICS5_Datasets","fifteento49","gt49","non.p20",48,13,36,0,4,21,0,1269000
"Swaziland_MICS5_Datasets","fifteento49","gt49","p20",48,13,64,0,9,27,0,1269000
"Swaziland_MICS5_Datasets","fifteento49","gt49","primary",69,31,75,0,16,59,0,485000
"Swaziland_MICS5_Datasets","fifteento49","gt49","rural",48,13,73,0,10,32,0,1269000
"Swaziland_MICS5_Datasets","fifteento49","gt49","secondary",69,31,58,0,10,48,0,485000
"Swaziland_MICS5_Datasets","fifteento49","gt49","stunted",0,0,26,0,0,0,0,175000
"Swaziland_MICS5_Datasets","fifteento49","gt49","under5",48,13,13,0,0,0,0,1269000
"Swaziland_MICS5_Datasets","fifteento49","gt49","urban",48,13,27,0,3,16,0,1269000
"Swaziland_MICS5_Datasets","fifteento49","higher","male",69,36,44,30,19,32,16,485000
"Swaziland_MICS5_Datasets","fifteento49","higher","no.birth.reg",,,,,,,,485000
"Swaziland_MICS5_Datasets","fifteento49","higher","no.educ",69,36,25,30,0,10,0,485000
"Swaziland_MICS5_Datasets","fifteento49","higher","no.skilled.attendant",100,36,12,36,1,12,1,192000
"Swaziland_MICS5_Datasets","fifteento49","higher","non.p20",69,36,44,30,26,34,22,485000
"Swaziland_MICS5_Datasets","fifteento49","higher","p20",69,36,56,30,9,34,8,485000
"Swaziland_MICS5_Datasets","fifteento49","higher","primary",69,36,75,30,36,59,30,485000
"Swaziland_MICS5_Datasets","fifteento49","higher","rural",69,36,67,30,18,42,15,485000
"Swaziland_MICS5_Datasets","fifteento49","higher","secondary",69,36,58,30,36,48,30,485000
"Swaziland_MICS5_Datasets","fifteento49","higher","stunted",,,,,,,,485000
"Swaziland_MICS5_Datasets","fifteento49","higher","under5",69,36,0,30,0,0,0,485000
"Swaziland_MICS5_Datasets","fifteento49","higher","urban",69,36,33,30,18,27,15,485000
"Swaziland_MICS5_Datasets","fifteento49","male","no.birth.reg",0,51,47,0,25,0,0,175000
"Swaziland_MICS5_Datasets","fifteento49","male","no.educ",69,44,25,32,10,10,5,485000
"Swaziland_MICS5_Datasets","fifteento49","male","no.skilled.attendant",100,0,12,0,0,12,0,340000
"Swaziland_MICS5_Datasets","fifteento49","male","non.p20",48,48,36,23,17,21,10,1269000
"Swaziland_MICS5_Datasets","fifteento49","male","p20",48,48,64,23,31,27,13,1269000
"Swaziland_MICS5_Datasets","fifteento49","male","primary",69,44,75,32,34,59,27,485000
"Swaziland_MICS5_Datasets","fifteento49","male","rural",48,48,73,23,35,32,15,1269000
"Swaziland_MICS5_Datasets","fifteento49","male","secondary",69,44,58,32,27,48,23,485000
"Swaziland_MICS5_Datasets","fifteento49","male","stunted",0,51,26,0,15,0,0,175000
"Swaziland_MICS5_Datasets","fifteento49","male","under5",48,48,13,23,6,0,0,1269000
"Swaziland_MICS5_Datasets","fifteento49","male","urban",48,48,27,23,13,16,8,1269000
"Swaziland_MICS5_Datasets","fifteento49","no.birth.reg","no.educ",,,,,,,,485000
"Swaziland_MICS5_Datasets","fifteento49","no.birth.reg","no.skilled.attendant",,,,,,,,175000
"Swaziland_MICS5_Datasets","fifteento49","no.birth.reg","non.p20",0,47,30,0,9,0,0,175000
"Swaziland_MICS5_Datasets","fifteento49","no.birth.reg","p20",0,47,70,0,37,0,0,175000
"Swaziland_MICS5_Datasets","fifteento49","no.birth.reg","primary",,,,,,,,485000
"Swaziland_MICS5_Datasets","fifteento49","no.birth.reg","rural",0,47,77,0,38,0,0,175000
"Swaziland_MICS5_Datasets","fifteento49","no.birth.reg","secondary",,,,,,,,485000
"Swaziland_MICS5_Datasets","fifteento49","no.birth.reg","stunted",0,47,26,0,14,0,0,175000
"Swaziland_MICS5_Datasets","fifteento49","no.birth.reg","under5",0,47,100,0,47,0,0,175000
"Swaziland_MICS5_Datasets","fifteento49","no.birth.reg","urban",0,47,23,0,8,0,0,175000
"Swaziland_MICS5_Datasets","fifteento49","no.educ","no.skilled.attendant",100,15,12,15,4,12,4,192000
"Swaziland_MICS5_Datasets","fifteento49","no.educ","non.p20",69,25,44,10,4,34,2,485000
"Swaziland_MICS5_Datasets","fifteento49","no.educ","p20",69,25,56,10,21,34,7,485000
"Swaziland_MICS5_Datasets","fifteento49","no.educ","primary",69,25,75,10,0,59,0,485000
"Swaziland_MICS5_Datasets","fifteento49","no.educ","rural",69,25,67,10,21,42,8,485000
"Swaziland_MICS5_Datasets","fifteento49","no.educ","secondary",69,25,58,10,0,48,0,485000
"Swaziland_MICS5_Datasets","fifteento49","no.educ","stunted",,,,,,,,485000
"Swaziland_MICS5_Datasets","fifteento49","no.educ","under5",69,25,0,10,0,0,0,485000
"Swaziland_MICS5_Datasets","fifteento49","no.educ","urban",69,25,33,10,3,27,2,485000
"Swaziland_MICS5_Datasets","fifteento49","no.skilled.attendant","non.p20",100,12,33,12,2,33,2,340000
"Swaziland_MICS5_Datasets","fifteento49","no.skilled.attendant","p20",100,12,67,12,10,67,10,340000
"Swaziland_MICS5_Datasets","fifteento49","no.skilled.attendant","primary",100,12,85,12,8,85,8,192000
"Swaziland_MICS5_Datasets","fifteento49","no.skilled.attendant","rural",100,12,73,12,10,73,10,340000
"Swaziland_MICS5_Datasets","fifteento49","no.skilled.attendant","secondary",100,12,69,12,6,69,6,192000
"Swaziland_MICS5_Datasets","fifteento49","no.skilled.attendant","stunted",,,,,,,,175000
"Swaziland_MICS5_Datasets","fifteento49","no.skilled.attendant","under5",100,12,0,12,0,0,0,340000
"Swaziland_MICS5_Datasets","fifteento49","no.skilled.attendant","urban",100,12,27,12,2,27,2,340000
"Swaziland_MICS5_Datasets","fifteento49","non.p20","p20",48,36,64,21,0,27,0,1269000
"Swaziland_MICS5_Datasets","fifteento49","non.p20","primary",69,44,75,34,40,59,32,485000
"Swaziland_MICS5_Datasets","fifteento49","non.p20","rural",48,36,73,21,15,32,8,1269000
"Swaziland_MICS5_Datasets","fifteento49","non.p20","secondary",69,44,58,34,36,48,29,485000
"Swaziland_MICS5_Datasets","fifteento49","non.p20","stunted",0,30,26,0,4,0,0,175000
"Swaziland_MICS5_Datasets","fifteento49","non.p20","under5",48,36,13,21,4,0,0,1269000
"Swaziland_MICS5_Datasets","fifteento49","non.p20","urban",48,36,27,21,21,16,13,1269000
"Swaziland_MICS5_Datasets","fifteento49","p20","primary",69,56,75,34,35,59,27,485000
"Swaziland_MICS5_Datasets","fifteento49","p20","rural",48,64,73,27,59,32,24,1269000
"Swaziland_MICS5_Datasets","fifteento49","p20","secondary",69,56,58,34,23,48,19,485000
"Swaziland_MICS5_Datasets","fifteento49","p20","stunted",0,70,26,0,21,0,0,175000
"Swaziland_MICS5_Datasets","fifteento49","p20","under5",48,64,13,27,9,0,0,1269000
"Swaziland_MICS5_Datasets","fifteento49","p20","urban",48,64,27,27,5,16,3,1269000
"Swaziland_MICS5_Datasets","fifteento49","primary","rural",69,75,67,59,45,42,34,485000
"Swaziland_MICS5_Datasets","fifteento49","primary","secondary",69,75,58,59,58,48,48,485000
"Swaziland_MICS5_Datasets","fifteento49","primary","stunted",,,,,,,,485000
"Swaziland_MICS5_Datasets","fifteento49","primary","under5",69,75,0,59,0,0,0,485000
"Swaziland_MICS5_Datasets","fifteento49","primary","urban",69,75,33,59,29,27,24,485000
"Swaziland_MICS5_Datasets","fifteento49","rural","secondary",69,67,58,42,33,48,26,485000
"Swaziland_MICS5_Datasets","fifteento49","rural","stunted",0,77,26,0,21,0,0,175000
"Swaziland_MICS5_Datasets","fifteento49","rural","under5",48,73,13,32,10,0,0,1269000
"Swaziland_MICS5_Datasets","fifteento49","rural","urban",48,73,27,32,0,16,0,1269000
"Swaziland_MICS5_Datasets","fifteento49","secondary","stunted",,,,,,,,485000
"Swaziland_MICS5_Datasets","fifteento49","secondary","under5",69,58,0,48,0,0,0,485000
"Swaziland_MICS5_Datasets","fifteento49","secondary","urban",69,58,33,48,26,27,22,485000
"Swaziland_MICS5_Datasets","fifteento49","stunted","under5",0,26,100,0,26,0,0,175000
"Swaziland_MICS5_Datasets","fifteento49","stunted","urban",0,26,23,0,4,0,0,175000
"Swaziland_MICS5_Datasets","fifteento49","under5","urban",48,13,27,0,3,16,0,1269000
"Swaziland_MICS5_Datasets","fiveto14","gt49","higher",0,31,36,0,5,0,0,485000
"Swaziland_MICS5_Datasets","fiveto14","gt49","male",27,13,48,0,5,13,0,1269000
"Swaziland_MICS5_Datasets","fiveto14","gt49","no.birth.reg",0,0,47,0,0,0,0,175000
"Swaziland_MICS5_Datasets","fiveto14","gt49","no.educ",0,31,25,0,15,0,0,485000
"Swaziland_MICS5_Datasets","fiveto14","gt49","no.skilled.attendant",0,0,12,0,0,0,0,340000
"Swaziland_MICS5_Datasets","fiveto14","gt49","non.p20",27,13,36,0,4,8,0,1269000
"Swaziland_MICS5_Datasets","fiveto14","gt49","p20",27,13,64,0,9,19,0,1269000
"Swaziland_MICS5_Datasets","fiveto14","gt49","primary",0,31,75,0,16,0,0,485000
"Swaziland_MICS5_Datasets","fiveto14","gt49","rural",27,13,73,0,10,22,0,1269000
"Swaziland_MICS5_Datasets","fiveto14","gt49","secondary",0,31,58,0,10,0,0,485000
"Swaziland_MICS5_Datasets","fiveto14","gt49","stunted",0,0,26,0,0,0,0,175000
"Swaziland_MICS5_Datasets","fiveto14","gt49","under5",27,13,13,0,0,0,0,1269000
"Swaziland_MICS5_Datasets","fiveto14","gt49","urban",27,13,27,0,3,5,0,1269000
"Swaziland_MICS5_Datasets","fiveto14","higher","male",0,36,44,0,19,0,0,485000
"Swaziland_MICS5_Datasets","fiveto14","higher","no.birth.reg",,,,,,,,485000
"Swaziland_MICS5_Datasets","fiveto14","higher","no.educ",0,36,25,0,0,0,0,485000
"Swaziland_MICS5_Datasets","fiveto14","higher","no.skilled.attendant",0,36,12,0,1,0,0,192000
"Swaziland_MICS5_Datasets","fiveto14","higher","non.p20",0,36,44,0,26,0,0,485000
"Swaziland_MICS5_Datasets","fiveto14","higher","p20",0,36,56,0,9,0,0,485000
"Swaziland_MICS5_Datasets","fiveto14","higher","primary",0,36,75,0,36,0,0,485000
"Swaziland_MICS5_Datasets","fiveto14","higher","rural",0,36,67,0,18,0,0,485000
"Swaziland_MICS5_Datasets","fiveto14","higher","secondary",0,36,58,0,36,0,0,485000
"Swaziland_MICS5_Datasets","fiveto14","higher","stunted",,,,,,,,485000
"Swaziland_MICS5_Datasets","fiveto14","higher","under5",0,36,0,0,0,0,0,485000
"Swaziland_MICS5_Datasets","fiveto14","higher","urban",0,36,33,0,18,0,0,485000
"Swaziland_MICS5_Datasets","fiveto14","male","no.birth.reg",0,51,47,0,25,0,0,175000
"Swaziland_MICS5_Datasets","fiveto14","male","no.educ",0,44,25,0,10,0,0,485000
"Swaziland_MICS5_Datasets","fiveto14","male","no.skilled.attendant",0,0,12,0,0,0,0,340000
"Swaziland_MICS5_Datasets","fiveto14","male","non.p20",27,48,36,13,17,8,4,1269000
"Swaziland_MICS5_Datasets","fiveto14","male","p20",27,48,64,13,31,19,10,1269000
"Swaziland_MICS5_Datasets","fiveto14","male","primary",0,44,75,0,34,0,0,485000
"Swaziland_MICS5_Datasets","fiveto14","male","rural",27,48,73,13,35,22,11,1269000
"Swaziland_MICS5_Datasets","fiveto14","male","secondary",0,44,58,0,27,0,0,485000
"Swaziland_MICS5_Datasets","fiveto14","male","stunted",0,51,26,0,15,0,0,175000
"Swaziland_MICS5_Datasets","fiveto14","male","under5",27,48,13,13,6,0,0,1269000
"Swaziland_MICS5_Datasets","fiveto14","male","urban",27,48,27,13,13,5,3,1269000
"Swaziland_MICS5_Datasets","fiveto14","no.birth.reg","no.educ",,,,,,,,485000
"Swaziland_MICS5_Datasets","fiveto14","no.birth.reg","no.skilled.attendant",,,,,,,,175000
"Swaziland_MICS5_Datasets","fiveto14","no.birth.reg","non.p20",0,47,30,0,9,0,0,175000
"Swaziland_MICS5_Datasets","fiveto14","no.birth.reg","p20",0,47,70,0,37,0,0,175000
"Swaziland_MICS5_Datasets","fiveto14","no.birth.reg","primary",,,,,,,,485000
"Swaziland_MICS5_Datasets","fiveto14","no.birth.reg","rural",0,47,77,0,38,0,0,175000
"Swaziland_MICS5_Datasets","fiveto14","no.birth.reg","secondary",,,,,,,,485000
"Swaziland_MICS5_Datasets","fiveto14","no.birth.reg","stunted",0,47,26,0,14,0,0,175000
"Swaziland_MICS5_Datasets","fiveto14","no.birth.reg","under5",0,47,100,0,47,0,0,175000
"Swaziland_MICS5_Datasets","fiveto14","no.birth.reg","urban",0,47,23,0,8,0,0,175000
"Swaziland_MICS5_Datasets","fiveto14","no.educ","no.skilled.attendant",0,15,12,0,4,0,0,192000
"Swaziland_MICS5_Datasets","fiveto14","no.educ","non.p20",0,25,44,0,4,0,0,485000
"Swaziland_MICS5_Datasets","fiveto14","no.educ","p20",0,25,56,0,21,0,0,485000
"Swaziland_MICS5_Datasets","fiveto14","no.educ","primary",0,25,75,0,0,0,0,485000
"Swaziland_MICS5_Datasets","fiveto14","no.educ","rural",0,25,67,0,21,0,0,485000
"Swaziland_MICS5_Datasets","fiveto14","no.educ","secondary",0,25,58,0,0,0,0,485000
"Swaziland_MICS5_Datasets","fiveto14","no.educ","stunted",,,,,,,,485000
"Swaziland_MICS5_Datasets","fiveto14","no.educ","under5",0,25,0,0,0,0,0,485000
"Swaziland_MICS5_Datasets","fiveto14","no.educ","urban",0,25,33,0,3,0,0,485000
"Swaziland_MICS5_Datasets","fiveto14","no.skilled.attendant","non.p20",0,12,33,0,2,0,0,340000
"Swaziland_MICS5_Datasets","fiveto14","no.skilled.attendant","p20",0,12,67,0,10,0,0,340000
"Swaziland_MICS5_Datasets","fiveto14","no.skilled.attendant","primary",0,12,85,0,8,0,0,192000
"Swaziland_MICS5_Datasets","fiveto14","no.skilled.attendant","rural",0,12,73,0,10,0,0,340000
"Swaziland_MICS5_Datasets","fiveto14","no.skilled.attendant","secondary",0,12,69,0,6,0,0,192000
"Swaziland_MICS5_Datasets","fiveto14","no.skilled.attendant","stunted",,,,,,,,175000
"Swaziland_MICS5_Datasets","fiveto14","no.skilled.attendant","under5",0,12,0,0,0,0,0,340000
"Swaziland_MICS5_Datasets","fiveto14","no.skilled.attendant","urban",0,12,27,0,2,0,0,340000
"Swaziland_MICS5_Datasets","fiveto14","non.p20","p20",27,36,64,8,0,19,0,1269000
"Swaziland_MICS5_Datasets","fiveto14","non.p20","primary",0,44,75,0,40,0,0,485000
"Swaziland_MICS5_Datasets","fiveto14","non.p20","rural",27,36,73,8,15,22,3,1269000
"Swaziland_MICS5_Datasets","fiveto14","non.p20","secondary",0,44,58,0,36,0,0,485000
"Swaziland_MICS5_Datasets","fiveto14","non.p20","stunted",0,30,26,0,4,0,0,175000
"Swaziland_MICS5_Datasets","fiveto14","non.p20","under5",27,36,13,8,4,0,0,1269000
"Swaziland_MICS5_Datasets","fiveto14","non.p20","urban",27,36,27,8,21,5,4,1269000
"Swaziland_MICS5_Datasets","fiveto14","p20","primary",0,56,75,0,35,0,0,485000
"Swaziland_MICS5_Datasets","fiveto14","p20","rural",27,64,73,19,59,22,18,1269000
"Swaziland_MICS5_Datasets","fiveto14","p20","secondary",0,56,58,0,23,0,0,485000
"Swaziland_MICS5_Datasets","fiveto14","p20","stunted",0,70,26,0,21,0,0,175000
"Swaziland_MICS5_Datasets","fiveto14","p20","under5",27,64,13,19,9,0,0,1269000
"Swaziland_MICS5_Datasets","fiveto14","p20","urban",27,64,27,19,5,5,1,1269000
"Swaziland_MICS5_Datasets","fiveto14","primary","rural",0,75,67,0,45,0,0,485000
"Swaziland_MICS5_Datasets","fiveto14","primary","secondary",0,75,58,0,58,0,0,485000
"Swaziland_MICS5_Datasets","fiveto14","primary","stunted",,,,,,,,485000
"Swaziland_MICS5_Datasets","fiveto14","primary","under5",0,75,0,0,0,0,0,485000
"Swaziland_MICS5_Datasets","fiveto14","primary","urban",0,75,33,0,29,0,0,485000
"Swaziland_MICS5_Datasets","fiveto14","rural","secondary",0,67,58,0,33,0,0,485000
"Swaziland_MICS5_Datasets","fiveto14","rural","stunted",0,77,26,0,21,0,0,175000
"Swaziland_MICS5_Datasets","fiveto14","rural","under5",27,73,13,22,10,0,0,1269000
"Swaziland_MICS5_Datasets","fiveto14","rural","urban",27,73,27,22,0,5,0,1269000
"Swaziland_MICS5_Datasets","fiveto14","secondary","stunted",,,,,,,,485000
"Swaziland_MICS5_Datasets","fiveto14","secondary","under5",0,58,0,0,0,0,0,485000
"Swaziland_MICS5_Datasets","fiveto14","secondary","urban",0,58,33,0,26,0,0,485000
"Swaziland_MICS5_Datasets","fiveto14","stunted","under5",0,26,100,0,26,0,0,175000
"Swaziland_MICS5_Datasets","fiveto14","stunted","urban",0,26,23,0,4,0,0,175000
"Swaziland_MICS5_Datasets","fiveto14","under5","urban",27,13,27,0,3,5,0,1269000
"Swaziland_MICS5_Datasets","gt49","higher","male",31,36,44,5,19,12,3,485000
"Swaziland_MICS5_Datasets","gt49","higher","no.birth.reg",,,,,,,,485000
"Swaziland_MICS5_Datasets","gt49","higher","no.educ",31,36,25,5,0,15,0,485000
"Swaziland_MICS5_Datasets","gt49","higher","no.skilled.attendant",0,36,12,0,1,0,0,192000
"Swaziland_MICS5_Datasets","gt49","higher","non.p20",31,36,44,5,26,9,4,485000
"Swaziland_MICS5_Datasets","gt49","higher","p20",31,36,56,5,9,22,1,485000
"Swaziland_MICS5_Datasets","gt49","higher","primary",31,36,75,5,36,16,5,485000
"Swaziland_MICS5_Datasets","gt49","higher","rural",31,36,67,5,18,25,3,485000
"Swaziland_MICS5_Datasets","gt49","higher","secondary",31,36,58,5,36,10,5,485000
"Swaziland_MICS5_Datasets","gt49","higher","stunted",,,,,,,,485000
"Swaziland_MICS5_Datasets","gt49","higher","under5",31,36,0,5,0,0,0,485000
"Swaziland_MICS5_Datasets","gt49","higher","urban",31,36,33,5,18,7,2,485000
"Swaziland_MICS5_Datasets","gt49","male","no.birth.reg",0,51,47,0,25,0,0,175000
"Swaziland_MICS5_Datasets","gt49","male","no.educ",31,44,25,12,10,15,5,485000
"Swaziland_MICS5_Datasets","gt49","male","no.skilled.attendant",0,0,12,0,0,0,0,340000
"Swaziland_MICS5_Datasets","gt49","male","non.p20",13,48,36,5,17,4,2,1269000
"Swaziland_MICS5_Datasets","gt49","male","p20",13,48,64,5,31,9,3,1269000
"Swaziland_MICS5_Datasets","gt49","male","primary",31,44,75,12,34,16,7,485000
"Swaziland_MICS5_Datasets","gt49","male","rural",13,48,73,5,35,10,4,1269000
"Swaziland_MICS5_Datasets","gt49","male","secondary",31,44,58,12,27,10,5,485000
"Swaziland_MICS5_Datasets","gt49","male","stunted",0,51,26,0,15,0,0,175000
"Swaziland_MICS5_Datasets","gt49","male","under5",13,48,13,5,6,0,0,1269000
"Swaziland_MICS5_Datasets","gt49","male","urban",13,48,27,5,13,3,1,1269000
"Swaziland_MICS5_Datasets","gt49","no.birth.reg","no.educ",,,,,,,,485000
"Swaziland_MICS5_Datasets","gt49","no.birth.reg","no.skilled.attendant",,,,,,,,175000
"Swaziland_MICS5_Datasets","gt49","no.birth.reg","non.p20",0,47,30,0,9,0,0,175000
"Swaziland_MICS5_Datasets","gt49","no.birth.reg","p20",0,47,70,0,37,0,0,175000
"Swaziland_MICS5_Datasets","gt49","no.birth.reg","primary",,,,,,,,485000
"Swaziland_MICS5_Datasets","gt49","no.birth.reg","rural",0,47,77,0,38,0,0,175000
"Swaziland_MICS5_Datasets","gt49","no.birth.reg","secondary",,,,,,,,485000
"Swaziland_MICS5_Datasets","gt49","no.birth.reg","stunted",0,47,26,0,14,0,0,175000
"Swaziland_MICS5_Datasets","gt49","no.birth.reg","under5",0,47,100,0,47,0,0,175000
"Swaziland_MICS5_Datasets","gt49","no.birth.reg","urban",0,47,23,0,8,0,0,175000
"Swaziland_MICS5_Datasets","gt49","no.educ","no.skilled.attendant",0,15,12,0,4,0,0,192000
"Swaziland_MICS5_Datasets","gt49","no.educ","non.p20",31,25,44,15,4,9,2,485000
"Swaziland_MICS5_Datasets","gt49","no.educ","p20",31,25,56,15,21,22,14,485000
"Swaziland_MICS5_Datasets","gt49","no.educ","primary",31,25,75,15,0,16,0,485000
"Swaziland_MICS5_Datasets","gt49","no.educ","rural",31,25,67,15,21,25,14,485000
"Swaziland_MICS5_Datasets","gt49","no.educ","secondary",31,25,58,15,0,10,0,485000
"Swaziland_MICS5_Datasets","gt49","no.educ","stunted",,,,,,,,485000
"Swaziland_MICS5_Datasets","gt49","no.educ","under5",31,25,0,15,0,0,0,485000
"Swaziland_MICS5_Datasets","gt49","no.educ","urban",31,25,33,15,3,7,2,485000
"Swaziland_MICS5_Datasets","gt49","no.skilled.attendant","non.p20",0,12,33,0,2,0,0,340000
"Swaziland_MICS5_Datasets","gt49","no.skilled.attendant","p20",0,12,67,0,10,0,0,340000
"Swaziland_MICS5_Datasets","gt49","no.skilled.attendant","primary",0,12,85,0,8,0,0,192000
"Swaziland_MICS5_Datasets","gt49","no.skilled.attendant","rural",0,12,73,0,10,0,0,340000
"Swaziland_MICS5_Datasets","gt49","no.skilled.attendant","secondary",0,12,69,0,6,0,0,192000
"Swaziland_MICS5_Datasets","gt49","no.skilled.attendant","stunted",,,,,,,,175000
"Swaziland_MICS5_Datasets","gt49","no.skilled.attendant","under5",0,12,0,0,0,0,0,340000
"Swaziland_MICS5_Datasets","gt49","no.skilled.attendant","urban",0,12,27,0,2,0,0,340000
"Swaziland_MICS5_Datasets","gt49","non.p20","p20",13,36,64,4,0,9,0,1269000
"Swaziland_MICS5_Datasets","gt49","non.p20","primary",31,44,75,9,40,16,8,485000
"Swaziland_MICS5_Datasets","gt49","non.p20","rural",13,36,73,4,15,10,2,1269000
"Swaziland_MICS5_Datasets","gt49","non.p20","secondary",31,44,58,9,36,10,6,485000
"Swaziland_MICS5_Datasets","gt49","non.p20","stunted",0,30,26,0,4,0,0,175000
"Swaziland_MICS5_Datasets","gt49","non.p20","under5",13,36,13,4,4,0,0,1269000
"Swaziland_MICS5_Datasets","gt49","non.p20","urban",13,36,27,4,21,3,2,1269000
"Swaziland_MICS5_Datasets","gt49","p20","primary",31,56,75,22,35,16,8,485000
"Swaziland_MICS5_Datasets","gt49","p20","rural",13,64,73,9,59,10,8,1269000
"Swaziland_MICS5_Datasets","gt49","p20","secondary",31,56,58,22,23,10,4,485000
"Swaziland_MICS5_Datasets","gt49","p20","stunted",0,70,26,0,21,0,0,175000
"Swaziland_MICS5_Datasets","gt49","p20","under5",13,64,13,9,9,0,0,1269000
"Swaziland_MICS5_Datasets","gt49","p20","urban",13,64,27,9,5,3,1,1269000
"Swaziland_MICS5_Datasets","gt49","primary","rural",31,75,67,16,45,25,11,485000
"Swaziland_MICS5_Datasets","gt49","primary","secondary",31,75,58,16,58,10,10,485000
"Swaziland_MICS5_Datasets","gt49","primary","stunted",,,,,,,,485000
"Swaziland_MICS5_Datasets","gt49","primary","under5",31,75,0,16,0,0,0,485000
"Swaziland_MICS5_Datasets","gt49","primary","urban",31,75,33,16,29,7,5,485000
"Swaziland_MICS5_Datasets","gt49","rural","secondary",31,67,58,25,33,10,6,485000
"Swaziland_MICS5_Datasets","gt49","rural","stunted",0,77,26,0,21,0,0,175000
"Swaziland_MICS5_Datasets","gt49","rural","under5",13,73,13,10,10,0,0,1269000
"Swaziland_MICS5_Datasets","gt49","rural","urban",13,73,27,10,0,3,0,1269000
"Swaziland_MICS5_Datasets","gt49","secondary","stunted",,,,,,,,485000
"Swaziland_MICS5_Datasets","gt49","secondary","under5",31,58,0,10,0,0,0,485000
"Swaziland_MICS5_Datasets","gt49","secondary","urban",31,58,33,10,26,7,4,485000
"Swaziland_MICS5_Datasets","gt49","stunted","under5",0,26,100,0,26,0,0,175000
"Swaziland_MICS5_Datasets","gt49","stunted","urban",0,26,23,0,4,0,0,175000
"Swaziland_MICS5_Datasets","gt49","under5","urban",13,13,27,0,3,3,0,1269000
"Swaziland_MICS5_Datasets","higher","male","no.birth.reg",,,,,,,,485000
"Swaziland_MICS5_Datasets","higher","male","no.educ",36,44,25,19,10,0,0,485000
"Swaziland_MICS5_Datasets","higher","male","no.skilled.attendant",36,0,12,0,0,1,0,192000
"Swaziland_MICS5_Datasets","higher","male","non.p20",36,44,44,19,21,26,14,485000
"Swaziland_MICS5_Datasets","higher","male","p20",36,44,56,19,23,9,5,485000
"Swaziland_MICS5_Datasets","higher","male","primary",36,44,75,19,34,36,19,485000
"Swaziland_MICS5_Datasets","higher","male","rural",36,44,67,19,28,18,9,485000
"Swaziland_MICS5_Datasets","higher","male","secondary",36,44,58,19,27,36,19,485000
"Swaziland_MICS5_Datasets","higher","male","stunted",,,,,,,,485000
"Swaziland_MICS5_Datasets","higher","male","under5",36,44,0,19,0,0,0,485000
"Swaziland_MICS5_Datasets","higher","male","urban",36,44,33,19,16,18,10,485000
"Swaziland_MICS5_Datasets","higher","no.birth.reg","no.educ",,,,,,,,485000
"Swaziland_MICS5_Datasets","higher","no.birth.reg","no.skilled.attendant",,,,,,,,192000
"Swaziland_MICS5_Datasets","higher","no.birth.reg","non.p20",,,,,,,,485000
"Swaziland_MICS5_Datasets","higher","no.birth.reg","p20",,,,,,,,485000
"Swaziland_MICS5_Datasets","higher","no.birth.reg","primary",,,,,,,,485000
"Swaziland_MICS5_Datasets","higher","no.birth.reg","rural",,,,,,,,485000
"Swaziland_MICS5_Datasets","higher","no.birth.reg","secondary",,,,,,,,485000
"Swaziland_MICS5_Datasets","higher","no.birth.reg","stunted",,,,,,,,485000
"Swaziland_MICS5_Datasets","higher","no.birth.reg","under5",,,,,,,,485000
"Swaziland_MICS5_Datasets","higher","no.birth.reg","urban",,,,,,,,485000
"Swaziland_MICS5_Datasets","higher","no.educ","no.skilled.attendant",36,15,12,0,4,1,0,192000
"Swaziland_MICS5_Datasets","higher","no.educ","non.p20",36,25,44,0,4,26,0,485000
"Swaziland_MICS5_Datasets","higher","no.educ","p20",36,25,56,0,21,9,0,485000
"Swaziland_MICS5_Datasets","higher","no.educ","primary",36,25,75,0,0,36,0,485000
"Swaziland_MICS5_Datasets","higher","no.educ","rural",36,25,67,0,21,18,0,485000
"Swaziland_MICS5_Datasets","higher","no.educ","secondary",36,25,58,0,0,36,0,485000
"Swaziland_MICS5_Datasets","higher","no.educ","stunted",,,,,,,,485000
"Swaziland_MICS5_Datasets","higher","no.educ","under5",36,25,0,0,0,0,0,485000
"Swaziland_MICS5_Datasets","higher","no.educ","urban",36,25,33,0,3,18,0,485000
"Swaziland_MICS5_Datasets","higher","no.skilled.attendant","non.p20",36,12,36,1,1,22,0,192000
"Swaziland_MICS5_Datasets","higher","no.skilled.attendant","p20",36,12,64,1,11,13,1,192000
"Swaziland_MICS5_Datasets","higher","no.skilled.attendant","primary",36,12,85,1,8,36,1,192000
"Swaziland_MICS5_Datasets","higher","no.skilled.attendant","rural",36,12,68,1,11,18,1,192000
"Swaziland_MICS5_Datasets","higher","no.skilled.attendant","secondary",36,12,69,1,6,36,1,192000
"Swaziland_MICS5_Datasets","higher","no.skilled.attendant","stunted",,,,,,,,192000
"Swaziland_MICS5_Datasets","higher","no.skilled.attendant","under5",36,12,0,1,0,0,0,192000
"Swaziland_MICS5_Datasets","higher","no.skilled.attendant","urban",36,12,32,1,1,17,0,192000
"Swaziland_MICS5_Datasets","higher","non.p20","p20",36,44,56,26,0,9,0,485000
"Swaziland_MICS5_Datasets","higher","non.p20","primary",36,44,75,26,40,36,26,485000
"Swaziland_MICS5_Datasets","higher","non.p20","rural",36,44,67,26,17,18,10,485000
"Swaziland_MICS5_Datasets","higher","non.p20","secondary",36,44,58,26,36,36,26,485000
"Swaziland_MICS5_Datasets","higher","non.p20","stunted",,,,,,,,485000
"Swaziland_MICS5_Datasets","higher","non.p20","under5",36,44,0,26,0,0,0,485000
"Swaziland_MICS5_Datasets","higher","non.p20","urban",36,44,33,26,27,18,16,485000
"Swaziland_MICS5_Datasets","higher","p20","primary",36,56,75,9,35,36,9,485000
"Swaziland_MICS5_Datasets","higher","p20","rural",36,56,67,9,50,18,8,485000
"Swaziland_MICS5_Datasets","higher","p20","secondary",36,56,58,9,23,36,9,485000
"Swaziland_MICS5_Datasets","higher","p20","stunted",,,,,,,,485000
"Swaziland_MICS5_Datasets","higher","p20","under5",36,56,0,9,0,0,0,485000
"Swaziland_MICS5_Datasets","higher","p20","urban",36,56,33,9,6,18,2,485000
"Swaziland_MICS5_Datasets","higher","primary","rural",36,75,67,36,45,18,18,485000
"Swaziland_MICS5_Datasets","higher","primary","secondary",36,75,58,36,58,36,36,485000
"Swaziland_MICS5_Datasets","higher","primary","stunted",,,,,,,,485000
"Swaziland_MICS5_Datasets","higher","primary","under5",36,75,0,36,0,0,0,485000
"Swaziland_MICS5_Datasets","higher","primary","urban",36,75,33,36,29,18,18,485000
"Swaziland_MICS5_Datasets","higher","rural","secondary",36,67,58,18,33,36,18,485000
"Swaziland_MICS5_Datasets","higher","rural","stunted",,,,,,,,485000
"Swaziland_MICS5_Datasets","higher","rural","under5",36,67,0,18,0,0,0,485000
"Swaziland_MICS5_Datasets","higher","rural","urban",36,67,33,18,0,18,0,485000
"Swaziland_MICS5_Datasets","higher","secondary","stunted",,,,,,,,485000
"Swaziland_MICS5_Datasets","higher","secondary","under5",36,58,0,36,0,0,0,485000
"Swaziland_MICS5_Datasets","higher","secondary","urban",36,58,33,36,26,18,18,485000
"Swaziland_MICS5_Datasets","higher","stunted","under5",,,,,,,,485000
"Swaziland_MICS5_Datasets","higher","stunted","urban",,,,,,,,485000
"Swaziland_MICS5_Datasets","higher","under5","urban",36,0,33,0,0,18,0,485000
"Swaziland_MICS5_Datasets","male","no.birth.reg","no.educ",,,,,,,,485000
"Swaziland_MICS5_Datasets","male","no.birth.reg","no.skilled.attendant",,,,,,,,175000
"Swaziland_MICS5_Datasets","male","no.birth.reg","non.p20",51,47,30,25,9,14,5,175000
"Swaziland_MICS5_Datasets","male","no.birth.reg","p20",51,47,70,25,37,37,20,175000
"Swaziland_MICS5_Datasets","male","no.birth.reg","primary",,,,,,,,485000
"Swaziland_MICS5_Datasets","male","no.birth.reg","rural",51,47,77,25,38,40,20,175000
"Swaziland_MICS5_Datasets","male","no.birth.reg","secondary",,,,,,,,485000
"Swaziland_MICS5_Datasets","male","no.birth.reg","stunted",51,47,26,25,14,15,8,175000
"Swaziland_MICS5_Datasets","male","no.birth.reg","under5",51,47,100,25,47,51,25,175000
"Swaziland_MICS5_Datasets","male","no.birth.reg","urban",51,47,23,25,8,11,4,175000
"Swaziland_MICS5_Datasets","male","no.educ","no.skilled.attendant",0,15,12,0,4,0,0,192000
"Swaziland_MICS5_Datasets","male","no.educ","non.p20",44,25,44,10,4,21,2,485000
"Swaziland_MICS5_Datasets","male","no.educ","p20",44,25,56,10,21,23,8,485000
"Swaziland_MICS5_Datasets","male","no.educ","primary",44,25,75,10,0,34,0,485000
"Swaziland_MICS5_Datasets","male","no.educ","rural",44,25,67,10,21,28,9,485000
"Swaziland_MICS5_Datasets","male","no.educ","secondary",44,25,58,10,0,27,0,485000
"Swaziland_MICS5_Datasets","male","no.educ","stunted",,,,,,,,485000
"Swaziland_MICS5_Datasets","male","no.educ","under5",44,25,0,10,0,0,0,485000
"Swaziland_MICS5_Datasets","male","no.educ","urban",44,25,33,10,3,16,2,485000
"Swaziland_MICS5_Datasets","male","no.skilled.attendant","non.p20",0,12,33,0,2,0,0,340000
"Swaziland_MICS5_Datasets","male","no.skilled.attendant","p20",0,12,67,0,10,0,0,340000
"Swaziland_MICS5_Datasets","male","no.skilled.attendant","primary",0,12,85,0,8,0,0,192000
"Swaziland_MICS5_Datasets","male","no.skilled.attendant","rural",0,12,73,0,10,0,0,340000
"Swaziland_MICS5_Datasets","male","no.skilled.attendant","secondary",0,12,69,0,6,0,0,192000
"Swaziland_MICS5_Datasets","male","no.skilled.attendant","stunted",,,,,,,,175000
"Swaziland_MICS5_Datasets","male","no.skilled.attendant","under5",0,12,0,0,0,0,0,340000
"Swaziland_MICS5_Datasets","male","no.skilled.attendant","urban",0,12,27,0,2,0,0,340000
"Swaziland_MICS5_Datasets","male","non.p20","p20",48,36,64,17,0,31,0,1269000
"Swaziland_MICS5_Datasets","male","non.p20","primary",44,44,75,21,40,34,19,485000
"Swaziland_MICS5_Datasets","male","non.p20","rural",48,36,73,17,15,35,7,1269000
"Swaziland_MICS5_Datasets","male","non.p20","secondary",44,44,58,21,36,27,17,485000
"Swaziland_MICS5_Datasets","male","non.p20","stunted",51,30,26,14,4,15,3,175000
"Swaziland_MICS5_Datasets","male","non.p20","under5",48,36,13,17,4,6,2,1269000
"Swaziland_MICS5_Datasets","male","non.p20","urban",48,36,27,17,21,13,10,1269000
"Swaziland_MICS5_Datasets","male","p20","primary",44,56,75,23,35,34,15,485000
"Swaziland_MICS5_Datasets","male","p20","rural",48,64,73,31,59,35,28,1269000
"Swaziland_MICS5_Datasets","male","p20","secondary",44,56,58,23,23,27,10,485000
"Swaziland_MICS5_Datasets","male","p20","stunted",51,70,26,37,21,15,12,175000
"Swaziland_MICS5_Datasets","male","p20","under5",48,64,13,31,9,6,5,1269000
"Swaziland_MICS5_Datasets","male","p20","urban",48,64,27,31,5,13,2,1269000
"Swaziland_MICS5_Datasets","male","primary","rural",44,75,67,34,45,28,19,485000
"Swaziland_MICS5_Datasets","male","primary","secondary",44,75,58,34,58,27,27,485000
"Swaziland_MICS5_Datasets","male","primary","stunted",,,,,,,,485000
"Swaziland_MICS5_Datasets","male","primary","under5",44,75,0,34,0,0,0,485000
"Swaziland_MICS5_Datasets","male","primary","urban",44,75,33,34,29,16,14,485000
"Swaziland_MICS5_Datasets","male","rural","secondary",44,67,58,28,33,27,15,485000
"Swaziland_MICS5_Datasets","male","rural","stunted",51,77,26,40,21,15,12,175000
"Swaziland_MICS5_Datasets","male","rural","under5",48,73,13,35,10,6,5,1269000
"Swaziland_MICS5_Datasets","male","rural","urban",48,73,27,35,0,13,0,1269000
"Swaziland_MICS5_Datasets","male","secondary","stunted",,,,,,,,485000
"Swaziland_MICS5_Datasets","male","secondary","under5",44,58,0,27,0,0,0,485000
"Swaziland_MICS5_Datasets","male","secondary","urban",44,58,33,27,26,16,13,485000
"Swaziland_MICS5_Datasets","male","stunted","under5",51,26,100,15,26,51,15,175000
"Swaziland_MICS5_Datasets","male","stunted","urban",51,26,23,15,4,11,3,175000
"Swaziland_MICS5_Datasets","male","under5","urban",48,13,27,6,3,13,1,1269000
"Swaziland_MICS5_Datasets","no.birth.reg","no.educ","no.skilled.attendant",,,,,,,,192000
"Swaziland_MICS5_Datasets","no.birth.reg","no.educ","non.p20",,,,,,,,485000
"Swaziland_MICS5_Datasets","no.birth.reg","no.educ","p20",,,,,,,,485000
"Swaziland_MICS5_Datasets","no.birth.reg","no.educ","primary",,,,,,,,485000
"Swaziland_MICS5_Datasets","no.birth.reg","no.educ","rural",,,,,,,,485000
"Swaziland_MICS5_Datasets","no.birth.reg","no.educ","secondary",,,,,,,,485000
"Swaziland_MICS5_Datasets","no.birth.reg","no.educ","stunted",,,,,,,,485000
"Swaziland_MICS5_Datasets","no.birth.reg","no.educ","under5",,,,,,,,485000
"Swaziland_MICS5_Datasets","no.birth.reg","no.educ","urban",,,,,,,,485000
"Swaziland_MICS5_Datasets","no.birth.reg","no.skilled.attendant","non.p20",,,,,,,,175000
"Swaziland_MICS5_Datasets","no.birth.reg","no.skilled.attendant","p20",,,,,,,,175000
"Swaziland_MICS5_Datasets","no.birth.reg","no.skilled.attendant","primary",,,,,,,,192000
"Swaziland_MICS5_Datasets","no.birth.reg","no.skilled.attendant","rural",,,,,,,,175000
"Swaziland_MICS5_Datasets","no.birth.reg","no.skilled.attendant","secondary",,,,,,,,192000
"Swaziland_MICS5_Datasets","no.birth.reg","no.skilled.attendant","stunted",,,,,,,,175000
"Swaziland_MICS5_Datasets","no.birth.reg","no.skilled.attendant","under5",,,,,,,,175000
"Swaziland_MICS5_Datasets","no.birth.reg","no.skilled.attendant","urban",,,,,,,,175000
"Swaziland_MICS5_Datasets","no.birth.reg","non.p20","p20",47,30,70,9,0,37,0,175000
"Swaziland_MICS5_Datasets","no.birth.reg","non.p20","primary",,,,,,,,485000
"Swaziland_MICS5_Datasets","no.birth.reg","non.p20","rural",47,30,77,9,12,38,4,175000
"Swaziland_MICS5_Datasets","no.birth.reg","non.p20","secondary",,,,,,,,485000
"Swaziland_MICS5_Datasets","no.birth.reg","non.p20","stunted",47,30,26,9,4,14,2,175000
"Swaziland_MICS5_Datasets","no.birth.reg","non.p20","under5",47,30,100,9,30,47,9,175000
"Swaziland_MICS5_Datasets","no.birth.reg","non.p20","urban",47,30,23,9,18,8,5,175000
"Swaziland_MICS5_Datasets","no.birth.reg","p20","primary",,,,,,,,485000
"Swaziland_MICS5_Datasets","no.birth.reg","p20","rural",47,70,77,37,65,38,34,175000
"Swaziland_MICS5_Datasets","no.birth.reg","p20","secondary",,,,,,,,485000
"Swaziland_MICS5_Datasets","no.birth.reg","p20","stunted",47,70,26,37,21,14,11,175000
"Swaziland_MICS5_Datasets","no.birth.reg","p20","under5",47,70,100,37,70,47,37,175000
"Swaziland_MICS5_Datasets","no.birth.reg","p20","urban",47,70,23,37,5,8,3,175000
"Swaziland_MICS5_Datasets","no.birth.reg","primary","rural",,,,,,,,485000
"Swaziland_MICS5_Datasets","no.birth.reg","primary","secondary",,,,,,,,485000
"Swaziland_MICS5_Datasets","no.birth.reg","primary","stunted",,,,,,,,485000
"Swaziland_MICS5_Datasets","no.birth.reg","primary","under5",,,,,,,,485000
"Swaziland_MICS5_Datasets","no.birth.reg","primary","urban",,,,,,,,485000
"Swaziland_MICS5_Datasets","no.birth.reg","rural","secondary",,,,,,,,485000
"Swaziland_MICS5_Datasets","no.birth.reg","rural","stunted",47,77,26,38,21,14,12,175000
"Swaziland_MICS5_Datasets","no.birth.reg","rural","under5",47,77,100,38,77,47,38,175000
"Swaziland_MICS5_Datasets","no.birth.reg","rural","urban",47,77,23,38,0,8,0,175000
"Swaziland_MICS5_Datasets","no.birth.reg","secondary","stunted",,,,,,,,485000
"Swaziland_MICS5_Datasets","no.birth.reg","secondary","under5",,,,,,,,485000
"Swaziland_MICS5_Datasets","no.birth.reg","secondary","urban",,,,,,,,485000
"Swaziland_MICS5_Datasets","no.birth.reg","stunted","under5",47,26,100,14,26,47,14,175000
"Swaziland_MICS5_Datasets","no.birth.reg","stunted","urban",47,26,23,14,4,8,2,175000
"Swaziland_MICS5_Datasets","no.birth.reg","under5","urban",47,100,23,47,23,8,8,175000
"Swaziland_MICS5_Datasets","no.educ","no.skilled.attendant","non.p20",15,12,36,4,1,1,0,192000
"Swaziland_MICS5_Datasets","no.educ","no.skilled.attendant","p20",15,12,64,4,11,13,4,192000
"Swaziland_MICS5_Datasets","no.educ","no.skilled.attendant","primary",15,12,85,4,8,0,0,192000
"Swaziland_MICS5_Datasets","no.educ","no.skilled.attendant","rural",15,12,68,4,11,13,4,192000
"Swaziland_MICS5_Datasets","no.educ","no.skilled.attendant","secondary",15,12,69,4,6,0,0,192000
"Swaziland_MICS5_Datasets","no.educ","no.skilled.attendant","stunted",,,,,,,,192000
"Swaziland_MICS5_Datasets","no.educ","no.skilled.attendant","under5",15,12,0,4,0,0,0,192000
"Swaziland_MICS5_Datasets","no.educ","no.skilled.attendant","urban",15,12,32,4,1,2,0,192000
"Swaziland_MICS5_Datasets","no.educ","non.p20","p20",25,44,56,4,0,21,0,485000
"Swaziland_MICS5_Datasets","no.educ","non.p20","primary",25,44,75,4,40,0,0,485000
"Swaziland_MICS5_Datasets","no.educ","non.p20","rural",25,44,67,4,17,21,2,485000
"Swaziland_MICS5_Datasets","no.educ","non.p20","secondary",25,44,58,4,36,0,0,485000
"Swaziland_MICS5_Datasets","no.educ","non.p20","stunted",,,,,,,,485000
"Swaziland_MICS5_Datasets","no.educ","non.p20","under5",25,44,0,4,0,0,0,485000
"Swaziland_MICS5_Datasets","no.educ","non.p20","urban",25,44,33,4,27,3,2,485000
"Swaziland_MICS5_Datasets","no.educ","p20","primary",25,56,75,21,35,0,0,485000
"Swaziland_MICS5_Datasets","no.educ","p20","rural",25,56,67,21,50,21,20,485000
"Swaziland_MICS5_Datasets","no.educ","p20","secondary",25,56,58,21,23,0,0,485000
"Swaziland_MICS5_Datasets","no.educ","p20","stunted",,,,,,,,485000
"Swaziland_MICS5_Datasets","no.educ","p20","under5",25,56,0,21,0,0,0,485000
"Swaziland_MICS5_Datasets","no.educ","p20","urban",25,56,33,21,6,3,1,485000
"Swaziland_MICS5_Datasets","no.educ","primary","rural",25,75,67,0,45,21,0,485000
"Swaziland_MICS5_Datasets","no.educ","primary","secondary",25,75,58,0,58,0,0,485000
"Swaziland_MICS5_Datasets","no.educ","primary","stunted",,,,,,,,485000
"Swaziland_MICS5_Datasets","no.educ","primary","under5",25,75,0,0,0,0,0,485000
"Swaziland_MICS5_Datasets","no.educ","primary","urban",25,75,33,0,29,3,0,485000
"Swaziland_MICS5_Datasets","no.educ","rural","secondary",25,67,58,21,33,0,0,485000
"Swaziland_MICS5_Datasets","no.educ","rural","stunted",,,,,,,,485000
"Swaziland_MICS5_Datasets","no.educ","rural","under5",25,67,0,21,0,0,0,485000
"Swaziland_MICS5_Datasets","no.educ","rural","urban",25,67,33,21,0,3,0,485000
"Swaziland_MICS5_Datasets","no.educ","secondary","stunted",,,,,,,,485000
"Swaziland_MICS5_Datasets","no.educ","secondary","under5",25,58,0,0,0,0,0,485000
"Swaziland_MICS5_Datasets","no.educ","secondary","urban",25,58,33,0,26,3,0,485000
"Swaziland_MICS5_Datasets","no.educ","stunted","under5",,,,,,,,485000
"Swaziland_MICS5_Datasets","no.educ","stunted","urban",,,,,,,,485000
"Swaziland_MICS5_Datasets","no.educ","under5","urban",25,0,33,0,0,3,0,485000
"Swaziland_MICS5_Datasets","no.skilled.attendant","non.p20","p20",12,33,67,2,0,10,0,340000
"Swaziland_MICS5_Datasets","no.skilled.attendant","non.p20","primary",12,36,85,1,34,8,1,192000
"Swaziland_MICS5_Datasets","no.skilled.attendant","non.p20","rural",12,33,73,2,13,10,1,340000
"Swaziland_MICS5_Datasets","no.skilled.attendant","non.p20","secondary",12,36,69,1,33,6,1,192000
"Swaziland_MICS5_Datasets","no.skilled.attendant","non.p20","stunted",,,,,,,,175000
"Swaziland_MICS5_Datasets","no.skilled.attendant","non.p20","under5",12,33,0,2,0,0,0,340000
"Swaziland_MICS5_Datasets","no.skilled.attendant","non.p20","urban",12,33,27,2,20,2,1,340000
"Swaziland_MICS5_Datasets","no.skilled.attendant","p20","primary",12,64,85,11,51,8,7,192000
"Swaziland_MICS5_Datasets","no.skilled.attendant","p20","rural",12,67,73,10,60,10,9,340000
"Swaziland_MICS5_Datasets","no.skilled.attendant","p20","secondary",12,64,69,11,37,6,5,192000
"Swaziland_MICS5_Datasets","no.skilled.attendant","p20","stunted",,,,,,,,175000
"Swaziland_MICS5_Datasets","no.skilled.attendant","p20","under5",12,67,0,10,0,0,0,340000
"Swaziland_MICS5_Datasets","no.skilled.attendant","p20","urban",12,67,27,10,7,2,1,340000
"Swaziland_MICS5_Datasets","no.skilled.attendant","primary","rural",12,85,68,8,55,11,7,192000
"Swaziland_MICS5_Datasets","no.skilled.attendant","primary","secondary",12,85,69,8,69,6,6,192000
"Swaziland_MICS5_Datasets","no.skilled.attendant","primary","stunted",,,,,,,,192000
"Swaziland_MICS5_Datasets","no.skilled.attendant","primary","under5",12,85,0,8,0,0,0,192000
"Swaziland_MICS5_Datasets","no.skilled.attendant","primary","urban",12,85,32,8,30,1,1,192000
"Swaziland_MICS5_Datasets","no.skilled.attendant","rural","secondary",12,68,69,11,42,6,5,192000
"Swaziland_MICS5_Datasets","no.skilled.attendant","rural","stunted",,,,,,,,175000
"Swaziland_MICS5_Datasets","no.skilled.attendant","rural","under5",12,73,0,10,0,0,0,340000
"Swaziland_MICS5_Datasets","no.skilled.attendant","rural","urban",12,73,27,10,0,2,0,340000
"Swaziland_MICS5_Datasets","no.skilled.attendant","secondary","stunted",,,,,,,,192000
"Swaziland_MICS5_Datasets","no.skilled.attendant","secondary","under5",12,69,0,6,0,0,0,192000
"Swaziland_MICS5_Datasets","no.skilled.attendant","secondary","urban",12,69,32,6,27,1,1,192000
"Swaziland_MICS5_Datasets","no.skilled.attendant","stunted","under5",,,,,,,,175000
"Swaziland_MICS5_Datasets","no.skilled.attendant","stunted","urban",,,,,,,,175000
"Swaziland_MICS5_Datasets","no.skilled.attendant","under5","urban",12,0,27,0,0,2,0,340000
"Swaziland_MICS5_Datasets","non.p20","p20","primary",44,56,75,0,35,40,0,485000
"Swaziland_MICS5_Datasets","non.p20","p20","rural",36,64,73,0,59,15,0,1269000
"Swaziland_MICS5_Datasets","non.p20","p20","secondary",44,56,58,0,23,36,0,485000
"Swaziland_MICS5_Datasets","non.p20","p20","stunted",30,70,26,0,21,4,0,175000
"Swaziland_MICS5_Datasets","non.p20","p20","under5",36,64,13,0,9,4,0,1269000
"Swaziland_MICS5_Datasets","non.p20","p20","urban",36,64,27,0,5,21,0,1269000
"Swaziland_MICS5_Datasets","non.p20","primary","rural",44,75,67,40,45,17,15,485000
"Swaziland_MICS5_Datasets","non.p20","primary","secondary",44,75,58,40,58,36,36,485000
"Swaziland_MICS5_Datasets","non.p20","primary","stunted",,,,,,,,485000
"Swaziland_MICS5_Datasets","non.p20","primary","under5",44,75,0,40,0,0,0,485000
"Swaziland_MICS5_Datasets","non.p20","primary","urban",44,75,33,40,29,27,25,485000
"Swaziland_MICS5_Datasets","non.p20","rural","secondary",44,67,58,17,33,36,13,485000
"Swaziland_MICS5_Datasets","non.p20","rural","stunted",30,77,26,12,21,4,2,175000
"Swaziland_MICS5_Datasets","non.p20","rural","under5",36,73,13,15,10,4,2,1269000
"Swaziland_MICS5_Datasets","non.p20","rural","urban",36,73,27,15,0,21,0,1269000
"Swaziland_MICS5_Datasets","non.p20","secondary","stunted",,,,,,,,485000
"Swaziland_MICS5_Datasets","non.p20","secondary","under5",44,58,0,36,0,0,0,485000
"Swaziland_MICS5_Datasets","non.p20","secondary","urban",44,58,33,36,26,27,22,485000
"Swaziland_MICS5_Datasets","non.p20","stunted","under5",30,26,100,4,26,30,4,175000
"Swaziland_MICS5_Datasets","non.p20","stunted","urban",30,26,23,4,4,18,2,175000
"Swaziland_MICS5_Datasets","non.p20","under5","urban",36,13,27,4,3,21,2,1269000
"Swaziland_MICS5_Datasets","p20","primary","rural",56,75,67,35,45,50,30,485000
"Swaziland_MICS5_Datasets","p20","primary","secondary",56,75,58,35,58,23,23,485000
"Swaziland_MICS5_Datasets","p20","primary","stunted",,,,,,,,485000
"Swaziland_MICS5_Datasets","p20","primary","under5",56,75,0,35,0,0,0,485000
"Swaziland_MICS5_Datasets","p20","primary","urban",56,75,33,35,29,6,5,485000
"Swaziland_MICS5_Datasets","p20","rural","secondary",56,67,58,50,33,23,19,485000
"Swaziland_MICS5_Datasets","p20","rural","stunted",70,77,26,65,21,21,19,175000
"Swaziland_MICS5_Datasets","p20","rural","under5",64,73,13,59,10,9,8,1269000
"Swaziland_MICS5_Datasets","p20","rural","urban",64,73,27,59,0,5,0,1269000
"Swaziland_MICS5_Datasets","p20","secondary","stunted",,,,,,,,485000
"Swaziland_MICS5_Datasets","p20","secondary","under5",56,58,0,23,0,0,0,485000
"Swaziland_MICS5_Datasets","p20","secondary","urban",56,58,33,23,26,6,3,485000
"Swaziland_MICS5_Datasets","p20","stunted","under5",70,26,100,21,26,70,21,175000
"Swaziland_MICS5_Datasets","p20","stunted","urban",70,26,23,21,4,5,2,175000
"Swaziland_MICS5_Datasets","p20","under5","urban",64,13,27,9,3,5,1,1269000
"Swaziland_MICS5_Datasets","primary","rural","secondary",75,67,58,45,33,58,33,485000
"Swaziland_MICS5_Datasets","primary","rural","stunted",,,,,,,,485000
"Swaziland_MICS5_Datasets","primary","rural","under5",75,67,0,45,0,0,0,485000
"Swaziland_MICS5_Datasets","primary","rural","urban",75,67,33,45,0,29,0,485000
"Swaziland_MICS5_Datasets","primary","secondary","stunted",,,,,,,,485000
"Swaziland_MICS5_Datasets","primary","secondary","under5",75,58,0,58,0,0,0,485000
"Swaziland_MICS5_Datasets","primary","secondary","urban",75,58,33,58,26,29,26,485000
"Swaziland_MICS5_Datasets","primary","stunted","under5",,,,,,,,485000
"Swaziland_MICS5_Datasets","primary","stunted","urban",,,,,,,,485000
"Swaziland_MICS5_Datasets","primary","under5","urban",75,0,33,0,0,29,0,485000
"Swaziland_MICS5_Datasets","rural","secondary","stunted",,,,,,,,485000
"Swaziland_MICS5_Datasets","rural","secondary","under5",67,58,0,33,0,0,0,485000
"Swaziland_MICS5_Datasets","rural","secondary","urban",67,58,33,33,26,0,0,485000
"Swaziland_MICS5_Datasets","rural","stunted","under5",77,26,100,21,26,77,21,175000
"Swaziland_MICS5_Datasets","rural","stunted","urban",77,26,23,21,4,0,0,175000
"Swaziland_MICS5_Datasets","rural","under5","urban",73,13,27,10,3,0,0,1269000
"Swaziland_MICS5_Datasets","secondary","stunted","under5",,,,,,,,485000
"Swaziland_MICS5_Datasets","secondary","stunted","urban",,,,,,,,485000
"Swaziland_MICS5_Datasets","secondary","under5","urban",58,0,33,0,0,26,0,485000
"Swaziland_MICS5_Datasets","stunted","under5","urban",26,100,23,26,23,4,4,175000
