"filename","indicator1","indicator2","indicator3","X","Y","Z","X,Y","Y,Z","X,Z","X,Y,Z","pop"
"United States","blank1","blank2","ext",100,100,1,100,1,1,1,316427395
"United States","blank1","blank2","female",100,100,,100,,,,316427395
"United States","blank1","blank2","fifteento49",100,100,,100,,,,316427395
"United States","blank1","blank2","fiveto14",100,100,,100,,,,316427395
"United States","blank1","blank2","gt49",100,100,,100,,,,316427395
"United States","blank1","blank2","higher",,,,,,,,316427395
"United States","blank1","blank2","male",100,100,,100,,,,316427395
"United States","blank1","blank2","no.birth.reg",,,,,,,,316427395
"United States","blank1","blank2","no.educ",,,,,,,,316427395
"United States","blank1","blank2","no.skilled.attendant",,,,,,,,316427395
"United States","blank1","blank2","non.p20",100,100,99,100,99,99,99,316427395
"United States","blank1","blank2","p20",100,100,1,100,1,1,1,316427395
"United States","blank1","blank2","primary",,,,,,,,316427395
"United States","blank1","blank2","rural",100,100,,100,,,,316427395
"United States","blank1","blank2","secondary",,,,,,,,316427395
"United States","blank1","blank2","stunted",,,,,,,,316427395
"United States","blank1","blank2","under5",100,100,,100,,,,316427395
"United States","blank1","blank2","urban",100,100,,100,,,,316427395
"United States","blank1","ext","female",100,1,,1,,,,316427395
"United States","blank1","ext","fifteento49",100,1,,1,,,,316427395
"United States","blank1","ext","fiveto14",100,1,,1,,,,316427395
"United States","blank1","ext","gt49",100,1,,1,,,,316427395
"United States","blank1","ext","higher",,,,,,,,316427395
"United States","blank1","ext","male",100,1,,1,,,,316427395
"United States","blank1","ext","no.birth.reg",,,,,,,,316427395
"United States","blank1","ext","no.educ",,,,,,,,316427395
"United States","blank1","ext","no.skilled.attendant",,,,,,,,316427395
"United States","blank1","ext","non.p20",100,1,99,1,0,99,0,316427395
"United States","blank1","ext","p20",100,1,1,1,1,1,1,316427395
"United States","blank1","ext","primary",,,,,,,,316427395
"United States","blank1","ext","rural",100,1,,1,,,,316427395
"United States","blank1","ext","secondary",,,,,,,,316427395
"United States","blank1","ext","stunted",,,,,,,,316427395
"United States","blank1","ext","under5",100,1,,1,,,,316427395
"United States","blank1","ext","urban",100,1,,1,,,,316427395
"United States","blank1","female","fifteento49",100,,,,,,,316427395
"United States","blank1","female","fiveto14",100,,,,,,,316427395
"United States","blank1","female","gt49",100,,,,,,,316427395
"United States","blank1","female","higher",,,,,,,,316427395
"United States","blank1","female","male",100,,,,,,,316427395
"United States","blank1","female","no.birth.reg",,,,,,,,316427395
"United States","blank1","female","no.educ",,,,,,,,316427395
"United States","blank1","female","no.skilled.attendant",,,,,,,,316427395
"United States","blank1","female","non.p20",100,,99,,,99,,316427395
"United States","blank1","female","p20",100,,1,,,1,,316427395
"United States","blank1","female","primary",,,,,,,,316427395
"United States","blank1","female","rural",100,,,,,,,316427395
"United States","blank1","female","secondary",,,,,,,,316427395
"United States","blank1","female","stunted",,,,,,,,316427395
"United States","blank1","female","under5",100,,,,,,,316427395
"United States","blank1","female","urban",100,,,,,,,316427395
"United States","blank1","fifteento49","fiveto14",100,,,,,,,316427395
"United States","blank1","fifteento49","gt49",100,,,,,,,316427395
"United States","blank1","fifteento49","higher",,,,,,,,316427395
"United States","blank1","fifteento49","male",100,,,,,,,316427395
"United States","blank1","fifteento49","no.birth.reg",,,,,,,,316427395
"United States","blank1","fifteento49","no.educ",,,,,,,,316427395
"United States","blank1","fifteento49","no.skilled.attendant",,,,,,,,316427395
"United States","blank1","fifteento49","non.p20",100,,99,,,99,,316427395
"United States","blank1","fifteento49","p20",100,,1,,,1,,316427395
"United States","blank1","fifteento49","primary",,,,,,,,316427395
"United States","blank1","fifteento49","rural",100,,,,,,,316427395
"United States","blank1","fifteento49","secondary",,,,,,,,316427395
"United States","blank1","fifteento49","stunted",,,,,,,,316427395
"United States","blank1","fifteento49","under5",100,,,,,,,316427395
"United States","blank1","fifteento49","urban",100,,,,,,,316427395
"United States","blank1","fiveto14","gt49",100,,,,,,,316427395
"United States","blank1","fiveto14","higher",,,,,,,,316427395
"United States","blank1","fiveto14","male",100,,,,,,,316427395
"United States","blank1","fiveto14","no.birth.reg",,,,,,,,316427395
"United States","blank1","fiveto14","no.educ",,,,,,,,316427395
"United States","blank1","fiveto14","no.skilled.attendant",,,,,,,,316427395
"United States","blank1","fiveto14","non.p20",100,,99,,,99,,316427395
"United States","blank1","fiveto14","p20",100,,1,,,1,,316427395
"United States","blank1","fiveto14","primary",,,,,,,,316427395
"United States","blank1","fiveto14","rural",100,,,,,,,316427395
"United States","blank1","fiveto14","secondary",,,,,,,,316427395
"United States","blank1","fiveto14","stunted",,,,,,,,316427395
"United States","blank1","fiveto14","under5",100,,,,,,,316427395
"United States","blank1","fiveto14","urban",100,,,,,,,316427395
"United States","blank1","gt49","higher",,,,,,,,316427395
"United States","blank1","gt49","male",100,,,,,,,316427395
"United States","blank1","gt49","no.birth.reg",,,,,,,,316427395
"United States","blank1","gt49","no.educ",,,,,,,,316427395
"United States","blank1","gt49","no.skilled.attendant",,,,,,,,316427395
"United States","blank1","gt49","non.p20",100,,99,,,99,,316427395
"United States","blank1","gt49","p20",100,,1,,,1,,316427395
"United States","blank1","gt49","primary",,,,,,,,316427395
"United States","blank1","gt49","rural",100,,,,,,,316427395
"United States","blank1","gt49","secondary",,,,,,,,316427395
"United States","blank1","gt49","stunted",,,,,,,,316427395
"United States","blank1","gt49","under5",100,,,,,,,316427395
"United States","blank1","gt49","urban",100,,,,,,,316427395
"United States","blank1","higher","male",,,,,,,,316427395
"United States","blank1","higher","no.birth.reg",,,,,,,,316427395
"United States","blank1","higher","no.educ",,,,,,,,316427395
"United States","blank1","higher","no.skilled.attendant",,,,,,,,316427395
"United States","blank1","higher","non.p20",,,,,,,,316427395
"United States","blank1","higher","p20",,,,,,,,316427395
"United States","blank1","higher","primary",,,,,,,,316427395
"United States","blank1","higher","rural",,,,,,,,316427395
"United States","blank1","higher","secondary",,,,,,,,316427395
"United States","blank1","higher","stunted",,,,,,,,316427395
"United States","blank1","higher","under5",,,,,,,,316427395
"United States","blank1","higher","urban",,,,,,,,316427395
"United States","blank1","male","no.birth.reg",,,,,,,,316427395
"United States","blank1","male","no.educ",,,,,,,,316427395
"United States","blank1","male","no.skilled.attendant",,,,,,,,316427395
"United States","blank1","male","non.p20",100,,99,,,99,,316427395
"United States","blank1","male","p20",100,,1,,,1,,316427395
"United States","blank1","male","primary",,,,,,,,316427395
"United States","blank1","male","rural",100,,,,,,,316427395
"United States","blank1","male","secondary",,,,,,,,316427395
"United States","blank1","male","stunted",,,,,,,,316427395
"United States","blank1","male","under5",100,,,,,,,316427395
"United States","blank1","male","urban",100,,,,,,,316427395
"United States","blank1","no.birth.reg","no.educ",,,,,,,,316427395
"United States","blank1","no.birth.reg","no.skilled.attendant",,,,,,,,316427395
"United States","blank1","no.birth.reg","non.p20",,,,,,,,316427395
"United States","blank1","no.birth.reg","p20",,,,,,,,316427395
"United States","blank1","no.birth.reg","primary",,,,,,,,316427395
"United States","blank1","no.birth.reg","rural",,,,,,,,316427395
"United States","blank1","no.birth.reg","secondary",,,,,,,,316427395
"United States","blank1","no.birth.reg","stunted",,,,,,,,316427395
"United States","blank1","no.birth.reg","under5",,,,,,,,316427395
"United States","blank1","no.birth.reg","urban",,,,,,,,316427395
"United States","blank1","no.educ","no.skilled.attendant",,,,,,,,316427395
"United States","blank1","no.educ","non.p20",,,,,,,,316427395
"United States","blank1","no.educ","p20",,,,,,,,316427395
"United States","blank1","no.educ","primary",,,,,,,,316427395
"United States","blank1","no.educ","rural",,,,,,,,316427395
"United States","blank1","no.educ","secondary",,,,,,,,316427395
"United States","blank1","no.educ","stunted",,,,,,,,316427395
"United States","blank1","no.educ","under5",,,,,,,,316427395
"United States","blank1","no.educ","urban",,,,,,,,316427395
"United States","blank1","no.skilled.attendant","non.p20",,,,,,,,316427395
"United States","blank1","no.skilled.attendant","p20",,,,,,,,316427395
"United States","blank1","no.skilled.attendant","primary",,,,,,,,316427395
"United States","blank1","no.skilled.attendant","rural",,,,,,,,316427395
"United States","blank1","no.skilled.attendant","secondary",,,,,,,,316427395
"United States","blank1","no.skilled.attendant","stunted",,,,,,,,316427395
"United States","blank1","no.skilled.attendant","under5",,,,,,,,316427395
"United States","blank1","no.skilled.attendant","urban",,,,,,,,316427395
"United States","blank1","non.p20","p20",100,99,1,99,0,1,0,316427395
"United States","blank1","non.p20","primary",,,,,,,,316427395
"United States","blank1","non.p20","rural",100,99,,99,,,,316427395
"United States","blank1","non.p20","secondary",,,,,,,,316427395
"United States","blank1","non.p20","stunted",,,,,,,,316427395
"United States","blank1","non.p20","under5",100,99,,99,,,,316427395
"United States","blank1","non.p20","urban",100,99,,99,,,,316427395
"United States","blank1","p20","primary",,,,,,,,316427395
"United States","blank1","p20","rural",100,1,,1,,,,316427395
"United States","blank1","p20","secondary",,,,,,,,316427395
"United States","blank1","p20","stunted",,,,,,,,316427395
"United States","blank1","p20","under5",100,1,,1,,,,316427395
"United States","blank1","p20","urban",100,1,,1,,,,316427395
"United States","blank1","primary","rural",,,,,,,,316427395
"United States","blank1","primary","secondary",,,,,,,,316427395
"United States","blank1","primary","stunted",,,,,,,,316427395
"United States","blank1","primary","under5",,,,,,,,316427395
"United States","blank1","primary","urban",,,,,,,,316427395
"United States","blank1","rural","secondary",,,,,,,,316427395
"United States","blank1","rural","stunted",,,,,,,,316427395
"United States","blank1","rural","under5",100,,,,,,,316427395
"United States","blank1","rural","urban",100,,,,,,,316427395
"United States","blank1","secondary","stunted",,,,,,,,316427395
"United States","blank1","secondary","under5",,,,,,,,316427395
"United States","blank1","secondary","urban",,,,,,,,316427395
"United States","blank1","stunted","under5",,,,,,,,316427395
"United States","blank1","stunted","urban",,,,,,,,316427395
"United States","blank1","under5","urban",100,,,,,,,316427395
"United States","blank2","ext","female",100,1,,1,,,,316427395
"United States","blank2","ext","fifteento49",100,1,,1,,,,316427395
"United States","blank2","ext","fiveto14",100,1,,1,,,,316427395
"United States","blank2","ext","gt49",100,1,,1,,,,316427395
"United States","blank2","ext","higher",,,,,,,,316427395
"United States","blank2","ext","male",100,1,,1,,,,316427395
"United States","blank2","ext","no.birth.reg",,,,,,,,316427395
"United States","blank2","ext","no.educ",,,,,,,,316427395
"United States","blank2","ext","no.skilled.attendant",,,,,,,,316427395
"United States","blank2","ext","non.p20",100,1,99,1,0,99,0,316427395
"United States","blank2","ext","p20",100,1,1,1,1,1,1,316427395
"United States","blank2","ext","primary",,,,,,,,316427395
"United States","blank2","ext","rural",100,1,,1,,,,316427395
"United States","blank2","ext","secondary",,,,,,,,316427395
"United States","blank2","ext","stunted",,,,,,,,316427395
"United States","blank2","ext","under5",100,1,,1,,,,316427395
"United States","blank2","ext","urban",100,1,,1,,,,316427395
"United States","blank2","female","fifteento49",100,,,,,,,316427395
"United States","blank2","female","fiveto14",100,,,,,,,316427395
"United States","blank2","female","gt49",100,,,,,,,316427395
"United States","blank2","female","higher",,,,,,,,316427395
"United States","blank2","female","male",100,,,,,,,316427395
"United States","blank2","female","no.birth.reg",,,,,,,,316427395
"United States","blank2","female","no.educ",,,,,,,,316427395
"United States","blank2","female","no.skilled.attendant",,,,,,,,316427395
"United States","blank2","female","non.p20",100,,99,,,99,,316427395
"United States","blank2","female","p20",100,,1,,,1,,316427395
"United States","blank2","female","primary",,,,,,,,316427395
"United States","blank2","female","rural",100,,,,,,,316427395
"United States","blank2","female","secondary",,,,,,,,316427395
"United States","blank2","female","stunted",,,,,,,,316427395
"United States","blank2","female","under5",100,,,,,,,316427395
"United States","blank2","female","urban",100,,,,,,,316427395
"United States","blank2","fifteento49","fiveto14",100,,,,,,,316427395
"United States","blank2","fifteento49","gt49",100,,,,,,,316427395
"United States","blank2","fifteento49","higher",,,,,,,,316427395
"United States","blank2","fifteento49","male",100,,,,,,,316427395
"United States","blank2","fifteento49","no.birth.reg",,,,,,,,316427395
"United States","blank2","fifteento49","no.educ",,,,,,,,316427395
"United States","blank2","fifteento49","no.skilled.attendant",,,,,,,,316427395
"United States","blank2","fifteento49","non.p20",100,,99,,,99,,316427395
"United States","blank2","fifteento49","p20",100,,1,,,1,,316427395
"United States","blank2","fifteento49","primary",,,,,,,,316427395
"United States","blank2","fifteento49","rural",100,,,,,,,316427395
"United States","blank2","fifteento49","secondary",,,,,,,,316427395
"United States","blank2","fifteento49","stunted",,,,,,,,316427395
"United States","blank2","fifteento49","under5",100,,,,,,,316427395
"United States","blank2","fifteento49","urban",100,,,,,,,316427395
"United States","blank2","fiveto14","gt49",100,,,,,,,316427395
"United States","blank2","fiveto14","higher",,,,,,,,316427395
"United States","blank2","fiveto14","male",100,,,,,,,316427395
"United States","blank2","fiveto14","no.birth.reg",,,,,,,,316427395
"United States","blank2","fiveto14","no.educ",,,,,,,,316427395
"United States","blank2","fiveto14","no.skilled.attendant",,,,,,,,316427395
"United States","blank2","fiveto14","non.p20",100,,99,,,99,,316427395
"United States","blank2","fiveto14","p20",100,,1,,,1,,316427395
"United States","blank2","fiveto14","primary",,,,,,,,316427395
"United States","blank2","fiveto14","rural",100,,,,,,,316427395
"United States","blank2","fiveto14","secondary",,,,,,,,316427395
"United States","blank2","fiveto14","stunted",,,,,,,,316427395
"United States","blank2","fiveto14","under5",100,,,,,,,316427395
"United States","blank2","fiveto14","urban",100,,,,,,,316427395
"United States","blank2","gt49","higher",,,,,,,,316427395
"United States","blank2","gt49","male",100,,,,,,,316427395
"United States","blank2","gt49","no.birth.reg",,,,,,,,316427395
"United States","blank2","gt49","no.educ",,,,,,,,316427395
"United States","blank2","gt49","no.skilled.attendant",,,,,,,,316427395
"United States","blank2","gt49","non.p20",100,,99,,,99,,316427395
"United States","blank2","gt49","p20",100,,1,,,1,,316427395
"United States","blank2","gt49","primary",,,,,,,,316427395
"United States","blank2","gt49","rural",100,,,,,,,316427395
"United States","blank2","gt49","secondary",,,,,,,,316427395
"United States","blank2","gt49","stunted",,,,,,,,316427395
"United States","blank2","gt49","under5",100,,,,,,,316427395
"United States","blank2","gt49","urban",100,,,,,,,316427395
"United States","blank2","higher","male",,,,,,,,316427395
"United States","blank2","higher","no.birth.reg",,,,,,,,316427395
"United States","blank2","higher","no.educ",,,,,,,,316427395
"United States","blank2","higher","no.skilled.attendant",,,,,,,,316427395
"United States","blank2","higher","non.p20",,,,,,,,316427395
"United States","blank2","higher","p20",,,,,,,,316427395
"United States","blank2","higher","primary",,,,,,,,316427395
"United States","blank2","higher","rural",,,,,,,,316427395
"United States","blank2","higher","secondary",,,,,,,,316427395
"United States","blank2","higher","stunted",,,,,,,,316427395
"United States","blank2","higher","under5",,,,,,,,316427395
"United States","blank2","higher","urban",,,,,,,,316427395
"United States","blank2","male","no.birth.reg",,,,,,,,316427395
"United States","blank2","male","no.educ",,,,,,,,316427395
"United States","blank2","male","no.skilled.attendant",,,,,,,,316427395
"United States","blank2","male","non.p20",100,,99,,,99,,316427395
"United States","blank2","male","p20",100,,1,,,1,,316427395
"United States","blank2","male","primary",,,,,,,,316427395
"United States","blank2","male","rural",100,,,,,,,316427395
"United States","blank2","male","secondary",,,,,,,,316427395
"United States","blank2","male","stunted",,,,,,,,316427395
"United States","blank2","male","under5",100,,,,,,,316427395
"United States","blank2","male","urban",100,,,,,,,316427395
"United States","blank2","no.birth.reg","no.educ",,,,,,,,316427395
"United States","blank2","no.birth.reg","no.skilled.attendant",,,,,,,,316427395
"United States","blank2","no.birth.reg","non.p20",,,,,,,,316427395
"United States","blank2","no.birth.reg","p20",,,,,,,,316427395
"United States","blank2","no.birth.reg","primary",,,,,,,,316427395
"United States","blank2","no.birth.reg","rural",,,,,,,,316427395
"United States","blank2","no.birth.reg","secondary",,,,,,,,316427395
"United States","blank2","no.birth.reg","stunted",,,,,,,,316427395
"United States","blank2","no.birth.reg","under5",,,,,,,,316427395
"United States","blank2","no.birth.reg","urban",,,,,,,,316427395
"United States","blank2","no.educ","no.skilled.attendant",,,,,,,,316427395
"United States","blank2","no.educ","non.p20",,,,,,,,316427395
"United States","blank2","no.educ","p20",,,,,,,,316427395
"United States","blank2","no.educ","primary",,,,,,,,316427395
"United States","blank2","no.educ","rural",,,,,,,,316427395
"United States","blank2","no.educ","secondary",,,,,,,,316427395
"United States","blank2","no.educ","stunted",,,,,,,,316427395
"United States","blank2","no.educ","under5",,,,,,,,316427395
"United States","blank2","no.educ","urban",,,,,,,,316427395
"United States","blank2","no.skilled.attendant","non.p20",,,,,,,,316427395
"United States","blank2","no.skilled.attendant","p20",,,,,,,,316427395
"United States","blank2","no.skilled.attendant","primary",,,,,,,,316427395
"United States","blank2","no.skilled.attendant","rural",,,,,,,,316427395
"United States","blank2","no.skilled.attendant","secondary",,,,,,,,316427395
"United States","blank2","no.skilled.attendant","stunted",,,,,,,,316427395
"United States","blank2","no.skilled.attendant","under5",,,,,,,,316427395
"United States","blank2","no.skilled.attendant","urban",,,,,,,,316427395
"United States","blank2","non.p20","p20",100,99,1,99,0,1,0,316427395
"United States","blank2","non.p20","primary",,,,,,,,316427395
"United States","blank2","non.p20","rural",100,99,,99,,,,316427395
"United States","blank2","non.p20","secondary",,,,,,,,316427395
"United States","blank2","non.p20","stunted",,,,,,,,316427395
"United States","blank2","non.p20","under5",100,99,,99,,,,316427395
"United States","blank2","non.p20","urban",100,99,,99,,,,316427395
"United States","blank2","p20","primary",,,,,,,,316427395
"United States","blank2","p20","rural",100,1,,1,,,,316427395
"United States","blank2","p20","secondary",,,,,,,,316427395
"United States","blank2","p20","stunted",,,,,,,,316427395
"United States","blank2","p20","under5",100,1,,1,,,,316427395
"United States","blank2","p20","urban",100,1,,1,,,,316427395
"United States","blank2","primary","rural",,,,,,,,316427395
"United States","blank2","primary","secondary",,,,,,,,316427395
"United States","blank2","primary","stunted",,,,,,,,316427395
"United States","blank2","primary","under5",,,,,,,,316427395
"United States","blank2","primary","urban",,,,,,,,316427395
"United States","blank2","rural","secondary",,,,,,,,316427395
"United States","blank2","rural","stunted",,,,,,,,316427395
"United States","blank2","rural","under5",100,,,,,,,316427395
"United States","blank2","rural","urban",100,,,,,,,316427395
"United States","blank2","secondary","stunted",,,,,,,,316427395
"United States","blank2","secondary","under5",,,,,,,,316427395
"United States","blank2","secondary","urban",,,,,,,,316427395
"United States","blank2","stunted","under5",,,,,,,,316427395
"United States","blank2","stunted","urban",,,,,,,,316427395
"United States","blank2","under5","urban",100,,,,,,,316427395
"United States","ext","female","fifteento49",1,,,,,,,316427395
"United States","ext","female","fiveto14",1,,,,,,,316427395
"United States","ext","female","gt49",1,,,,,,,316427395
"United States","ext","female","higher",,,,,,,,316427395
"United States","ext","female","male",1,,,,,,,316427395
"United States","ext","female","no.birth.reg",,,,,,,,316427395
"United States","ext","female","no.educ",,,,,,,,316427395
"United States","ext","female","no.skilled.attendant",,,,,,,,316427395
"United States","ext","female","non.p20",1,,99,,,0,0,316427395
"United States","ext","female","p20",1,,1,,,1,,316427395
"United States","ext","female","primary",,,,,,,,316427395
"United States","ext","female","rural",1,,,,,,,316427395
"United States","ext","female","secondary",,,,,,,,316427395
"United States","ext","female","stunted",,,,,,,,316427395
"United States","ext","female","under5",1,,,,,,,316427395
"United States","ext","female","urban",1,,,,,,,316427395
"United States","ext","fifteento49","fiveto14",1,,,,,,,316427395
"United States","ext","fifteento49","gt49",1,,,,,,,316427395
"United States","ext","fifteento49","higher",,,,,,,,316427395
"United States","ext","fifteento49","male",1,,,,,,,316427395
"United States","ext","fifteento49","no.birth.reg",,,,,,,,316427395
"United States","ext","fifteento49","no.educ",,,,,,,,316427395
"United States","ext","fifteento49","no.skilled.attendant",,,,,,,,316427395
"United States","ext","fifteento49","non.p20",1,,99,,,0,0,316427395
"United States","ext","fifteento49","p20",1,,1,,,1,,316427395
"United States","ext","fifteento49","primary",,,,,,,,316427395
"United States","ext","fifteento49","rural",1,,,,,,,316427395
"United States","ext","fifteento49","secondary",,,,,,,,316427395
"United States","ext","fifteento49","stunted",,,,,,,,316427395
"United States","ext","fifteento49","under5",1,,,,,,,316427395
"United States","ext","fifteento49","urban",1,,,,,,,316427395
"United States","ext","fiveto14","gt49",1,,,,,,,316427395
"United States","ext","fiveto14","higher",,,,,,,,316427395
"United States","ext","fiveto14","male",1,,,,,,,316427395
"United States","ext","fiveto14","no.birth.reg",,,,,,,,316427395
"United States","ext","fiveto14","no.educ",,,,,,,,316427395
"United States","ext","fiveto14","no.skilled.attendant",,,,,,,,316427395
"United States","ext","fiveto14","non.p20",1,,99,,,0,0,316427395
"United States","ext","fiveto14","p20",1,,1,,,1,,316427395
"United States","ext","fiveto14","primary",,,,,,,,316427395
"United States","ext","fiveto14","rural",1,,,,,,,316427395
"United States","ext","fiveto14","secondary",,,,,,,,316427395
"United States","ext","fiveto14","stunted",,,,,,,,316427395
"United States","ext","fiveto14","under5",1,,,,,,,316427395
"United States","ext","fiveto14","urban",1,,,,,,,316427395
"United States","ext","gt49","higher",,,,,,,,316427395
"United States","ext","gt49","male",1,,,,,,,316427395
"United States","ext","gt49","no.birth.reg",,,,,,,,316427395
"United States","ext","gt49","no.educ",,,,,,,,316427395
"United States","ext","gt49","no.skilled.attendant",,,,,,,,316427395
"United States","ext","gt49","non.p20",1,,99,,,0,0,316427395
"United States","ext","gt49","p20",1,,1,,,1,,316427395
"United States","ext","gt49","primary",,,,,,,,316427395
"United States","ext","gt49","rural",1,,,,,,,316427395
"United States","ext","gt49","secondary",,,,,,,,316427395
"United States","ext","gt49","stunted",,,,,,,,316427395
"United States","ext","gt49","under5",1,,,,,,,316427395
"United States","ext","gt49","urban",1,,,,,,,316427395
"United States","ext","higher","male",,,,,,,,316427395
"United States","ext","higher","no.birth.reg",,,,,,,,316427395
"United States","ext","higher","no.educ",,,,,,,,316427395
"United States","ext","higher","no.skilled.attendant",,,,,,,,316427395
"United States","ext","higher","non.p20",,,,,,0,0,316427395
"United States","ext","higher","p20",,,,,,,,316427395
"United States","ext","higher","primary",,,,,,,,316427395
"United States","ext","higher","rural",,,,,,,,316427395
"United States","ext","higher","secondary",,,,,,,,316427395
"United States","ext","higher","stunted",,,,,,,,316427395
"United States","ext","higher","under5",,,,,,,,316427395
"United States","ext","higher","urban",,,,,,,,316427395
"United States","ext","male","no.birth.reg",,,,,,,,316427395
"United States","ext","male","no.educ",,,,,,,,316427395
"United States","ext","male","no.skilled.attendant",,,,,,,,316427395
"United States","ext","male","non.p20",1,,99,,,0,0,316427395
"United States","ext","male","p20",1,,1,,,1,,316427395
"United States","ext","male","primary",,,,,,,,316427395
"United States","ext","male","rural",1,,,,,,,316427395
"United States","ext","male","secondary",,,,,,,,316427395
"United States","ext","male","stunted",,,,,,,,316427395
"United States","ext","male","under5",1,,,,,,,316427395
"United States","ext","male","urban",1,,,,,,,316427395
"United States","ext","no.birth.reg","no.educ",,,,,,,,316427395
"United States","ext","no.birth.reg","no.skilled.attendant",,,,,,,,316427395
"United States","ext","no.birth.reg","non.p20",,,,,,0,0,316427395
"United States","ext","no.birth.reg","p20",,,,,,,,316427395
"United States","ext","no.birth.reg","primary",,,,,,,,316427395
"United States","ext","no.birth.reg","rural",,,,,,,,316427395
"United States","ext","no.birth.reg","secondary",,,,,,,,316427395
"United States","ext","no.birth.reg","stunted",,,,,,,,316427395
"United States","ext","no.birth.reg","under5",,,,,,,,316427395
"United States","ext","no.birth.reg","urban",,,,,,,,316427395
"United States","ext","no.educ","no.skilled.attendant",,,,,,,,316427395
"United States","ext","no.educ","non.p20",,,,,,0,0,316427395
"United States","ext","no.educ","p20",,,,,,,,316427395
"United States","ext","no.educ","primary",,,,,,,,316427395
"United States","ext","no.educ","rural",,,,,,,,316427395
"United States","ext","no.educ","secondary",,,,,,,,316427395
"United States","ext","no.educ","stunted",,,,,,,,316427395
"United States","ext","no.educ","under5",,,,,,,,316427395
"United States","ext","no.educ","urban",,,,,,,,316427395
"United States","ext","no.skilled.attendant","non.p20",,,,,,0,0,316427395
"United States","ext","no.skilled.attendant","p20",,,,,,,,316427395
"United States","ext","no.skilled.attendant","primary",,,,,,,,316427395
"United States","ext","no.skilled.attendant","rural",,,,,,,,316427395
"United States","ext","no.skilled.attendant","secondary",,,,,,,,316427395
"United States","ext","no.skilled.attendant","stunted",,,,,,,,316427395
"United States","ext","no.skilled.attendant","under5",,,,,,,,316427395
"United States","ext","no.skilled.attendant","urban",,,,,,,,316427395
"United States","ext","non.p20","p20",1,99,1,0,0,1,0,316427395
"United States","ext","non.p20","primary",,,,0,,,0,316427395
"United States","ext","non.p20","rural",1,99,,0,,,0,316427395
"United States","ext","non.p20","secondary",,,,0,,,0,316427395
"United States","ext","non.p20","stunted",,,,0,,,0,316427395
"United States","ext","non.p20","under5",1,99,,0,,,0,316427395
"United States","ext","non.p20","urban",1,99,,0,,,0,316427395
"United States","ext","p20","primary",,,,,,,,316427395
"United States","ext","p20","rural",1,1,,1,,,,316427395
"United States","ext","p20","secondary",,,,,,,,316427395
"United States","ext","p20","stunted",,,,,,,,316427395
"United States","ext","p20","under5",1,1,,1,,,,316427395
"United States","ext","p20","urban",1,1,,1,,,,316427395
"United States","ext","primary","rural",,,,,,,,316427395
"United States","ext","primary","secondary",,,,,,,,316427395
"United States","ext","primary","stunted",,,,,,,,316427395
"United States","ext","primary","under5",,,,,,,,316427395
"United States","ext","primary","urban",,,,,,,,316427395
"United States","ext","rural","secondary",,,,,,,,316427395
"United States","ext","rural","stunted",,,,,,,,316427395
"United States","ext","rural","under5",1,,,,,,,316427395
"United States","ext","rural","urban",1,,,,,,,316427395
"United States","ext","secondary","stunted",,,,,,,,316427395
"United States","ext","secondary","under5",,,,,,,,316427395
"United States","ext","secondary","urban",,,,,,,,316427395
"United States","ext","stunted","under5",,,,,,,,316427395
"United States","ext","stunted","urban",,,,,,,,316427395
"United States","ext","under5","urban",1,,,,,,,316427395
"United States","female","fifteento49","fiveto14",,,,,,,,316427395
"United States","female","fifteento49","gt49",,,,,,,,316427395
"United States","female","fifteento49","higher",,,,,,,,316427395
"United States","female","fifteento49","male",,,,,,,,316427395
"United States","female","fifteento49","no.birth.reg",,,,,,,,316427395
"United States","female","fifteento49","no.educ",,,,,,,,316427395
"United States","female","fifteento49","no.skilled.attendant",,,,,,,,316427395
"United States","female","fifteento49","non.p20",,,99,,,,,316427395
"United States","female","fifteento49","p20",,,1,,,,,316427395
"United States","female","fifteento49","primary",,,,,,,,316427395
"United States","female","fifteento49","rural",,,,,,,,316427395
"United States","female","fifteento49","secondary",,,,,,,,316427395
"United States","female","fifteento49","stunted",,,,,,,,316427395
"United States","female","fifteento49","under5",,,,,,,,316427395
"United States","female","fifteento49","urban",,,,,,,,316427395
"United States","female","fiveto14","gt49",,,,,,,,316427395
"United States","female","fiveto14","higher",,,,,,,,316427395
"United States","female","fiveto14","male",,,,,,,,316427395
"United States","female","fiveto14","no.birth.reg",,,,,,,,316427395
"United States","female","fiveto14","no.educ",,,,,,,,316427395
"United States","female","fiveto14","no.skilled.attendant",,,,,,,,316427395
"United States","female","fiveto14","non.p20",,,99,,,,,316427395
"United States","female","fiveto14","p20",,,1,,,,,316427395
"United States","female","fiveto14","primary",,,,,,,,316427395
"United States","female","fiveto14","rural",,,,,,,,316427395
"United States","female","fiveto14","secondary",,,,,,,,316427395
"United States","female","fiveto14","stunted",,,,,,,,316427395
"United States","female","fiveto14","under5",,,,,,,,316427395
"United States","female","fiveto14","urban",,,,,,,,316427395
"United States","female","gt49","higher",,,,,,,,316427395
"United States","female","gt49","male",,,,,,,,316427395
"United States","female","gt49","no.birth.reg",,,,,,,,316427395
"United States","female","gt49","no.educ",,,,,,,,316427395
"United States","female","gt49","no.skilled.attendant",,,,,,,,316427395
"United States","female","gt49","non.p20",,,99,,,,,316427395
"United States","female","gt49","p20",,,1,,,,,316427395
"United States","female","gt49","primary",,,,,,,,316427395
"United States","female","gt49","rural",,,,,,,,316427395
"United States","female","gt49","secondary",,,,,,,,316427395
"United States","female","gt49","stunted",,,,,,,,316427395
"United States","female","gt49","under5",,,,,,,,316427395
"United States","female","gt49","urban",,,,,,,,316427395
"United States","female","higher","male",,,,,,,,316427395
"United States","female","higher","no.birth.reg",,,,,,,,316427395
"United States","female","higher","no.educ",,,,,,,,316427395
"United States","female","higher","no.skilled.attendant",,,,,,,,316427395
"United States","female","higher","non.p20",,,,,,,,316427395
"United States","female","higher","p20",,,,,,,,316427395
"United States","female","higher","primary",,,,,,,,316427395
"United States","female","higher","rural",,,,,,,,316427395
"United States","female","higher","secondary",,,,,,,,316427395
"United States","female","higher","stunted",,,,,,,,316427395
"United States","female","higher","under5",,,,,,,,316427395
"United States","female","higher","urban",,,,,,,,316427395
"United States","female","male","no.birth.reg",,,,,,,,316427395
"United States","female","male","no.educ",,,,,,,,316427395
"United States","female","male","no.skilled.attendant",,,,,,,,316427395
"United States","female","male","non.p20",,,99,,,,,316427395
"United States","female","male","p20",,,1,,,,,316427395
"United States","female","male","primary",,,,,,,,316427395
"United States","female","male","rural",,,,,,,,316427395
"United States","female","male","secondary",,,,,,,,316427395
"United States","female","male","stunted",,,,,,,,316427395
"United States","female","male","under5",,,,,,,,316427395
"United States","female","male","urban",,,,,,,,316427395
"United States","female","no.birth.reg","no.educ",,,,,,,,316427395
"United States","female","no.birth.reg","no.skilled.attendant",,,,,,,,316427395
"United States","female","no.birth.reg","non.p20",,,,,,,,316427395
"United States","female","no.birth.reg","p20",,,,,,,,316427395
"United States","female","no.birth.reg","primary",,,,,,,,316427395
"United States","female","no.birth.reg","rural",,,,,,,,316427395
"United States","female","no.birth.reg","secondary",,,,,,,,316427395
"United States","female","no.birth.reg","stunted",,,,,,,,316427395
"United States","female","no.birth.reg","under5",,,,,,,,316427395
"United States","female","no.birth.reg","urban",,,,,,,,316427395
"United States","female","no.educ","no.skilled.attendant",,,,,,,,316427395
"United States","female","no.educ","non.p20",,,,,,,,316427395
"United States","female","no.educ","p20",,,,,,,,316427395
"United States","female","no.educ","primary",,,,,,,,316427395
"United States","female","no.educ","rural",,,,,,,,316427395
"United States","female","no.educ","secondary",,,,,,,,316427395
"United States","female","no.educ","stunted",,,,,,,,316427395
"United States","female","no.educ","under5",,,,,,,,316427395
"United States","female","no.educ","urban",,,,,,,,316427395
"United States","female","no.skilled.attendant","non.p20",,,,,,,,316427395
"United States","female","no.skilled.attendant","p20",,,,,,,,316427395
"United States","female","no.skilled.attendant","primary",,,,,,,,316427395
"United States","female","no.skilled.attendant","rural",,,,,,,,316427395
"United States","female","no.skilled.attendant","secondary",,,,,,,,316427395
"United States","female","no.skilled.attendant","stunted",,,,,,,,316427395
"United States","female","no.skilled.attendant","under5",,,,,,,,316427395
"United States","female","no.skilled.attendant","urban",,,,,,,,316427395
"United States","female","non.p20","p20",,99,1,,0,,0,316427395
"United States","female","non.p20","primary",,,,,,,,316427395
"United States","female","non.p20","rural",,99,,,,,,316427395
"United States","female","non.p20","secondary",,,,,,,,316427395
"United States","female","non.p20","stunted",,,,,,,,316427395
"United States","female","non.p20","under5",,99,,,,,,316427395
"United States","female","non.p20","urban",,99,,,,,,316427395
"United States","female","p20","primary",,,,,,,,316427395
"United States","female","p20","rural",,1,,,,,,316427395
"United States","female","p20","secondary",,,,,,,,316427395
"United States","female","p20","stunted",,,,,,,,316427395
"United States","female","p20","under5",,1,,,,,,316427395
"United States","female","p20","urban",,1,,,,,,316427395
"United States","female","primary","rural",,,,,,,,316427395
"United States","female","primary","secondary",,,,,,,,316427395
"United States","female","primary","stunted",,,,,,,,316427395
"United States","female","primary","under5",,,,,,,,316427395
"United States","female","primary","urban",,,,,,,,316427395
"United States","female","rural","secondary",,,,,,,,316427395
"United States","female","rural","stunted",,,,,,,,316427395
"United States","female","rural","under5",,,,,,,,316427395
"United States","female","rural","urban",,,,,,,,316427395
"United States","female","secondary","stunted",,,,,,,,316427395
"United States","female","secondary","under5",,,,,,,,316427395
"United States","female","secondary","urban",,,,,,,,316427395
"United States","female","stunted","under5",,,,,,,,316427395
"United States","female","stunted","urban",,,,,,,,316427395
"United States","female","under5","urban",,,,,,,,316427395
"United States","fifteento49","fiveto14","gt49",,,,,,,,316427395
"United States","fifteento49","fiveto14","higher",,,,,,,,316427395
"United States","fifteento49","fiveto14","male",,,,,,,,316427395
"United States","fifteento49","fiveto14","no.birth.reg",,,,,,,,316427395
"United States","fifteento49","fiveto14","no.educ",,,,,,,,316427395
"United States","fifteento49","fiveto14","no.skilled.attendant",,,,,,,,316427395
"United States","fifteento49","fiveto14","non.p20",,,99,,,,,316427395
"United States","fifteento49","fiveto14","p20",,,1,,,,,316427395
"United States","fifteento49","fiveto14","primary",,,,,,,,316427395
"United States","fifteento49","fiveto14","rural",,,,,,,,316427395
"United States","fifteento49","fiveto14","secondary",,,,,,,,316427395
"United States","fifteento49","fiveto14","stunted",,,,,,,,316427395
"United States","fifteento49","fiveto14","under5",,,,,,,,316427395
"United States","fifteento49","fiveto14","urban",,,,,,,,316427395
"United States","fifteento49","gt49","higher",,,,,,,,316427395
"United States","fifteento49","gt49","male",,,,,,,,316427395
"United States","fifteento49","gt49","no.birth.reg",,,,,,,,316427395
"United States","fifteento49","gt49","no.educ",,,,,,,,316427395
"United States","fifteento49","gt49","no.skilled.attendant",,,,,,,,316427395
"United States","fifteento49","gt49","non.p20",,,99,,,,,316427395
"United States","fifteento49","gt49","p20",,,1,,,,,316427395
"United States","fifteento49","gt49","primary",,,,,,,,316427395
"United States","fifteento49","gt49","rural",,,,,,,,316427395
"United States","fifteento49","gt49","secondary",,,,,,,,316427395
"United States","fifteento49","gt49","stunted",,,,,,,,316427395
"United States","fifteento49","gt49","under5",,,,,,,,316427395
"United States","fifteento49","gt49","urban",,,,,,,,316427395
"United States","fifteento49","higher","male",,,,,,,,316427395
"United States","fifteento49","higher","no.birth.reg",,,,,,,,316427395
"United States","fifteento49","higher","no.educ",,,,,,,,316427395
"United States","fifteento49","higher","no.skilled.attendant",,,,,,,,316427395
"United States","fifteento49","higher","non.p20",,,,,,,,316427395
"United States","fifteento49","higher","p20",,,,,,,,316427395
"United States","fifteento49","higher","primary",,,,,,,,316427395
"United States","fifteento49","higher","rural",,,,,,,,316427395
"United States","fifteento49","higher","secondary",,,,,,,,316427395
"United States","fifteento49","higher","stunted",,,,,,,,316427395
"United States","fifteento49","higher","under5",,,,,,,,316427395
"United States","fifteento49","higher","urban",,,,,,,,316427395
"United States","fifteento49","male","no.birth.reg",,,,,,,,316427395
"United States","fifteento49","male","no.educ",,,,,,,,316427395
"United States","fifteento49","male","no.skilled.attendant",,,,,,,,316427395
"United States","fifteento49","male","non.p20",,,99,,,,,316427395
"United States","fifteento49","male","p20",,,1,,,,,316427395
"United States","fifteento49","male","primary",,,,,,,,316427395
"United States","fifteento49","male","rural",,,,,,,,316427395
"United States","fifteento49","male","secondary",,,,,,,,316427395
"United States","fifteento49","male","stunted",,,,,,,,316427395
"United States","fifteento49","male","under5",,,,,,,,316427395
"United States","fifteento49","male","urban",,,,,,,,316427395
"United States","fifteento49","no.birth.reg","no.educ",,,,,,,,316427395
"United States","fifteento49","no.birth.reg","no.skilled.attendant",,,,,,,,316427395
"United States","fifteento49","no.birth.reg","non.p20",,,,,,,,316427395
"United States","fifteento49","no.birth.reg","p20",,,,,,,,316427395
"United States","fifteento49","no.birth.reg","primary",,,,,,,,316427395
"United States","fifteento49","no.birth.reg","rural",,,,,,,,316427395
"United States","fifteento49","no.birth.reg","secondary",,,,,,,,316427395
"United States","fifteento49","no.birth.reg","stunted",,,,,,,,316427395
"United States","fifteento49","no.birth.reg","under5",,,,,,,,316427395
"United States","fifteento49","no.birth.reg","urban",,,,,,,,316427395
"United States","fifteento49","no.educ","no.skilled.attendant",,,,,,,,316427395
"United States","fifteento49","no.educ","non.p20",,,,,,,,316427395
"United States","fifteento49","no.educ","p20",,,,,,,,316427395
"United States","fifteento49","no.educ","primary",,,,,,,,316427395
"United States","fifteento49","no.educ","rural",,,,,,,,316427395
"United States","fifteento49","no.educ","secondary",,,,,,,,316427395
"United States","fifteento49","no.educ","stunted",,,,,,,,316427395
"United States","fifteento49","no.educ","under5",,,,,,,,316427395
"United States","fifteento49","no.educ","urban",,,,,,,,316427395
"United States","fifteento49","no.skilled.attendant","non.p20",,,,,,,,316427395
"United States","fifteento49","no.skilled.attendant","p20",,,,,,,,316427395
"United States","fifteento49","no.skilled.attendant","primary",,,,,,,,316427395
"United States","fifteento49","no.skilled.attendant","rural",,,,,,,,316427395
"United States","fifteento49","no.skilled.attendant","secondary",,,,,,,,316427395
"United States","fifteento49","no.skilled.attendant","stunted",,,,,,,,316427395
"United States","fifteento49","no.skilled.attendant","under5",,,,,,,,316427395
"United States","fifteento49","no.skilled.attendant","urban",,,,,,,,316427395
"United States","fifteento49","non.p20","p20",,99,1,,0,,0,316427395
"United States","fifteento49","non.p20","primary",,,,,,,,316427395
"United States","fifteento49","non.p20","rural",,99,,,,,,316427395
"United States","fifteento49","non.p20","secondary",,,,,,,,316427395
"United States","fifteento49","non.p20","stunted",,,,,,,,316427395
"United States","fifteento49","non.p20","under5",,99,,,,,,316427395
"United States","fifteento49","non.p20","urban",,99,,,,,,316427395
"United States","fifteento49","p20","primary",,,,,,,,316427395
"United States","fifteento49","p20","rural",,1,,,,,,316427395
"United States","fifteento49","p20","secondary",,,,,,,,316427395
"United States","fifteento49","p20","stunted",,,,,,,,316427395
"United States","fifteento49","p20","under5",,1,,,,,,316427395
"United States","fifteento49","p20","urban",,1,,,,,,316427395
"United States","fifteento49","primary","rural",,,,,,,,316427395
"United States","fifteento49","primary","secondary",,,,,,,,316427395
"United States","fifteento49","primary","stunted",,,,,,,,316427395
"United States","fifteento49","primary","under5",,,,,,,,316427395
"United States","fifteento49","primary","urban",,,,,,,,316427395
"United States","fifteento49","rural","secondary",,,,,,,,316427395
"United States","fifteento49","rural","stunted",,,,,,,,316427395
"United States","fifteento49","rural","under5",,,,,,,,316427395
"United States","fifteento49","rural","urban",,,,,,,,316427395
"United States","fifteento49","secondary","stunted",,,,,,,,316427395
"United States","fifteento49","secondary","under5",,,,,,,,316427395
"United States","fifteento49","secondary","urban",,,,,,,,316427395
"United States","fifteento49","stunted","under5",,,,,,,,316427395
"United States","fifteento49","stunted","urban",,,,,,,,316427395
"United States","fifteento49","under5","urban",,,,,,,,316427395
"United States","fiveto14","gt49","higher",,,,,,,,316427395
"United States","fiveto14","gt49","male",,,,,,,,316427395
"United States","fiveto14","gt49","no.birth.reg",,,,,,,,316427395
"United States","fiveto14","gt49","no.educ",,,,,,,,316427395
"United States","fiveto14","gt49","no.skilled.attendant",,,,,,,,316427395
"United States","fiveto14","gt49","non.p20",,,99,,,,,316427395
"United States","fiveto14","gt49","p20",,,1,,,,,316427395
"United States","fiveto14","gt49","primary",,,,,,,,316427395
"United States","fiveto14","gt49","rural",,,,,,,,316427395
"United States","fiveto14","gt49","secondary",,,,,,,,316427395
"United States","fiveto14","gt49","stunted",,,,,,,,316427395
"United States","fiveto14","gt49","under5",,,,,,,,316427395
"United States","fiveto14","gt49","urban",,,,,,,,316427395
"United States","fiveto14","higher","male",,,,,,,,316427395
"United States","fiveto14","higher","no.birth.reg",,,,,,,,316427395
"United States","fiveto14","higher","no.educ",,,,,,,,316427395
"United States","fiveto14","higher","no.skilled.attendant",,,,,,,,316427395
"United States","fiveto14","higher","non.p20",,,,,,,,316427395
"United States","fiveto14","higher","p20",,,,,,,,316427395
"United States","fiveto14","higher","primary",,,,,,,,316427395
"United States","fiveto14","higher","rural",,,,,,,,316427395
"United States","fiveto14","higher","secondary",,,,,,,,316427395
"United States","fiveto14","higher","stunted",,,,,,,,316427395
"United States","fiveto14","higher","under5",,,,,,,,316427395
"United States","fiveto14","higher","urban",,,,,,,,316427395
"United States","fiveto14","male","no.birth.reg",,,,,,,,316427395
"United States","fiveto14","male","no.educ",,,,,,,,316427395
"United States","fiveto14","male","no.skilled.attendant",,,,,,,,316427395
"United States","fiveto14","male","non.p20",,,99,,,,,316427395
"United States","fiveto14","male","p20",,,1,,,,,316427395
"United States","fiveto14","male","primary",,,,,,,,316427395
"United States","fiveto14","male","rural",,,,,,,,316427395
"United States","fiveto14","male","secondary",,,,,,,,316427395
"United States","fiveto14","male","stunted",,,,,,,,316427395
"United States","fiveto14","male","under5",,,,,,,,316427395
"United States","fiveto14","male","urban",,,,,,,,316427395
"United States","fiveto14","no.birth.reg","no.educ",,,,,,,,316427395
"United States","fiveto14","no.birth.reg","no.skilled.attendant",,,,,,,,316427395
"United States","fiveto14","no.birth.reg","non.p20",,,,,,,,316427395
"United States","fiveto14","no.birth.reg","p20",,,,,,,,316427395
"United States","fiveto14","no.birth.reg","primary",,,,,,,,316427395
"United States","fiveto14","no.birth.reg","rural",,,,,,,,316427395
"United States","fiveto14","no.birth.reg","secondary",,,,,,,,316427395
"United States","fiveto14","no.birth.reg","stunted",,,,,,,,316427395
"United States","fiveto14","no.birth.reg","under5",,,,,,,,316427395
"United States","fiveto14","no.birth.reg","urban",,,,,,,,316427395
"United States","fiveto14","no.educ","no.skilled.attendant",,,,,,,,316427395
"United States","fiveto14","no.educ","non.p20",,,,,,,,316427395
"United States","fiveto14","no.educ","p20",,,,,,,,316427395
"United States","fiveto14","no.educ","primary",,,,,,,,316427395
"United States","fiveto14","no.educ","rural",,,,,,,,316427395
"United States","fiveto14","no.educ","secondary",,,,,,,,316427395
"United States","fiveto14","no.educ","stunted",,,,,,,,316427395
"United States","fiveto14","no.educ","under5",,,,,,,,316427395
"United States","fiveto14","no.educ","urban",,,,,,,,316427395
"United States","fiveto14","no.skilled.attendant","non.p20",,,,,,,,316427395
"United States","fiveto14","no.skilled.attendant","p20",,,,,,,,316427395
"United States","fiveto14","no.skilled.attendant","primary",,,,,,,,316427395
"United States","fiveto14","no.skilled.attendant","rural",,,,,,,,316427395
"United States","fiveto14","no.skilled.attendant","secondary",,,,,,,,316427395
"United States","fiveto14","no.skilled.attendant","stunted",,,,,,,,316427395
"United States","fiveto14","no.skilled.attendant","under5",,,,,,,,316427395
"United States","fiveto14","no.skilled.attendant","urban",,,,,,,,316427395
"United States","fiveto14","non.p20","p20",,99,1,,0,,0,316427395
"United States","fiveto14","non.p20","primary",,,,,,,,316427395
"United States","fiveto14","non.p20","rural",,99,,,,,,316427395
"United States","fiveto14","non.p20","secondary",,,,,,,,316427395
"United States","fiveto14","non.p20","stunted",,,,,,,,316427395
"United States","fiveto14","non.p20","under5",,99,,,,,,316427395
"United States","fiveto14","non.p20","urban",,99,,,,,,316427395
"United States","fiveto14","p20","primary",,,,,,,,316427395
"United States","fiveto14","p20","rural",,1,,,,,,316427395
"United States","fiveto14","p20","secondary",,,,,,,,316427395
"United States","fiveto14","p20","stunted",,,,,,,,316427395
"United States","fiveto14","p20","under5",,1,,,,,,316427395
"United States","fiveto14","p20","urban",,1,,,,,,316427395
"United States","fiveto14","primary","rural",,,,,,,,316427395
"United States","fiveto14","primary","secondary",,,,,,,,316427395
"United States","fiveto14","primary","stunted",,,,,,,,316427395
"United States","fiveto14","primary","under5",,,,,,,,316427395
"United States","fiveto14","primary","urban",,,,,,,,316427395
"United States","fiveto14","rural","secondary",,,,,,,,316427395
"United States","fiveto14","rural","stunted",,,,,,,,316427395
"United States","fiveto14","rural","under5",,,,,,,,316427395
"United States","fiveto14","rural","urban",,,,,,,,316427395
"United States","fiveto14","secondary","stunted",,,,,,,,316427395
"United States","fiveto14","secondary","under5",,,,,,,,316427395
"United States","fiveto14","secondary","urban",,,,,,,,316427395
"United States","fiveto14","stunted","under5",,,,,,,,316427395
"United States","fiveto14","stunted","urban",,,,,,,,316427395
"United States","fiveto14","under5","urban",,,,,,,,316427395
"United States","gt49","higher","male",,,,,,,,316427395
"United States","gt49","higher","no.birth.reg",,,,,,,,316427395
"United States","gt49","higher","no.educ",,,,,,,,316427395
"United States","gt49","higher","no.skilled.attendant",,,,,,,,316427395
"United States","gt49","higher","non.p20",,,,,,,,316427395
"United States","gt49","higher","p20",,,,,,,,316427395
"United States","gt49","higher","primary",,,,,,,,316427395
"United States","gt49","higher","rural",,,,,,,,316427395
"United States","gt49","higher","secondary",,,,,,,,316427395
"United States","gt49","higher","stunted",,,,,,,,316427395
"United States","gt49","higher","under5",,,,,,,,316427395
"United States","gt49","higher","urban",,,,,,,,316427395
"United States","gt49","male","no.birth.reg",,,,,,,,316427395
"United States","gt49","male","no.educ",,,,,,,,316427395
"United States","gt49","male","no.skilled.attendant",,,,,,,,316427395
"United States","gt49","male","non.p20",,,99,,,,,316427395
"United States","gt49","male","p20",,,1,,,,,316427395
"United States","gt49","male","primary",,,,,,,,316427395
"United States","gt49","male","rural",,,,,,,,316427395
"United States","gt49","male","secondary",,,,,,,,316427395
"United States","gt49","male","stunted",,,,,,,,316427395
"United States","gt49","male","under5",,,,,,,,316427395
"United States","gt49","male","urban",,,,,,,,316427395
"United States","gt49","no.birth.reg","no.educ",,,,,,,,316427395
"United States","gt49","no.birth.reg","no.skilled.attendant",,,,,,,,316427395
"United States","gt49","no.birth.reg","non.p20",,,,,,,,316427395
"United States","gt49","no.birth.reg","p20",,,,,,,,316427395
"United States","gt49","no.birth.reg","primary",,,,,,,,316427395
"United States","gt49","no.birth.reg","rural",,,,,,,,316427395
"United States","gt49","no.birth.reg","secondary",,,,,,,,316427395
"United States","gt49","no.birth.reg","stunted",,,,,,,,316427395
"United States","gt49","no.birth.reg","under5",,,,,,,,316427395
"United States","gt49","no.birth.reg","urban",,,,,,,,316427395
"United States","gt49","no.educ","no.skilled.attendant",,,,,,,,316427395
"United States","gt49","no.educ","non.p20",,,,,,,,316427395
"United States","gt49","no.educ","p20",,,,,,,,316427395
"United States","gt49","no.educ","primary",,,,,,,,316427395
"United States","gt49","no.educ","rural",,,,,,,,316427395
"United States","gt49","no.educ","secondary",,,,,,,,316427395
"United States","gt49","no.educ","stunted",,,,,,,,316427395
"United States","gt49","no.educ","under5",,,,,,,,316427395
"United States","gt49","no.educ","urban",,,,,,,,316427395
"United States","gt49","no.skilled.attendant","non.p20",,,,,,,,316427395
"United States","gt49","no.skilled.attendant","p20",,,,,,,,316427395
"United States","gt49","no.skilled.attendant","primary",,,,,,,,316427395
"United States","gt49","no.skilled.attendant","rural",,,,,,,,316427395
"United States","gt49","no.skilled.attendant","secondary",,,,,,,,316427395
"United States","gt49","no.skilled.attendant","stunted",,,,,,,,316427395
"United States","gt49","no.skilled.attendant","under5",,,,,,,,316427395
"United States","gt49","no.skilled.attendant","urban",,,,,,,,316427395
"United States","gt49","non.p20","p20",,99,1,,0,,0,316427395
"United States","gt49","non.p20","primary",,,,,,,,316427395
"United States","gt49","non.p20","rural",,99,,,,,,316427395
"United States","gt49","non.p20","secondary",,,,,,,,316427395
"United States","gt49","non.p20","stunted",,,,,,,,316427395
"United States","gt49","non.p20","under5",,99,,,,,,316427395
"United States","gt49","non.p20","urban",,99,,,,,,316427395
"United States","gt49","p20","primary",,,,,,,,316427395
"United States","gt49","p20","rural",,1,,,,,,316427395
"United States","gt49","p20","secondary",,,,,,,,316427395
"United States","gt49","p20","stunted",,,,,,,,316427395
"United States","gt49","p20","under5",,1,,,,,,316427395
"United States","gt49","p20","urban",,1,,,,,,316427395
"United States","gt49","primary","rural",,,,,,,,316427395
"United States","gt49","primary","secondary",,,,,,,,316427395
"United States","gt49","primary","stunted",,,,,,,,316427395
"United States","gt49","primary","under5",,,,,,,,316427395
"United States","gt49","primary","urban",,,,,,,,316427395
"United States","gt49","rural","secondary",,,,,,,,316427395
"United States","gt49","rural","stunted",,,,,,,,316427395
"United States","gt49","rural","under5",,,,,,,,316427395
"United States","gt49","rural","urban",,,,,,,,316427395
"United States","gt49","secondary","stunted",,,,,,,,316427395
"United States","gt49","secondary","under5",,,,,,,,316427395
"United States","gt49","secondary","urban",,,,,,,,316427395
"United States","gt49","stunted","under5",,,,,,,,316427395
"United States","gt49","stunted","urban",,,,,,,,316427395
"United States","gt49","under5","urban",,,,,,,,316427395
"United States","higher","male","no.birth.reg",,,,,,,,316427395
"United States","higher","male","no.educ",,,,,,,,316427395
"United States","higher","male","no.skilled.attendant",,,,,,,,316427395
"United States","higher","male","non.p20",,,,,,,,316427395
"United States","higher","male","p20",,,,,,,,316427395
"United States","higher","male","primary",,,,,,,,316427395
"United States","higher","male","rural",,,,,,,,316427395
"United States","higher","male","secondary",,,,,,,,316427395
"United States","higher","male","stunted",,,,,,,,316427395
"United States","higher","male","under5",,,,,,,,316427395
"United States","higher","male","urban",,,,,,,,316427395
"United States","higher","no.birth.reg","no.educ",,,,,,,,316427395
"United States","higher","no.birth.reg","no.skilled.attendant",,,,,,,,316427395
"United States","higher","no.birth.reg","non.p20",,,,,,,,316427395
"United States","higher","no.birth.reg","p20",,,,,,,,316427395
"United States","higher","no.birth.reg","primary",,,,,,,,316427395
"United States","higher","no.birth.reg","rural",,,,,,,,316427395
"United States","higher","no.birth.reg","secondary",,,,,,,,316427395
"United States","higher","no.birth.reg","stunted",,,,,,,,316427395
"United States","higher","no.birth.reg","under5",,,,,,,,316427395
"United States","higher","no.birth.reg","urban",,,,,,,,316427395
"United States","higher","no.educ","no.skilled.attendant",,,,,,,,316427395
"United States","higher","no.educ","non.p20",,,,,,,,316427395
"United States","higher","no.educ","p20",,,,,,,,316427395
"United States","higher","no.educ","primary",,,,,,,,316427395
"United States","higher","no.educ","rural",,,,,,,,316427395
"United States","higher","no.educ","secondary",,,,,,,,316427395
"United States","higher","no.educ","stunted",,,,,,,,316427395
"United States","higher","no.educ","under5",,,,,,,,316427395
"United States","higher","no.educ","urban",,,,,,,,316427395
"United States","higher","no.skilled.attendant","non.p20",,,,,,,,316427395
"United States","higher","no.skilled.attendant","p20",,,,,,,,316427395
"United States","higher","no.skilled.attendant","primary",,,,,,,,316427395
"United States","higher","no.skilled.attendant","rural",,,,,,,,316427395
"United States","higher","no.skilled.attendant","secondary",,,,,,,,316427395
"United States","higher","no.skilled.attendant","stunted",,,,,,,,316427395
"United States","higher","no.skilled.attendant","under5",,,,,,,,316427395
"United States","higher","no.skilled.attendant","urban",,,,,,,,316427395
"United States","higher","non.p20","p20",,,,,0,,0,316427395
"United States","higher","non.p20","primary",,,,,,,,316427395
"United States","higher","non.p20","rural",,,,,,,,316427395
"United States","higher","non.p20","secondary",,,,,,,,316427395
"United States","higher","non.p20","stunted",,,,,,,,316427395
"United States","higher","non.p20","under5",,,,,,,,316427395
"United States","higher","non.p20","urban",,,,,,,,316427395
"United States","higher","p20","primary",,,,,,,,316427395
"United States","higher","p20","rural",,,,,,,,316427395
"United States","higher","p20","secondary",,,,,,,,316427395
"United States","higher","p20","stunted",,,,,,,,316427395
"United States","higher","p20","under5",,,,,,,,316427395
"United States","higher","p20","urban",,,,,,,,316427395
"United States","higher","primary","rural",,,,,,,,316427395
"United States","higher","primary","secondary",,,,,,,,316427395
"United States","higher","primary","stunted",,,,,,,,316427395
"United States","higher","primary","under5",,,,,,,,316427395
"United States","higher","primary","urban",,,,,,,,316427395
"United States","higher","rural","secondary",,,,,,,,316427395
"United States","higher","rural","stunted",,,,,,,,316427395
"United States","higher","rural","under5",,,,,,,,316427395
"United States","higher","rural","urban",,,,,,,,316427395
"United States","higher","secondary","stunted",,,,,,,,316427395
"United States","higher","secondary","under5",,,,,,,,316427395
"United States","higher","secondary","urban",,,,,,,,316427395
"United States","higher","stunted","under5",,,,,,,,316427395
"United States","higher","stunted","urban",,,,,,,,316427395
"United States","higher","under5","urban",,,,,,,,316427395
"United States","male","no.birth.reg","no.educ",,,,,,,,316427395
"United States","male","no.birth.reg","no.skilled.attendant",,,,,,,,316427395
"United States","male","no.birth.reg","non.p20",,,,,,,,316427395
"United States","male","no.birth.reg","p20",,,,,,,,316427395
"United States","male","no.birth.reg","primary",,,,,,,,316427395
"United States","male","no.birth.reg","rural",,,,,,,,316427395
"United States","male","no.birth.reg","secondary",,,,,,,,316427395
"United States","male","no.birth.reg","stunted",,,,,,,,316427395
"United States","male","no.birth.reg","under5",,,,,,,,316427395
"United States","male","no.birth.reg","urban",,,,,,,,316427395
"United States","male","no.educ","no.skilled.attendant",,,,,,,,316427395
"United States","male","no.educ","non.p20",,,,,,,,316427395
"United States","male","no.educ","p20",,,,,,,,316427395
"United States","male","no.educ","primary",,,,,,,,316427395
"United States","male","no.educ","rural",,,,,,,,316427395
"United States","male","no.educ","secondary",,,,,,,,316427395
"United States","male","no.educ","stunted",,,,,,,,316427395
"United States","male","no.educ","under5",,,,,,,,316427395
"United States","male","no.educ","urban",,,,,,,,316427395
"United States","male","no.skilled.attendant","non.p20",,,,,,,,316427395
"United States","male","no.skilled.attendant","p20",,,,,,,,316427395
"United States","male","no.skilled.attendant","primary",,,,,,,,316427395
"United States","male","no.skilled.attendant","rural",,,,,,,,316427395
"United States","male","no.skilled.attendant","secondary",,,,,,,,316427395
"United States","male","no.skilled.attendant","stunted",,,,,,,,316427395
"United States","male","no.skilled.attendant","under5",,,,,,,,316427395
"United States","male","no.skilled.attendant","urban",,,,,,,,316427395
"United States","male","non.p20","p20",,99,1,,0,,0,316427395
"United States","male","non.p20","primary",,,,,,,,316427395
"United States","male","non.p20","rural",,99,,,,,,316427395
"United States","male","non.p20","secondary",,,,,,,,316427395
"United States","male","non.p20","stunted",,,,,,,,316427395
"United States","male","non.p20","under5",,99,,,,,,316427395
"United States","male","non.p20","urban",,99,,,,,,316427395
"United States","male","p20","primary",,,,,,,,316427395
"United States","male","p20","rural",,1,,,,,,316427395
"United States","male","p20","secondary",,,,,,,,316427395
"United States","male","p20","stunted",,,,,,,,316427395
"United States","male","p20","under5",,1,,,,,,316427395
"United States","male","p20","urban",,1,,,,,,316427395
"United States","male","primary","rural",,,,,,,,316427395
"United States","male","primary","secondary",,,,,,,,316427395
"United States","male","primary","stunted",,,,,,,,316427395
"United States","male","primary","under5",,,,,,,,316427395
"United States","male","primary","urban",,,,,,,,316427395
"United States","male","rural","secondary",,,,,,,,316427395
"United States","male","rural","stunted",,,,,,,,316427395
"United States","male","rural","under5",,,,,,,,316427395
"United States","male","rural","urban",,,,,,,,316427395
"United States","male","secondary","stunted",,,,,,,,316427395
"United States","male","secondary","under5",,,,,,,,316427395
"United States","male","secondary","urban",,,,,,,,316427395
"United States","male","stunted","under5",,,,,,,,316427395
"United States","male","stunted","urban",,,,,,,,316427395
"United States","male","under5","urban",,,,,,,,316427395
"United States","no.birth.reg","no.educ","no.skilled.attendant",,,,,,,,316427395
"United States","no.birth.reg","no.educ","non.p20",,,,,,,,316427395
"United States","no.birth.reg","no.educ","p20",,,,,,,,316427395
"United States","no.birth.reg","no.educ","primary",,,,,,,,316427395
"United States","no.birth.reg","no.educ","rural",,,,,,,,316427395
"United States","no.birth.reg","no.educ","secondary",,,,,,,,316427395
"United States","no.birth.reg","no.educ","stunted",,,,,,,,316427395
"United States","no.birth.reg","no.educ","under5",,,,,,,,316427395
"United States","no.birth.reg","no.educ","urban",,,,,,,,316427395
"United States","no.birth.reg","no.skilled.attendant","non.p20",,,,,,,,316427395
"United States","no.birth.reg","no.skilled.attendant","p20",,,,,,,,316427395
"United States","no.birth.reg","no.skilled.attendant","primary",,,,,,,,316427395
"United States","no.birth.reg","no.skilled.attendant","rural",,,,,,,,316427395
"United States","no.birth.reg","no.skilled.attendant","secondary",,,,,,,,316427395
"United States","no.birth.reg","no.skilled.attendant","stunted",,,,,,,,316427395
"United States","no.birth.reg","no.skilled.attendant","under5",,,,,,,,316427395
"United States","no.birth.reg","no.skilled.attendant","urban",,,,,,,,316427395
"United States","no.birth.reg","non.p20","p20",,,,,0,,0,316427395
"United States","no.birth.reg","non.p20","primary",,,,,,,,316427395
"United States","no.birth.reg","non.p20","rural",,,,,,,,316427395
"United States","no.birth.reg","non.p20","secondary",,,,,,,,316427395
"United States","no.birth.reg","non.p20","stunted",,,,,,,,316427395
"United States","no.birth.reg","non.p20","under5",,,,,,,,316427395
"United States","no.birth.reg","non.p20","urban",,,,,,,,316427395
"United States","no.birth.reg","p20","primary",,,,,,,,316427395
"United States","no.birth.reg","p20","rural",,,,,,,,316427395
"United States","no.birth.reg","p20","secondary",,,,,,,,316427395
"United States","no.birth.reg","p20","stunted",,,,,,,,316427395
"United States","no.birth.reg","p20","under5",,,,,,,,316427395
"United States","no.birth.reg","p20","urban",,,,,,,,316427395
"United States","no.birth.reg","primary","rural",,,,,,,,316427395
"United States","no.birth.reg","primary","secondary",,,,,,,,316427395
"United States","no.birth.reg","primary","stunted",,,,,,,,316427395
"United States","no.birth.reg","primary","under5",,,,,,,,316427395
"United States","no.birth.reg","primary","urban",,,,,,,,316427395
"United States","no.birth.reg","rural","secondary",,,,,,,,316427395
"United States","no.birth.reg","rural","stunted",,,,,,,,316427395
"United States","no.birth.reg","rural","under5",,,,,,,,316427395
"United States","no.birth.reg","rural","urban",,,,,,,,316427395
"United States","no.birth.reg","secondary","stunted",,,,,,,,316427395
"United States","no.birth.reg","secondary","under5",,,,,,,,316427395
"United States","no.birth.reg","secondary","urban",,,,,,,,316427395
"United States","no.birth.reg","stunted","under5",,,,,,,,316427395
"United States","no.birth.reg","stunted","urban",,,,,,,,316427395
"United States","no.birth.reg","under5","urban",,,,,,,,316427395
"United States","no.educ","no.skilled.attendant","non.p20",,,,,,,,316427395
"United States","no.educ","no.skilled.attendant","p20",,,,,,,,316427395
"United States","no.educ","no.skilled.attendant","primary",,,,,,,,316427395
"United States","no.educ","no.skilled.attendant","rural",,,,,,,,316427395
"United States","no.educ","no.skilled.attendant","secondary",,,,,,,,316427395
"United States","no.educ","no.skilled.attendant","stunted",,,,,,,,316427395
"United States","no.educ","no.skilled.attendant","under5",,,,,,,,316427395
"United States","no.educ","no.skilled.attendant","urban",,,,,,,,316427395
"United States","no.educ","non.p20","p20",,,,,0,,0,316427395
"United States","no.educ","non.p20","primary",,,,,,,,316427395
"United States","no.educ","non.p20","rural",,,,,,,,316427395
"United States","no.educ","non.p20","secondary",,,,,,,,316427395
"United States","no.educ","non.p20","stunted",,,,,,,,316427395
"United States","no.educ","non.p20","under5",,,,,,,,316427395
"United States","no.educ","non.p20","urban",,,,,,,,316427395
"United States","no.educ","p20","primary",,,,,,,,316427395
"United States","no.educ","p20","rural",,,,,,,,316427395
"United States","no.educ","p20","secondary",,,,,,,,316427395
"United States","no.educ","p20","stunted",,,,,,,,316427395
"United States","no.educ","p20","under5",,,,,,,,316427395
"United States","no.educ","p20","urban",,,,,,,,316427395
"United States","no.educ","primary","rural",,,,,,,,316427395
"United States","no.educ","primary","secondary",,,,,,,,316427395
"United States","no.educ","primary","stunted",,,,,,,,316427395
"United States","no.educ","primary","under5",,,,,,,,316427395
"United States","no.educ","primary","urban",,,,,,,,316427395
"United States","no.educ","rural","secondary",,,,,,,,316427395
"United States","no.educ","rural","stunted",,,,,,,,316427395
"United States","no.educ","rural","under5",,,,,,,,316427395
"United States","no.educ","rural","urban",,,,,,,,316427395
"United States","no.educ","secondary","stunted",,,,,,,,316427395
"United States","no.educ","secondary","under5",,,,,,,,316427395
"United States","no.educ","secondary","urban",,,,,,,,316427395
"United States","no.educ","stunted","under5",,,,,,,,316427395
"United States","no.educ","stunted","urban",,,,,,,,316427395
"United States","no.educ","under5","urban",,,,,,,,316427395
"United States","no.skilled.attendant","non.p20","p20",,,,,0,,0,316427395
"United States","no.skilled.attendant","non.p20","primary",,,,,,,,316427395
"United States","no.skilled.attendant","non.p20","rural",,,,,,,,316427395
"United States","no.skilled.attendant","non.p20","secondary",,,,,,,,316427395
"United States","no.skilled.attendant","non.p20","stunted",,,,,,,,316427395
"United States","no.skilled.attendant","non.p20","under5",,,,,,,,316427395
"United States","no.skilled.attendant","non.p20","urban",,,,,,,,316427395
"United States","no.skilled.attendant","p20","primary",,,,,,,,316427395
"United States","no.skilled.attendant","p20","rural",,,,,,,,316427395
"United States","no.skilled.attendant","p20","secondary",,,,,,,,316427395
"United States","no.skilled.attendant","p20","stunted",,,,,,,,316427395
"United States","no.skilled.attendant","p20","under5",,,,,,,,316427395
"United States","no.skilled.attendant","p20","urban",,,,,,,,316427395
"United States","no.skilled.attendant","primary","rural",,,,,,,,316427395
"United States","no.skilled.attendant","primary","secondary",,,,,,,,316427395
"United States","no.skilled.attendant","primary","stunted",,,,,,,,316427395
"United States","no.skilled.attendant","primary","under5",,,,,,,,316427395
"United States","no.skilled.attendant","primary","urban",,,,,,,,316427395
"United States","no.skilled.attendant","rural","secondary",,,,,,,,316427395
"United States","no.skilled.attendant","rural","stunted",,,,,,,,316427395
"United States","no.skilled.attendant","rural","under5",,,,,,,,316427395
"United States","no.skilled.attendant","rural","urban",,,,,,,,316427395
"United States","no.skilled.attendant","secondary","stunted",,,,,,,,316427395
"United States","no.skilled.attendant","secondary","under5",,,,,,,,316427395
"United States","no.skilled.attendant","secondary","urban",,,,,,,,316427395
"United States","no.skilled.attendant","stunted","under5",,,,,,,,316427395
"United States","no.skilled.attendant","stunted","urban",,,,,,,,316427395
"United States","no.skilled.attendant","under5","urban",,,,,,,,316427395
"United States","non.p20","p20","primary",,,,0,,,0,316427395
"United States","non.p20","p20","rural",99,1,,0,,,0,316427395
"United States","non.p20","p20","secondary",,,,0,,,0,316427395
"United States","non.p20","p20","stunted",,,,0,,,0,316427395
"United States","non.p20","p20","under5",99,1,,0,,,0,316427395
"United States","non.p20","p20","urban",99,1,,0,,,0,316427395
"United States","non.p20","primary","rural",,,,,,,,316427395
"United States","non.p20","primary","secondary",,,,,,,,316427395
"United States","non.p20","primary","stunted",,,,,,,,316427395
"United States","non.p20","primary","under5",,,,,,,,316427395
"United States","non.p20","primary","urban",,,,,,,,316427395
"United States","non.p20","rural","secondary",,,,,,,,316427395
"United States","non.p20","rural","stunted",,,,,,,,316427395
"United States","non.p20","rural","under5",99,,,,,,,316427395
"United States","non.p20","rural","urban",99,,,,,,,316427395
"United States","non.p20","secondary","stunted",,,,,,,,316427395
"United States","non.p20","secondary","under5",,,,,,,,316427395
"United States","non.p20","secondary","urban",,,,,,,,316427395
"United States","non.p20","stunted","under5",,,,,,,,316427395
"United States","non.p20","stunted","urban",,,,,,,,316427395
"United States","non.p20","under5","urban",99,,,,,,,316427395
"United States","p20","primary","rural",,,,,,,,316427395
"United States","p20","primary","secondary",,,,,,,,316427395
"United States","p20","primary","stunted",,,,,,,,316427395
"United States","p20","primary","under5",,,,,,,,316427395
"United States","p20","primary","urban",,,,,,,,316427395
"United States","p20","rural","secondary",,,,,,,,316427395
"United States","p20","rural","stunted",,,,,,,,316427395
"United States","p20","rural","under5",1,,,,,,,316427395
"United States","p20","rural","urban",1,,,,,,,316427395
"United States","p20","secondary","stunted",,,,,,,,316427395
"United States","p20","secondary","under5",,,,,,,,316427395
"United States","p20","secondary","urban",,,,,,,,316427395
"United States","p20","stunted","under5",,,,,,,,316427395
"United States","p20","stunted","urban",,,,,,,,316427395
"United States","p20","under5","urban",1,,,,,,,316427395
"United States","primary","rural","secondary",,,,,,,,316427395
"United States","primary","rural","stunted",,,,,,,,316427395
"United States","primary","rural","under5",,,,,,,,316427395
"United States","primary","rural","urban",,,,,,,,316427395
"United States","primary","secondary","stunted",,,,,,,,316427395
"United States","primary","secondary","under5",,,,,,,,316427395
"United States","primary","secondary","urban",,,,,,,,316427395
"United States","primary","stunted","under5",,,,,,,,316427395
"United States","primary","stunted","urban",,,,,,,,316427395
"United States","primary","under5","urban",,,,,,,,316427395
"United States","rural","secondary","stunted",,,,,,,,316427395
"United States","rural","secondary","under5",,,,,,,,316427395
"United States","rural","secondary","urban",,,,,,,,316427395
"United States","rural","stunted","under5",,,,,,,,316427395
"United States","rural","stunted","urban",,,,,,,,316427395
"United States","rural","under5","urban",,,,,,,,316427395
"United States","secondary","stunted","under5",,,,,,,,316427395
"United States","secondary","stunted","urban",,,,,,,,316427395
"United States","secondary","under5","urban",,,,,,,,316427395
"United States","stunted","under5","urban",,,,,,,,316427395
